{"type": "FeatureCollection", "features": [{"type": "Feature", "geometry": {"type": "Polygon", "coordinates": [[[327630.392102, 4672363.362703], [327630.392102, 4672440.452076], [327553.302728, 4672440.452076], [327553.302728, 4672363.362703], [327630.392102, 4672363.362703]]]}, "properties": {"source_tile": "K-35-062-2_Rakovski_x2688_y3136.png", "label": "mound", "subtype": "burial_mound", "reasoning": "Brown hollow circle with radiating spikes, located adjacent to elevation label '3'. Confirmed by visual 'sunburst' shape.", "confidence": "high"}}, {"type": "Feature", "geometry": {"type": "Polygon", "coordinates": [[[327900.204907, 4672414.755619], [327900.204907, 4672491.844992], [327823.115534, 4672491.844992], [327823.115534, 4672414.755619], [327900.204907, 4672414.755619]]]}, "properties": {"source_tile": "K-35-062-2_Rakovski_x2688_y3136.png", "label": "mound", "subtype": "burial_mound", "reasoning": "Brown hollow circle with radiating spikes, located adjacent to elevation label '2'. Overlapped by dashed lines but distinct 'gear' shape remains visible.", "confidence": "high"}}, {"type": "Feature", "geometry": {"type": "Polygon", "coordinates": [[[327784.570848, 4671592.468972], [327784.570848, 4671669.558345], [327707.481475, 4671669.558345], [327707.481475, 4671592.468972], [327784.570848, 4671592.468972]]]}, "properties": {"source_tile": "K-35-062-2_Rakovski_x2688_y3136.png", "label": "mound", "subtype": "burial_mound", "reasoning": "Brown hollow circle with radiating spikes, located adjacent to elevation label '10'. Distinct from nearby blue river line.", "confidence": "high"}}, {"type": "Feature", "geometry": {"type": "Polygon", "coordinates": [[[327643.24033, 4671129.932733], [327643.24033, 4671207.022107], [327566.150957, 4671207.022107], [327566.150957, 4671129.932733], [327643.24033, 4671129.932733]]]}, "properties": {"source_tile": "K-35-062-2_Rakovski_x2688_y3136.png", "label": "mound", "subtype": "burial_mound", "reasoning": "Brown hollow circle with radiating spikes, located adjacent to elevation label '2' in the bottom left corner.", "confidence": "high"}}, {"type": "Feature", "geometry": {"type": "Polygon", "coordinates": [[[328722.491554, 4671412.593768], [328722.491554, 4671489.683141], [328645.402181, 4671489.683141], [328645.402181, 4671412.593768], [328722.491554, 4671412.593768]]]}, "properties": {"source_tile": "K-35-062-2_Rakovski_x2688_y3136.png", "label": "mound", "subtype": "burial_mound", "reasoning": "Brown hollow circle with radiating spikes, located adjacent to elevation label '3' near the center-bottom area.", "confidence": "high"}}, {"type": "Feature", "geometry": {"type": "Polygon", "coordinates": [[[329776.04632, 4671181.325649], [329776.04632, 4671284.11148], [329686.108718, 4671284.11148], [329686.108718, 4671181.325649], [329776.04632, 4671181.325649]]]}, "properties": {"source_tile": "K-35-062-2_Rakovski_x2688_y3136.png", "label": "mound", "subtype": "triangulation_mound", "reasoning": "Black triangle with central dot surrounded by radiating spikes. Explicitly confirmed by the adjacent text label '\u043a\u0443\u0440\u0433.' (kurgan).", "confidence": "high"}}], "crs": {"type": "name", "properties": {"name": "urn:ogc:def:crs:EPSG::32635"}}}