{
"type": "FeatureCollection",
"name": "calibration_bounds_160",
"crs": { "type": "name", "properties": { "name": "urn:ogc:def:crs:EPSG::32635" } },
"features": [
{ "type": "Feature", "properties": { "tile_name": "K-35-052-4_32635_x0_y336.png", "map_name": "K-35-052-4_32635", "mound_count": 4, "density": "dense" }, "geometry": { "type": "Polygon", "coordinates": [ [ [ 396889.015266932197846, 4704322.69510424695909 ], [ 398812.935506286623422, 4704322.69510424695909 ], [ 398812.935506286623422, 4702398.774864892475307 ], [ 396889.015266932197846, 4702398.774864892475307 ], [ 396889.015266932197846, 4704322.69510424695909 ] ] ] } },
{ "type": "Feature", "properties": { "tile_name": "K-35-052-4_32635_x0_y2016.png", "map_name": "K-35-052-4_32635", "mound_count": 4, "density": "dense" }, "geometry": { "type": "Polygon", "coordinates": [ [ [ 396889.015266932197846, 4695905.544057072140276 ], [ 398812.935506286623422, 4695905.544057072140276 ], [ 398812.935506286623422, 4693981.623817717656493 ], [ 396889.015266932197846, 4693981.623817717656493 ], [ 396889.015266932197846, 4695905.544057072140276 ] ] ] } },
{ "type": "Feature", "properties": { "tile_name": "K-35-052-4_32635_x4032_y1680.png", "map_name": "K-35-052-4_32635", "mound_count": 9, "density": "dense" }, "geometry": { "type": "Polygon", "coordinates": [ [ [ 417090.177780153811909, 4697588.97426650673151 ], [ 419014.098019508237485, 4697588.97426650673151 ], [ 419014.098019508237485, 4695665.054027152247727 ], [ 417090.177780153811909, 4695665.054027152247727 ], [ 417090.177780153811909, 4697588.97426650673151 ] ] ] } },
{ "type": "Feature", "properties": { "tile_name": "K-35-052-4_32635_x1680_y0.png", "map_name": "K-35-052-4_32635", "mound_count": 7, "density": "dense" }, "geometry": { "type": "Polygon", "coordinates": [ [ [ 405306.166314107889775, 4706006.125313682481647 ], [ 407230.086553462315351, 4706006.125313682481647 ], [ 407230.086553462315351, 4704082.205074327997863 ], [ 405306.166314107889775, 4704082.205074327997863 ], [ 405306.166314107889775, 4706006.125313682481647 ] ] ] } },
{ "type": "Feature", "properties": { "tile_name": "K-35-052-4_32635_x672_y2352.png", "map_name": "K-35-052-4_32635", "mound_count": 5, "density": "dense" }, "geometry": { "type": "Polygon", "coordinates": [ [ [ 400255.875685802486259, 4694222.11384763661772 ], [ 402179.795925156911835, 4694222.11384763661772 ], [ 402179.795925156911835, 4692298.193608282133937 ], [ 400255.875685802486259, 4692298.193608282133937 ], [ 400255.875685802486259, 4694222.11384763661772 ] ] ] } },
{ "type": "Feature", "properties": { "tile_name": "K-35-052-4_32635_x4032_y2016.png", "map_name": "K-35-052-4_32635", "mound_count": 3, "density": "dense" }, "geometry": { "type": "Polygon", "coordinates": [ [ [ 417090.177780153811909, 4695905.544057072140276 ], [ 419014.098019508237485, 4695905.544057072140276 ], [ 419014.098019508237485, 4693981.623817717656493 ], [ 417090.177780153811909, 4693981.623817717656493 ], [ 417090.177780153811909, 4695905.544057072140276 ] ] ] } },
{ "type": "Feature", "properties": { "tile_name": "K-35-052-4_32635_x1344_y3696.png", "map_name": "K-35-052-4_32635", "mound_count": 0, "density": "empty" }, "geometry": { "type": "Polygon", "coordinates": [ [ [ 403622.736104672716465, 4687488.39300989639014 ], [ 405546.65634402714204, 4687488.39300989639014 ], [ 405546.65634402714204, 4685564.472770541906357 ], [ 403622.736104672716465, 4685564.472770541906357 ], [ 403622.736104672716465, 4687488.39300989639014 ] ] ] } },
{ "type": "Feature", "properties": { "tile_name": "K-35-052-4_32635_x4032_y2688.png", "map_name": "K-35-052-4_32635", "mound_count": 0, "density": "empty" }, "geometry": { "type": "Polygon", "coordinates": [ [ [ 417090.177780153811909, 4692538.683638201095164 ], [ 419014.098019508237485, 4692538.683638201095164 ], [ 419014.098019508237485, 4690614.763398846611381 ], [ 417090.177780153811909, 4690614.763398846611381 ], [ 417090.177780153811909, 4692538.683638201095164 ] ] ] } },
{ "type": "Feature", "properties": { "tile_name": "K-35-052-4_32635_x1344_y3024.png", "map_name": "K-35-052-4_32635", "mound_count": 0, "density": "empty" }, "geometry": { "type": "Polygon", "coordinates": [ [ [ 403622.736104672716465, 4690855.25342876650393 ], [ 405546.65634402714204, 4690855.25342876650393 ], [ 405546.65634402714204, 4688931.333189412020147 ], [ 403622.736104672716465, 4688931.333189412020147 ], [ 403622.736104672716465, 4690855.25342876650393 ] ] ] } },
{ "type": "Feature", "properties": { "tile_name": "K-35-052-4_32635_x3696_y672.png", "map_name": "K-35-052-4_32635", "mound_count": 0, "density": "empty" }, "geometry": { "type": "Polygon", "coordinates": [ [ [ 415406.747570718696807, 4702639.264894812367857 ], [ 417330.667810073122382, 4702639.264894812367857 ], [ 417330.667810073122382, 4700715.344655457884073 ], [ 415406.747570718696807, 4700715.344655457884073 ], [ 415406.747570718696807, 4702639.264894812367857 ] ] ] } },
{ "type": "Feature", "properties": { "tile_name": "K-35-052-4_32635_x672_y3696.png", "map_name": "K-35-052-4_32635", "mound_count": 0, "density": "empty" }, "geometry": { "type": "Polygon", "coordinates": [ [ [ 400255.875685802486259, 4687488.39300989639014 ], [ 402179.795925156911835, 4687488.39300989639014 ], [ 402179.795925156911835, 4685564.472770541906357 ], [ 400255.875685802486259, 4685564.472770541906357 ], [ 400255.875685802486259, 4687488.39300989639014 ] ] ] } },
{ "type": "Feature", "properties": { "tile_name": "K-35-052-4_32635_x336_y3696.png", "map_name": "K-35-052-4_32635", "mound_count": 0, "density": "empty" }, "geometry": { "type": "Polygon", "coordinates": [ [ [ 398572.445476367312949, 4687488.39300989639014 ], [ 400496.365715721738525, 4687488.39300989639014 ], [ 400496.365715721738525, 4685564.472770541906357 ], [ 398572.445476367312949, 4685564.472770541906357 ], [ 398572.445476367312949, 4687488.39300989639014 ] ] ] } },
{ "type": "Feature", "properties": { "tile_name": "K-35-052-4_32635_x1344_y0.png", "map_name": "K-35-052-4_32635", "mound_count": 0, "density": "empty" }, "geometry": { "type": "Polygon", "coordinates": [ [ [ 403622.736104672716465, 4706006.125313682481647 ], [ 405546.65634402714204, 4706006.125313682481647 ], [ 405546.65634402714204, 4704082.205074327997863 ], [ 403622.736104672716465, 4704082.205074327997863 ], [ 403622.736104672716465, 4706006.125313682481647 ] ] ] } },
{ "type": "Feature", "properties": { "tile_name": "K-35-052-4_32635_x3696_y1008.png", "map_name": "K-35-052-4_32635", "mound_count": 0, "density": "empty" }, "geometry": { "type": "Polygon", "coordinates": [ [ [ 415406.747570718696807, 4700955.8346853768453 ], [ 417330.667810073122382, 4700955.8346853768453 ], [ 417330.667810073122382, 4699031.914446022361517 ], [ 415406.747570718696807, 4699031.914446022361517 ], [ 415406.747570718696807, 4700955.8346853768453 ] ] ] } },
{ "type": "Feature", "properties": { "tile_name": "K-35-052-4_32635_x3360_y0.png", "map_name": "K-35-052-4_32635", "mound_count": 0, "density": "empty" }, "geometry": { "type": "Polygon", "coordinates": [ [ [ 413723.317361283581704, 4706006.125313682481647 ], [ 415647.237600638007279, 4706006.125313682481647 ], [ 415647.237600638007279, 4704082.205074327997863 ], [ 413723.317361283581704, 4704082.205074327997863 ], [ 413723.317361283581704, 4706006.125313682481647 ] ] ] } },
{ "type": "Feature", "properties": { "tile_name": "K-35-052-4_32635_x1008_y0.png", "map_name": "K-35-052-4_32635", "mound_count": 0, "density": "empty" }, "geometry": { "type": "Polygon", "coordinates": [ [ [ 401939.305895237601362, 4706006.125313682481647 ], [ 403863.226134592026938, 4706006.125313682481647 ], [ 403863.226134592026938, 4704082.205074327997863 ], [ 401939.305895237601362, 4704082.205074327997863 ], [ 401939.305895237601362, 4706006.125313682481647 ] ] ] } },
{ "type": "Feature", "properties": { "tile_name": "K-35-052-4_32635_x0_y3696.png", "map_name": "K-35-052-4_32635", "mound_count": 0, "density": "empty" }, "geometry": { "type": "Polygon", "coordinates": [ [ [ 396889.015266932197846, 4687488.39300989639014 ], [ 398812.935506286623422, 4687488.39300989639014 ], [ 398812.935506286623422, 4685564.472770541906357 ], [ 396889.015266932197846, 4685564.472770541906357 ], [ 396889.015266932197846, 4687488.39300989639014 ] ] ] } },
{ "type": "Feature", "properties": { "tile_name": "K-35-052-4_32635_x4032_y3696.png", "map_name": "K-35-052-4_32635", "mound_count": 0, "density": "empty" }, "geometry": { "type": "Polygon", "coordinates": [ [ [ 417090.177780153811909, 4687488.39300989639014 ], [ 419014.098019508237485, 4687488.39300989639014 ], [ 419014.098019508237485, 4685564.472770541906357 ], [ 417090.177780153811909, 4685564.472770541906357 ], [ 417090.177780153811909, 4687488.39300989639014 ] ] ] } },
{ "type": "Feature", "properties": { "tile_name": "K-35-052-4_32635_x2016_y1680.png", "map_name": "K-35-052-4_32635", "mound_count": 0, "density": "empty" }, "geometry": { "type": "Polygon", "coordinates": [ [ [ 406989.596523543004878, 4697588.97426650673151 ], [ 408913.516762897430453, 4697588.97426650673151 ], [ 408913.516762897430453, 4695665.054027152247727 ], [ 406989.596523543004878, 4695665.054027152247727 ], [ 406989.596523543004878, 4697588.97426650673151 ] ] ] } },
{ "type": "Feature", "properties": { "tile_name": "K-35-052-4_32635_x2016_y672.png", "map_name": "K-35-052-4_32635", "mound_count": 0, "density": "empty" }, "geometry": { "type": "Polygon", "coordinates": [ [ [ 406989.596523543004878, 4702639.264894812367857 ], [ 408913.516762897430453, 4702639.264894812367857 ], [ 408913.516762897430453, 4700715.344655457884073 ], [ 406989.596523543004878, 4700715.344655457884073 ], [ 406989.596523543004878, 4702639.264894812367857 ] ] ] } },
{ "type": "Feature", "properties": { "tile_name": "K-35-052-4_32635_x336_y3024.png", "map_name": "K-35-052-4_32635", "mound_count": 0, "density": "empty" }, "geometry": { "type": "Polygon", "coordinates": [ [ [ 398572.445476367312949, 4690855.25342876650393 ], [ 400496.365715721738525, 4690855.25342876650393 ], [ 400496.365715721738525, 4688931.333189412020147 ], [ 398572.445476367312949, 4688931.333189412020147 ], [ 398572.445476367312949, 4690855.25342876650393 ] ] ] } },
{ "type": "Feature", "properties": { "tile_name": "K-35-052-4_32635_x3696_y1680.png", "map_name": "K-35-052-4_32635", "mound_count": 0, "density": "empty" }, "geometry": { "type": "Polygon", "coordinates": [ [ [ 415406.747570718696807, 4697588.97426650673151 ], [ 417330.667810073122382, 4697588.97426650673151 ], [ 417330.667810073122382, 4695665.054027152247727 ], [ 415406.747570718696807, 4695665.054027152247727 ], [ 415406.747570718696807, 4697588.97426650673151 ] ] ] } },
{ "type": "Feature", "properties": { "tile_name": "K-35-052-4_32635_x4032_y2352.png", "map_name": "K-35-052-4_32635", "mound_count": 0, "density": "empty" }, "geometry": { "type": "Polygon", "coordinates": [ [ [ 417090.177780153811909, 4694222.11384763661772 ], [ 419014.098019508237485, 4694222.11384763661772 ], [ 419014.098019508237485, 4692298.193608282133937 ], [ 417090.177780153811909, 4692298.193608282133937 ], [ 417090.177780153811909, 4694222.11384763661772 ] ] ] } },
{ "type": "Feature", "properties": { "tile_name": "K-35-052-4_32635_x336_y672.png", "map_name": "K-35-052-4_32635", "mound_count": 0, "density": "empty" }, "geometry": { "type": "Polygon", "coordinates": [ [ [ 398572.445476367312949, 4702639.264894812367857 ], [ 400496.365715721738525, 4702639.264894812367857 ], [ 400496.365715721738525, 4700715.344655457884073 ], [ 398572.445476367312949, 4700715.344655457884073 ], [ 398572.445476367312949, 4702639.264894812367857 ] ] ] } },
{ "type": "Feature", "properties": { "tile_name": "K-35-052-4_32635_x1680_y672.png", "map_name": "K-35-052-4_32635", "mound_count": 0, "density": "empty" }, "geometry": { "type": "Polygon", "coordinates": [ [ [ 405306.166314107889775, 4702639.264894812367857 ], [ 407230.086553462315351, 4702639.264894812367857 ], [ 407230.086553462315351, 4700715.344655457884073 ], [ 405306.166314107889775, 4700715.344655457884073 ], [ 405306.166314107889775, 4702639.264894812367857 ] ] ] } },
{ "type": "Feature", "properties": { "tile_name": "K-35-052-4_32635_x672_y2016.png", "map_name": "K-35-052-4_32635", "mound_count": 1, "density": "sparse" }, "geometry": { "type": "Polygon", "coordinates": [ [ [ 400255.875685802486259, 4695905.544057072140276 ], [ 402179.795925156911835, 4695905.544057072140276 ], [ 402179.795925156911835, 4693981.623817717656493 ], [ 400255.875685802486259, 4693981.623817717656493 ], [ 400255.875685802486259, 4695905.544057072140276 ] ] ] } },
{ "type": "Feature", "properties": { "tile_name": "K-35-052-4_32635_x3696_y1344.png", "map_name": "K-35-052-4_32635", "mound_count": 2, "density": "sparse" }, "geometry": { "type": "Polygon", "coordinates": [ [ [ 415406.747570718696807, 4699272.404475942254066 ], [ 417330.667810073122382, 4699272.404475942254066 ], [ 417330.667810073122382, 4697348.484236587770283 ], [ 415406.747570718696807, 4697348.484236587770283 ], [ 415406.747570718696807, 4699272.404475942254066 ] ] ] } },
{ "type": "Feature", "properties": { "tile_name": "K-35-052-4_32635_x3360_y2016.png", "map_name": "K-35-052-4_32635", "mound_count": 1, "density": "sparse" }, "geometry": { "type": "Polygon", "coordinates": [ [ [ 413723.317361283581704, 4695905.544057072140276 ], [ 415647.237600638007279, 4695905.544057072140276 ], [ 415647.237600638007279, 4693981.623817717656493 ], [ 413723.317361283581704, 4693981.623817717656493 ], [ 413723.317361283581704, 4695905.544057072140276 ] ] ] } },
{ "type": "Feature", "properties": { "tile_name": "K-35-052-4_32635_x2016_y3024.png", "map_name": "K-35-052-4_32635", "mound_count": 2, "density": "sparse" }, "geometry": { "type": "Polygon", "coordinates": [ [ [ 406989.596523543004878, 4690855.25342876650393 ], [ 408913.516762897430453, 4690855.25342876650393 ], [ 408913.516762897430453, 4688931.333189412020147 ], [ 406989.596523543004878, 4688931.333189412020147 ], [ 406989.596523543004878, 4690855.25342876650393 ] ] ] } },
{ "type": "Feature", "properties": { "tile_name": "K-35-052-4_32635_x3360_y2688.png", "map_name": "K-35-052-4_32635", "mound_count": 2, "density": "sparse" }, "geometry": { "type": "Polygon", "coordinates": [ [ [ 413723.317361283581704, 4692538.683638201095164 ], [ 415647.237600638007279, 4692538.683638201095164 ], [ 415647.237600638007279, 4690614.763398846611381 ], [ 413723.317361283581704, 4690614.763398846611381 ], [ 413723.317361283581704, 4692538.683638201095164 ] ] ] } },
{ "type": "Feature", "properties": { "tile_name": "K-35-052-4_32635_x3696_y2688.png", "map_name": "K-35-052-4_32635", "mound_count": 1, "density": "sparse" }, "geometry": { "type": "Polygon", "coordinates": [ [ [ 415406.747570718696807, 4692538.683638201095164 ], [ 417330.667810073122382, 4692538.683638201095164 ], [ 417330.667810073122382, 4690614.763398846611381 ], [ 415406.747570718696807, 4690614.763398846611381 ], [ 415406.747570718696807, 4692538.683638201095164 ] ] ] } },
{ "type": "Feature", "properties": { "tile_name": "K-35-052-4_32635_x2352_y3024.png", "map_name": "K-35-052-4_32635", "mound_count": 1, "density": "sparse" }, "geometry": { "type": "Polygon", "coordinates": [ [ [ 408673.026732978178188, 4690855.25342876650393 ], [ 410596.946972332603764, 4690855.25342876650393 ], [ 410596.946972332603764, 4688931.333189412020147 ], [ 408673.026732978178188, 4688931.333189412020147 ], [ 408673.026732978178188, 4690855.25342876650393 ] ] ] } },
{ "type": "Feature", "properties": { "tile_name": "K-35-052-4_32635_x0_y0.png", "map_name": "K-35-052-4_32635", "mound_count": 1, "density": "sparse" }, "geometry": { "type": "Polygon", "coordinates": [ [ [ 396889.015266932197846, 4706006.125313682481647 ], [ 398812.935506286623422, 4706006.125313682481647 ], [ 398812.935506286623422, 4704082.205074327997863 ], [ 396889.015266932197846, 4704082.205074327997863 ], [ 396889.015266932197846, 4706006.125313682481647 ] ] ] } },
{ "type": "Feature", "properties": { "tile_name": "K-35-052-4_32635_x1344_y672.png", "map_name": "K-35-052-4_32635", "mound_count": 1, "density": "sparse" }, "geometry": { "type": "Polygon", "coordinates": [ [ [ 403622.736104672716465, 4702639.264894812367857 ], [ 405546.65634402714204, 4702639.264894812367857 ], [ 405546.65634402714204, 4700715.344655457884073 ], [ 403622.736104672716465, 4700715.344655457884073 ], [ 403622.736104672716465, 4702639.264894812367857 ] ] ] } },
{ "type": "Feature", "properties": { "tile_name": "K-35-052-4_32635_x3360_y2352.png", "map_name": "K-35-052-4_32635", "mound_count": 1, "density": "sparse" }, "geometry": { "type": "Polygon", "coordinates": [ [ [ 413723.317361283581704, 4694222.11384763661772 ], [ 415647.237600638007279, 4694222.11384763661772 ], [ 415647.237600638007279, 4692298.193608282133937 ], [ 413723.317361283581704, 4692298.193608282133937 ], [ 413723.317361283581704, 4694222.11384763661772 ] ] ] } },
{ "type": "Feature", "properties": { "tile_name": "K-35-052-4_32635_x2688_y1680.png", "map_name": "K-35-052-4_32635", "mound_count": 2, "density": "sparse" }, "geometry": { "type": "Polygon", "coordinates": [ [ [ 410356.456942413293291, 4697588.97426650673151 ], [ 412280.377181767718866, 4697588.97426650673151 ], [ 412280.377181767718866, 4695665.054027152247727 ], [ 410356.456942413293291, 4695665.054027152247727 ], [ 410356.456942413293291, 4697588.97426650673151 ] ] ] } },
{ "type": "Feature", "properties": { "tile_name": "K-35-052-4_32635_x3696_y2352.png", "map_name": "K-35-052-4_32635", "mound_count": 1, "density": "sparse" }, "geometry": { "type": "Polygon", "coordinates": [ [ [ 415406.747570718696807, 4694222.11384763661772 ], [ 417330.667810073122382, 4694222.11384763661772 ], [ 417330.667810073122382, 4692298.193608282133937 ], [ 415406.747570718696807, 4692298.193608282133937 ], [ 415406.747570718696807, 4694222.11384763661772 ] ] ] } },
{ "type": "Feature", "properties": { "tile_name": "K-35-052-4_32635_x0_y3024.png", "map_name": "K-35-052-4_32635", "mound_count": 1, "density": "sparse" }, "geometry": { "type": "Polygon", "coordinates": [ [ [ 396889.015266932197846, 4690855.25342876650393 ], [ 398812.935506286623422, 4690855.25342876650393 ], [ 398812.935506286623422, 4688931.333189412020147 ], [ 396889.015266932197846, 4688931.333189412020147 ], [ 396889.015266932197846, 4690855.25342876650393 ] ] ] } },
{ "type": "Feature", "properties": { "tile_name": "K-35-052-4_32635_x1008_y336.png", "map_name": "K-35-052-4_32635", "mound_count": 2, "density": "sparse" }, "geometry": { "type": "Polygon", "coordinates": [ [ [ 401939.305895237601362, 4704322.69510424695909 ], [ 403863.226134592026938, 4704322.69510424695909 ], [ 403863.226134592026938, 4702398.774864892475307 ], [ 401939.305895237601362, 4702398.774864892475307 ], [ 401939.305895237601362, 4704322.69510424695909 ] ] ] } },
{ "type": "Feature", "properties": { "tile_name": "K-35-052-4_32635_x3024_y2016.png", "map_name": "K-35-052-4_32635", "mound_count": 2, "density": "sparse" }, "geometry": { "type": "Polygon", "coordinates": [ [ [ 412039.887151848408394, 4695905.544057072140276 ], [ 413963.807391202833969, 4695905.544057072140276 ], [ 413963.807391202833969, 4693981.623817717656493 ], [ 412039.887151848408394, 4693981.623817717656493 ], [ 412039.887151848408394, 4695905.544057072140276 ] ] ] } },
{ "type": "Feature", "properties": { "tile_name": "K-35-053-3_Elenovo_x2352_y0.png", "map_name": "K-35-053-3_Elenovo", "mound_count": 4, "density": "dense" }, "geometry": { "type": "Polygon", "coordinates": [ [ [ 429269.190139182668645, 4705733.604015892371535 ], [ 431193.030067912302911, 4705733.604015892371535 ], [ 431193.030067912302911, 4703809.764087162911892 ], [ 429269.190139182668645, 4703809.764087162911892 ], [ 429269.190139182668645, 4705733.604015892371535 ] ] ] } },
{ "type": "Feature", "properties": { "tile_name": "K-35-053-3_Elenovo_x1008_y3024.png", "map_name": "K-35-053-3_Elenovo", "mound_count": 3, "density": "dense" }, "geometry": { "type": "Polygon", "coordinates": [ [ [ 422535.750388628861401, 4690583.364577146247029 ], [ 424459.590317358495668, 4690583.364577146247029 ], [ 424459.590317358495668, 4688659.524648416787386 ], [ 422535.750388628861401, 4688659.524648416787386 ], [ 422535.750388628861401, 4690583.364577146247029 ] ] ] } },
{ "type": "Feature", "properties": { "tile_name": "K-35-053-3_Elenovo_x1008_y0.png", "map_name": "K-35-053-3_Elenovo", "mound_count": 4, "density": "dense" }, "geometry": { "type": "Polygon", "coordinates": [ [ [ 422535.750388628861401, 4705733.604015892371535 ], [ 424459.590317358495668, 4705733.604015892371535 ], [ 424459.590317358495668, 4703809.764087162911892 ], [ 422535.750388628861401, 4703809.764087162911892 ], [ 422535.750388628861401, 4705733.604015892371535 ] ] ] } },
{ "type": "Feature", "properties": { "tile_name": "K-35-053-3_Elenovo_x3024_y2016.png", "map_name": "K-35-053-3_Elenovo", "mound_count": 4, "density": "dense" }, "geometry": { "type": "Polygon", "coordinates": [ [ [ 432635.910014459572267, 4695633.444390061311424 ], [ 434559.749943189206533, 4695633.444390061311424 ], [ 434559.749943189206533, 4693709.60446133185178 ], [ 432635.910014459572267, 4693709.60446133185178 ], [ 432635.910014459572267, 4695633.444390061311424 ] ] ] } },
{ "type": "Feature", "properties": { "tile_name": "K-35-053-3_Elenovo_x672_y2352.png", "map_name": "K-35-053-3_Elenovo", "mound_count": 10, "density": "dense" }, "geometry": { "type": "Polygon", "coordinates": [ [ [ 420852.39045099040959, 4693950.084452423267066 ], [ 422776.230379720043857, 4693950.084452423267066 ], [ 422776.230379720043857, 4692026.244523693807423 ], [ 420852.39045099040959, 4692026.244523693807423 ], [ 420852.39045099040959, 4693950.084452423267066 ] ] ] } },
{ "type": "Feature", "properties": { "tile_name": "K-35-053-3_Elenovo_x3024_y1680.png", "map_name": "K-35-053-3_Elenovo", "mound_count": 4, "density": "dense" }, "geometry": { "type": "Polygon", "coordinates": [ [ [ 432635.910014459572267, 4697316.804327700287104 ], [ 434559.749943189206533, 4697316.804327700287104 ], [ 434559.749943189206533, 4695392.96439897082746 ], [ 432635.910014459572267, 4695392.96439897082746 ], [ 432635.910014459572267, 4697316.804327700287104 ] ] ] } },
{ "type": "Feature", "properties": { "tile_name": "K-35-053-3_Elenovo_x4032_y2016.png", "map_name": "K-35-053-3_Elenovo", "mound_count": 4, "density": "dense" }, "geometry": { "type": "Polygon", "coordinates": [ [ [ 437685.9898273749277, 4695633.444390061311424 ], [ 439609.829756104561966, 4695633.444390061311424 ], [ 439609.829756104561966, 4693709.60446133185178 ], [ 437685.9898273749277, 4693709.60446133185178 ], [ 437685.9898273749277, 4695633.444390061311424 ] ] ] } },
{ "type": "Feature", "properties": { "tile_name": "K-35-053-3_Elenovo_x336_y336.png", "map_name": "K-35-053-3_Elenovo", "mound_count": 3, "density": "dense" }, "geometry": { "type": "Polygon", "coordinates": [ [ [ 419169.030513351957779, 4704050.244078253395855 ], [ 421092.870442081592046, 4704050.244078253395855 ], [ 421092.870442081592046, 4702126.404149523936212 ], [ 419169.030513351957779, 4702126.404149523936212 ], [ 419169.030513351957779, 4704050.244078253395855 ] ] ] } },
{ "type": "Feature", "properties": { "tile_name": "K-35-053-3_Elenovo_x1680_y1680.png", "map_name": "K-35-053-3_Elenovo", "mound_count": 3, "density": "dense" }, "geometry": { "type": "Polygon", "coordinates": [ [ [ 425902.470263905765023, 4697316.804327700287104 ], [ 427826.310192635399289, 4697316.804327700287104 ], [ 427826.310192635399289, 4695392.96439897082746 ], [ 425902.470263905765023, 4695392.96439897082746 ], [ 425902.470263905765023, 4697316.804327700287104 ] ] ] } },
{ "type": "Feature", "properties": { "tile_name": "K-35-053-3_Elenovo_x0_y2352.png", "map_name": "K-35-053-3_Elenovo", "mound_count": 0, "density": "empty" }, "geometry": { "type": "Polygon", "coordinates": [ [ [ 417485.670575713505968, 4693950.084452423267066 ], [ 419409.510504443140235, 4693950.084452423267066 ], [ 419409.510504443140235, 4692026.244523693807423 ], [ 417485.670575713505968, 4692026.244523693807423 ], [ 417485.670575713505968, 4693950.084452423267066 ] ] ] } },
{ "type": "Feature", "properties": { "tile_name": "K-35-053-3_Elenovo_x4032_y3696.png", "map_name": "K-35-053-3_Elenovo", "mound_count": 0, "density": "empty" }, "geometry": { "type": "Polygon", "coordinates": [ [ [ 437685.9898273749277, 4687216.644701869226992 ], [ 439609.829756104561966, 4687216.644701869226992 ], [ 439609.829756104561966, 4685292.804773139767349 ], [ 437685.9898273749277, 4685292.804773139767349 ], [ 437685.9898273749277, 4687216.644701869226992 ] ] ] } },
{ "type": "Feature", "properties": { "tile_name": "K-35-053-3_Elenovo_x3360_y1344.png", "map_name": "K-35-053-3_Elenovo", "mound_count": 0, "density": "empty" }, "geometry": { "type": "Polygon", "coordinates": [ [ [ 434319.269952098024078, 4699000.164265338331461 ], [ 436243.109880827658344, 4699000.164265338331461 ], [ 436243.109880827658344, 4697076.324336608871818 ], [ 434319.269952098024078, 4697076.324336608871818 ], [ 434319.269952098024078, 4699000.164265338331461 ] ] ] } },
{ "type": "Feature", "properties": { "tile_name": "K-35-053-3_Elenovo_x336_y3696.png", "map_name": "K-35-053-3_Elenovo", "mound_count": 0, "density": "empty" }, "geometry": { "type": "Polygon", "coordinates": [ [ [ 419169.030513351957779, 4687216.644701869226992 ], [ 421092.870442081592046, 4687216.644701869226992 ], [ 421092.870442081592046, 4685292.804773139767349 ], [ 419169.030513351957779, 4685292.804773139767349 ], [ 419169.030513351957779, 4687216.644701869226992 ] ] ] } },
{ "type": "Feature", "properties": { "tile_name": "K-35-053-3_Elenovo_x1008_y2352.png", "map_name": "K-35-053-3_Elenovo", "mound_count": 0, "density": "empty" }, "geometry": { "type": "Polygon", "coordinates": [ [ [ 422535.750388628861401, 4693950.084452423267066 ], [ 424459.590317358495668, 4693950.084452423267066 ], [ 424459.590317358495668, 4692026.244523693807423 ], [ 422535.750388628861401, 4692026.244523693807423 ], [ 422535.750388628861401, 4693950.084452423267066 ] ] ] } },
{ "type": "Feature", "properties": { "tile_name": "K-35-053-3_Elenovo_x3024_y1008.png", "map_name": "K-35-053-3_Elenovo", "mound_count": 0, "density": "empty" }, "geometry": { "type": "Polygon", "coordinates": [ [ [ 432635.910014459572267, 4700683.524202976375818 ], [ 434559.749943189206533, 4700683.524202976375818 ], [ 434559.749943189206533, 4698759.684274246916175 ], [ 432635.910014459572267, 4698759.684274246916175 ], [ 432635.910014459572267, 4700683.524202976375818 ] ] ] } },
{ "type": "Feature", "properties": { "tile_name": "K-35-053-3_Elenovo_x0_y3360.png", "map_name": "K-35-053-3_Elenovo", "mound_count": 0, "density": "empty" }, "geometry": { "type": "Polygon", "coordinates": [ [ [ 417485.670575713505968, 4688900.004639507271349 ], [ 419409.510504443140235, 4688900.004639507271349 ], [ 419409.510504443140235, 4686976.164710777811706 ], [ 417485.670575713505968, 4686976.164710777811706 ], [ 417485.670575713505968, 4688900.004639507271349 ] ] ] } },
{ "type": "Feature", "properties": { "tile_name": "K-35-053-3_Elenovo_x336_y672.png", "map_name": "K-35-053-3_Elenovo", "mound_count": 0, "density": "empty" }, "geometry": { "type": "Polygon", "coordinates": [ [ [ 419169.030513351957779, 4702366.884140615351498 ], [ 421092.870442081592046, 4702366.884140615351498 ], [ 421092.870442081592046, 4700443.044211885891855 ], [ 419169.030513351957779, 4700443.044211885891855 ], [ 419169.030513351957779, 4702366.884140615351498 ] ] ] } },
{ "type": "Feature", "properties": { "tile_name": "K-35-053-3_Elenovo_x2352_y3024.png", "map_name": "K-35-053-3_Elenovo", "mound_count": 0, "density": "empty" }, "geometry": { "type": "Polygon", "coordinates": [ [ [ 429269.190139182668645, 4690583.364577146247029 ], [ 431193.030067912302911, 4690583.364577146247029 ], [ 431193.030067912302911, 4688659.524648416787386 ], [ 429269.190139182668645, 4688659.524648416787386 ], [ 429269.190139182668645, 4690583.364577146247029 ] ] ] } },
{ "type": "Feature", "properties": { "tile_name": "K-35-053-3_Elenovo_x4032_y0.png", "map_name": "K-35-053-3_Elenovo", "mound_count": 0, "density": "empty" }, "geometry": { "type": "Polygon", "coordinates": [ [ [ 437685.9898273749277, 4705733.604015892371535 ], [ 439609.829756104561966, 4705733.604015892371535 ], [ 439609.829756104561966, 4703809.764087162911892 ], [ 437685.9898273749277, 4703809.764087162911892 ], [ 437685.9898273749277, 4705733.604015892371535 ] ] ] } },
{ "type": "Feature", "properties": { "tile_name": "K-35-053-3_Elenovo_x3696_y3696.png", "map_name": "K-35-053-3_Elenovo", "mound_count": 0, "density": "empty" }, "geometry": { "type": "Polygon", "coordinates": [ [ [ 436002.629889736475889, 4687216.644701869226992 ], [ 437926.469818466110155, 4687216.644701869226992 ], [ 437926.469818466110155, 4685292.804773139767349 ], [ 436002.629889736475889, 4685292.804773139767349 ], [ 436002.629889736475889, 4687216.644701869226992 ] ] ] } },
{ "type": "Feature", "properties": { "tile_name": "K-35-053-3_Elenovo_x3024_y0.png", "map_name": "K-35-053-3_Elenovo", "mound_count": 0, "density": "empty" }, "geometry": { "type": "Polygon", "coordinates": [ [ [ 432635.910014459572267, 4705733.604015892371535 ], [ 434559.749943189206533, 4705733.604015892371535 ], [ 434559.749943189206533, 4703809.764087162911892 ], [ 432635.910014459572267, 4703809.764087162911892 ], [ 432635.910014459572267, 4705733.604015892371535 ] ] ] } },
{ "type": "Feature", "properties": { "tile_name": "K-35-053-3_Elenovo_x3696_y1008.png", "map_name": "K-35-053-3_Elenovo", "mound_count": 0, "density": "empty" }, "geometry": { "type": "Polygon", "coordinates": [ [ [ 436002.629889736475889, 4700683.524202976375818 ], [ 437926.469818466110155, 4700683.524202976375818 ], [ 437926.469818466110155, 4698759.684274246916175 ], [ 436002.629889736475889, 4698759.684274246916175 ], [ 436002.629889736475889, 4700683.524202976375818 ] ] ] } },
{ "type": "Feature", "properties": { "tile_name": "K-35-053-3_Elenovo_x1680_y1008.png", "map_name": "K-35-053-3_Elenovo", "mound_count": 0, "density": "empty" }, "geometry": { "type": "Polygon", "coordinates": [ [ [ 425902.470263905765023, 4700683.524202976375818 ], [ 427826.310192635399289, 4700683.524202976375818 ], [ 427826.310192635399289, 4698759.684274246916175 ], [ 425902.470263905765023, 4698759.684274246916175 ], [ 425902.470263905765023, 4700683.524202976375818 ] ] ] } },
{ "type": "Feature", "properties": { "tile_name": "K-35-053-3_Elenovo_x0_y3024.png", "map_name": "K-35-053-3_Elenovo", "mound_count": 0, "density": "empty" }, "geometry": { "type": "Polygon", "coordinates": [ [ [ 417485.670575713505968, 4690583.364577146247029 ], [ 419409.510504443140235, 4690583.364577146247029 ], [ 419409.510504443140235, 4688659.524648416787386 ], [ 417485.670575713505968, 4688659.524648416787386 ], [ 417485.670575713505968, 4690583.364577146247029 ] ] ] } },
{ "type": "Feature", "properties": { "tile_name": "K-35-053-3_Elenovo_x672_y3696.png", "map_name": "K-35-053-3_Elenovo", "mound_count": 0, "density": "empty" }, "geometry": { "type": "Polygon", "coordinates": [ [ [ 420852.39045099040959, 4687216.644701869226992 ], [ 422776.230379720043857, 4687216.644701869226992 ], [ 422776.230379720043857, 4685292.804773139767349 ], [ 420852.39045099040959, 4685292.804773139767349 ], [ 420852.39045099040959, 4687216.644701869226992 ] ] ] } },
{ "type": "Feature", "properties": { "tile_name": "K-35-053-3_Elenovo_x4032_y2352.png", "map_name": "K-35-053-3_Elenovo", "mound_count": 1, "density": "sparse" }, "geometry": { "type": "Polygon", "coordinates": [ [ [ 437685.9898273749277, 4693950.084452423267066 ], [ 439609.829756104561966, 4693950.084452423267066 ], [ 439609.829756104561966, 4692026.244523693807423 ], [ 437685.9898273749277, 4692026.244523693807423 ], [ 437685.9898273749277, 4693950.084452423267066 ] ] ] } },
{ "type": "Feature", "properties": { "tile_name": "K-35-053-3_Elenovo_x1680_y672.png", "map_name": "K-35-053-3_Elenovo", "mound_count": 2, "density": "sparse" }, "geometry": { "type": "Polygon", "coordinates": [ [ [ 425902.470263905765023, 4702366.884140615351498 ], [ 427826.310192635399289, 4702366.884140615351498 ], [ 427826.310192635399289, 4700443.044211885891855 ], [ 425902.470263905765023, 4700443.044211885891855 ], [ 425902.470263905765023, 4702366.884140615351498 ] ] ] } },
{ "type": "Feature", "properties": { "tile_name": "K-35-053-3_Elenovo_x2016_y336.png", "map_name": "K-35-053-3_Elenovo", "mound_count": 1, "density": "sparse" }, "geometry": { "type": "Polygon", "coordinates": [ [ [ 427585.830201544216834, 4704050.244078253395855 ], [ 429509.6701302738511, 4704050.244078253395855 ], [ 429509.6701302738511, 4702126.404149523936212 ], [ 427585.830201544216834, 4702126.404149523936212 ], [ 427585.830201544216834, 4704050.244078253395855 ] ] ] } },
{ "type": "Feature", "properties": { "tile_name": "K-35-053-3_Elenovo_x1008_y672.png", "map_name": "K-35-053-3_Elenovo", "mound_count": 1, "density": "sparse" }, "geometry": { "type": "Polygon", "coordinates": [ [ [ 422535.750388628861401, 4702366.884140615351498 ], [ 424459.590317358495668, 4702366.884140615351498 ], [ 424459.590317358495668, 4700443.044211885891855 ], [ 422535.750388628861401, 4700443.044211885891855 ], [ 422535.750388628861401, 4702366.884140615351498 ] ] ] } },
{ "type": "Feature", "properties": { "tile_name": "K-35-053-3_Elenovo_x672_y3024.png", "map_name": "K-35-053-3_Elenovo", "mound_count": 1, "density": "sparse" }, "geometry": { "type": "Polygon", "coordinates": [ [ [ 420852.39045099040959, 4690583.364577146247029 ], [ 422776.230379720043857, 4690583.364577146247029 ], [ 422776.230379720043857, 4688659.524648416787386 ], [ 420852.39045099040959, 4688659.524648416787386 ], [ 420852.39045099040959, 4690583.364577146247029 ] ] ] } },
{ "type": "Feature", "properties": { "tile_name": "K-35-053-3_Elenovo_x1344_y2352.png", "map_name": "K-35-053-3_Elenovo", "mound_count": 2, "density": "sparse" }, "geometry": { "type": "Polygon", "coordinates": [ [ [ 424219.110326267313212, 4693950.084452423267066 ], [ 426142.950254996947479, 4693950.084452423267066 ], [ 426142.950254996947479, 4692026.244523693807423 ], [ 424219.110326267313212, 4692026.244523693807423 ], [ 424219.110326267313212, 4693950.084452423267066 ] ] ] } },
{ "type": "Feature", "properties": { "tile_name": "K-35-053-3_Elenovo_x2688_y336.png", "map_name": "K-35-053-3_Elenovo", "mound_count": 1, "density": "sparse" }, "geometry": { "type": "Polygon", "coordinates": [ [ [ 430952.550076821120456, 4704050.244078253395855 ], [ 432876.390005550754722, 4704050.244078253395855 ], [ 432876.390005550754722, 4702126.404149523936212 ], [ 430952.550076821120456, 4702126.404149523936212 ], [ 430952.550076821120456, 4704050.244078253395855 ] ] ] } },
{ "type": "Feature", "properties": { "tile_name": "K-35-053-3_Elenovo_x2016_y1680.png", "map_name": "K-35-053-3_Elenovo", "mound_count": 2, "density": "sparse" }, "geometry": { "type": "Polygon", "coordinates": [ [ [ 427585.830201544216834, 4697316.804327700287104 ], [ 429509.6701302738511, 4697316.804327700287104 ], [ 429509.6701302738511, 4695392.96439897082746 ], [ 427585.830201544216834, 4695392.96439897082746 ], [ 427585.830201544216834, 4697316.804327700287104 ] ] ] } },
{ "type": "Feature", "properties": { "tile_name": "K-35-053-3_Elenovo_x3360_y672.png", "map_name": "K-35-053-3_Elenovo", "mound_count": 1, "density": "sparse" }, "geometry": { "type": "Polygon", "coordinates": [ [ [ 434319.269952098024078, 4702366.884140615351498 ], [ 436243.109880827658344, 4702366.884140615351498 ], [ 436243.109880827658344, 4700443.044211885891855 ], [ 434319.269952098024078, 4700443.044211885891855 ], [ 434319.269952098024078, 4702366.884140615351498 ] ] ] } },
{ "type": "Feature", "properties": { "tile_name": "K-35-053-3_Elenovo_x2688_y1680.png", "map_name": "K-35-053-3_Elenovo", "mound_count": 2, "density": "sparse" }, "geometry": { "type": "Polygon", "coordinates": [ [ [ 430952.550076821120456, 4697316.804327700287104 ], [ 432876.390005550754722, 4697316.804327700287104 ], [ 432876.390005550754722, 4695392.96439897082746 ], [ 430952.550076821120456, 4695392.96439897082746 ], [ 430952.550076821120456, 4697316.804327700287104 ] ] ] } },
{ "type": "Feature", "properties": { "tile_name": "K-35-053-3_Elenovo_x1680_y0.png", "map_name": "K-35-053-3_Elenovo", "mound_count": 2, "density": "sparse" }, "geometry": { "type": "Polygon", "coordinates": [ [ [ 425902.470263905765023, 4705733.604015892371535 ], [ 427826.310192635399289, 4705733.604015892371535 ], [ 427826.310192635399289, 4703809.764087162911892 ], [ 425902.470263905765023, 4703809.764087162911892 ], [ 425902.470263905765023, 4705733.604015892371535 ] ] ] } },
{ "type": "Feature", "properties": { "tile_name": "K-35-053-3_Elenovo_x3696_y0.png", "map_name": "K-35-053-3_Elenovo", "mound_count": 1, "density": "sparse" }, "geometry": { "type": "Polygon", "coordinates": [ [ [ 436002.629889736475889, 4705733.604015892371535 ], [ 437926.469818466110155, 4705733.604015892371535 ], [ 437926.469818466110155, 4703809.764087162911892 ], [ 436002.629889736475889, 4703809.764087162911892 ], [ 436002.629889736475889, 4705733.604015892371535 ] ] ] } },
{ "type": "Feature", "properties": { "tile_name": "K-35-053-3_Elenovo_x2688_y1008.png", "map_name": "K-35-053-3_Elenovo", "mound_count": 1, "density": "sparse" }, "geometry": { "type": "Polygon", "coordinates": [ [ [ 430952.550076821120456, 4700683.524202976375818 ], [ 432876.390005550754722, 4700683.524202976375818 ], [ 432876.390005550754722, 4698759.684274246916175 ], [ 430952.550076821120456, 4698759.684274246916175 ], [ 430952.550076821120456, 4700683.524202976375818 ] ] ] } },
{ "type": "Feature", "properties": { "tile_name": "K-35-053-3_Elenovo_x1680_y336.png", "map_name": "K-35-053-3_Elenovo", "mound_count": 1, "density": "sparse" }, "geometry": { "type": "Polygon", "coordinates": [ [ [ 425902.470263905765023, 4704050.244078253395855 ], [ 427826.310192635399289, 4704050.244078253395855 ], [ 427826.310192635399289, 4702126.404149523936212 ], [ 425902.470263905765023, 4702126.404149523936212 ], [ 425902.470263905765023, 4704050.244078253395855 ] ] ] } },
{ "type": "Feature", "properties": { "tile_name": "K-35-053-3_Elenovo_x3696_y336.png", "map_name": "K-35-053-3_Elenovo", "mound_count": 2, "density": "sparse" }, "geometry": { "type": "Polygon", "coordinates": [ [ [ 436002.629889736475889, 4704050.244078253395855 ], [ 437926.469818466110155, 4704050.244078253395855 ], [ 437926.469818466110155, 4702126.404149523936212 ], [ 436002.629889736475889, 4702126.404149523936212 ], [ 436002.629889736475889, 4704050.244078253395855 ] ] ] } },
{ "type": "Feature", "properties": { "tile_name": "K-35-062-2_Rakovski_x1344_y0.png", "map_name": "K-35-062-2_Rakovski", "mound_count": 3, "density": "dense" }, "geometry": { "type": "Polygon", "coordinates": [ [ [ 320756.589666098298039, 4689194.542498392984271 ], [ 322683.823993798112497, 4689194.542498392984271 ], [ 322683.823993798112497, 4687267.308170692995191 ], [ 320756.589666098298039, 4687267.308170692995191 ], [ 320756.589666098298039, 4689194.542498392984271 ] ] ] } },
{ "type": "Feature", "properties": { "tile_name": "K-35-062-2_Rakovski_x2688_y0.png", "map_name": "K-35-062-2_Rakovski", "mound_count": 5, "density": "dense" }, "geometry": { "type": "Polygon", "coordinates": [ [ [ 327501.909813047735952, 4689194.542498392984271 ], [ 329429.144140747550409, 4689194.542498392984271 ], [ 329429.144140747550409, 4687267.308170692995191 ], [ 327501.909813047735952, 4687267.308170692995191 ], [ 327501.909813047735952, 4689194.542498392984271 ] ] ] } },
{ "type": "Feature", "properties": { "tile_name": "K-35-062-2_Rakovski_x2688_y1344.png", "map_name": "K-35-062-2_Rakovski", "mound_count": 5, "density": "dense" }, "geometry": { "type": "Polygon", "coordinates": [ [ [ 327501.909813047735952, 4682449.222351443953812 ], [ 329429.144140747550409, 4682449.222351443953812 ], [ 329429.144140747550409, 4680521.988023743964732 ], [ 327501.909813047735952, 4680521.988023743964732 ], [ 327501.909813047735952, 4682449.222351443953812 ] ] ] } },
{ "type": "Feature", "properties": { "tile_name": "K-35-062-2_Rakovski_x1344_y336.png", "map_name": "K-35-062-2_Rakovski", "mound_count": 7, "density": "dense" }, "geometry": { "type": "Polygon", "coordinates": [ [ [ 320756.589666098298039, 4687508.212461655959487 ], [ 322683.823993798112497, 4687508.212461655959487 ], [ 322683.823993798112497, 4685580.978133955970407 ], [ 320756.589666098298039, 4685580.978133955970407 ], [ 320756.589666098298039, 4687508.212461655959487 ] ] ] } },
{ "type": "Feature", "properties": { "tile_name": "K-35-062-2_Rakovski_x2352_y2352.png", "map_name": "K-35-062-2_Rakovski", "mound_count": 3, "density": "dense" }, "geometry": { "type": "Polygon", "coordinates": [ [ [ 325815.579776310361922, 4677390.232241231948137 ], [ 327742.814104010176379, 4677390.232241231948137 ], [ 327742.814104010176379, 4675462.997913531959057 ], [ 325815.579776310361922, 4675462.997913531959057 ], [ 325815.579776310361922, 4677390.232241231948137 ] ] ] } },
{ "type": "Feature", "properties": { "tile_name": "K-35-062-2_Rakovski_x3024_y1680.png", "map_name": "K-35-062-2_Rakovski", "mound_count": 3, "density": "dense" }, "geometry": { "type": "Polygon", "coordinates": [ [ [ 329188.239849785109982, 4680762.892314705997705 ], [ 331115.474177484924439, 4680762.892314705997705 ], [ 331115.474177484924439, 4678835.657987006008625 ], [ 329188.239849785109982, 4678835.657987006008625 ], [ 329188.239849785109982, 4680762.892314705997705 ] ] ] } },
{ "type": "Feature", "properties": { "tile_name": "K-35-062-2_Rakovski_x1680_y1008.png", "map_name": "K-35-062-2_Rakovski", "mound_count": 3, "density": "dense" }, "geometry": { "type": "Polygon", "coordinates": [ [ [ 322442.919702835672069, 4684135.552388180978596 ], [ 324370.154030535486527, 4684135.552388180978596 ], [ 324370.154030535486527, 4682208.318060480989516 ], [ 322442.919702835672069, 4682208.318060480989516 ], [ 322442.919702835672069, 4684135.552388180978596 ] ] ] } },
{ "type": "Feature", "properties": { "tile_name": "K-35-062-2_Rakovski_x336_y1344.png", "map_name": "K-35-062-2_Rakovski", "mound_count": 9, "density": "dense" }, "geometry": { "type": "Polygon", "coordinates": [ [ [ 315697.599555886292364, 4682449.222351443953812 ], [ 317624.833883586106822, 4682449.222351443953812 ], [ 317624.833883586106822, 4680521.988023743964732 ], [ 315697.599555886292364, 4680521.988023743964732 ], [ 315697.599555886292364, 4682449.222351443953812 ] ] ] } },
{ "type": "Feature", "properties": { "tile_name": "K-35-062-2_Rakovski_x2016_y672.png", "map_name": "K-35-062-2_Rakovski", "mound_count": 3, "density": "dense" }, "geometry": { "type": "Polygon", "coordinates": [ [ [ 324129.249739573046099, 4685821.88242491800338 ], [ 326056.484067272860557, 4685821.88242491800338 ], [ 326056.484067272860557, 4683894.6480972180143 ], [ 324129.249739573046099, 4683894.6480972180143 ], [ 324129.249739573046099, 4685821.88242491800338 ] ] ] } },
{ "type": "Feature", "properties": { "tile_name": "K-35-062-2_Rakovski_x2016_y2352.png", "map_name": "K-35-062-2_Rakovski", "mound_count": 3, "density": "dense" }, "geometry": { "type": "Polygon", "coordinates": [ [ [ 324129.249739573046099, 4677390.232241231948137 ], [ 326056.484067272860557, 4677390.232241231948137 ], [ 326056.484067272860557, 4675462.997913531959057 ], [ 324129.249739573046099, 4675462.997913531959057 ], [ 324129.249739573046099, 4677390.232241231948137 ] ] ] } },
{ "type": "Feature", "properties": { "tile_name": "K-35-062-2_Rakovski_x2016_y3696.png", "map_name": "K-35-062-2_Rakovski", "mound_count": 0, "density": "empty" }, "geometry": { "type": "Polygon", "coordinates": [ [ [ 324129.249739573046099, 4670644.912094281986356 ], [ 326056.484067272860557, 4670644.912094281986356 ], [ 326056.484067272860557, 4668717.677766581997275 ], [ 324129.249739573046099, 4668717.677766581997275 ], [ 324129.249739573046099, 4670644.912094281986356 ] ] ] } },
{ "type": "Feature", "properties": { "tile_name": "K-35-062-2_Rakovski_x3696_y3696.png", "map_name": "K-35-062-2_Rakovski", "mound_count": 0, "density": "empty" }, "geometry": { "type": "Polygon", "coordinates": [ [ [ 332560.899923259799834, 4670644.912094281986356 ], [ 334488.134250959614292, 4670644.912094281986356 ], [ 334488.134250959614292, 4668717.677766581997275 ], [ 332560.899923259799834, 4668717.677766581997275 ], [ 332560.899923259799834, 4670644.912094281986356 ] ] ] } },
{ "type": "Feature", "properties": { "tile_name": "K-35-062-2_Rakovski_x4032_y2016.png", "map_name": "K-35-062-2_Rakovski", "mound_count": 0, "density": "empty" }, "geometry": { "type": "Polygon", "coordinates": [ [ [ 334247.229959997115657, 4679076.562277968972921 ], [ 336174.464287696930114, 4679076.562277968972921 ], [ 336174.464287696930114, 4677149.327950268983841 ], [ 334247.229959997115657, 4677149.327950268983841 ], [ 334247.229959997115657, 4679076.562277968972921 ] ] ] } },
{ "type": "Feature", "properties": { "tile_name": "K-35-062-2_Rakovski_x3360_y3360.png", "map_name": "K-35-062-2_Rakovski", "mound_count": 0, "density": "empty" }, "geometry": { "type": "Polygon", "coordinates": [ [ [ 330874.569886522425804, 4672331.242131019942462 ], [ 332801.804214222240262, 4672331.242131019942462 ], [ 332801.804214222240262, 4670404.007803319953382 ], [ 330874.569886522425804, 4670404.007803319953382 ], [ 330874.569886522425804, 4672331.242131019942462 ] ] ] } },
{ "type": "Feature", "properties": { "tile_name": "K-35-062-2_Rakovski_x2016_y2688.png", "map_name": "K-35-062-2_Rakovski", "mound_count": 0, "density": "empty" }, "geometry": { "type": "Polygon", "coordinates": [ [ [ 324129.249739573046099, 4675703.902204493992031 ], [ 326056.484067272860557, 4675703.902204493992031 ], [ 326056.484067272860557, 4673776.66787679400295 ], [ 324129.249739573046099, 4673776.66787679400295 ], [ 324129.249739573046099, 4675703.902204493992031 ] ] ] } },
{ "type": "Feature", "properties": { "tile_name": "K-35-062-2_Rakovski_x4032_y1680.png", "map_name": "K-35-062-2_Rakovski", "mound_count": 0, "density": "empty" }, "geometry": { "type": "Polygon", "coordinates": [ [ [ 334247.229959997115657, 4680762.892314705997705 ], [ 336174.464287696930114, 4680762.892314705997705 ], [ 336174.464287696930114, 4678835.657987006008625 ], [ 334247.229959997115657, 4678835.657987006008625 ], [ 334247.229959997115657, 4680762.892314705997705 ] ] ] } },
{ "type": "Feature", "properties": { "tile_name": "K-35-062-2_Rakovski_x2352_y336.png", "map_name": "K-35-062-2_Rakovski", "mound_count": 0, "density": "empty" }, "geometry": { "type": "Polygon", "coordinates": [ [ [ 325815.579776310361922, 4687508.212461655959487 ], [ 327742.814104010176379, 4687508.212461655959487 ], [ 327742.814104010176379, 4685580.978133955970407 ], [ 325815.579776310361922, 4685580.978133955970407 ], [ 325815.579776310361922, 4687508.212461655959487 ] ] ] } },
{ "type": "Feature", "properties": { "tile_name": "K-35-062-2_Rakovski_x1008_y3696.png", "map_name": "K-35-062-2_Rakovski", "mound_count": 0, "density": "empty" }, "geometry": { "type": "Polygon", "coordinates": [ [ [ 319070.259629360982217, 4670644.912094281986356 ], [ 320997.493957060796674, 4670644.912094281986356 ], [ 320997.493957060796674, 4668717.677766581997275 ], [ 319070.259629360982217, 4668717.677766581997275 ], [ 319070.259629360982217, 4670644.912094281986356 ] ] ] } },
{ "type": "Feature", "properties": { "tile_name": "K-35-062-2_Rakovski_x4032_y2688.png", "map_name": "K-35-062-2_Rakovski", "mound_count": 0, "density": "empty" }, "geometry": { "type": "Polygon", "coordinates": [ [ [ 334247.229959997115657, 4675703.902204493992031 ], [ 336174.464287696930114, 4675703.902204493992031 ], [ 336174.464287696930114, 4673776.66787679400295 ], [ 334247.229959997115657, 4673776.66787679400295 ], [ 334247.229959997115657, 4675703.902204493992031 ] ] ] } },
{ "type": "Feature", "properties": { "tile_name": "K-35-062-2_Rakovski_x1008_y2016.png", "map_name": "K-35-062-2_Rakovski", "mound_count": 0, "density": "empty" }, "geometry": { "type": "Polygon", "coordinates": [ [ [ 319070.259629360982217, 4679076.562277968972921 ], [ 320997.493957060796674, 4679076.562277968972921 ], [ 320997.493957060796674, 4677149.327950268983841 ], [ 319070.259629360982217, 4677149.327950268983841 ], [ 319070.259629360982217, 4679076.562277968972921 ] ] ] } },
{ "type": "Feature", "properties": { "tile_name": "K-35-062-2_Rakovski_x4032_y3696.png", "map_name": "K-35-062-2_Rakovski", "mound_count": 0, "density": "empty" }, "geometry": { "type": "Polygon", "coordinates": [ [ [ 334247.229959997115657, 4670644.912094281986356 ], [ 336174.464287696930114, 4670644.912094281986356 ], [ 336174.464287696930114, 4668717.677766581997275 ], [ 334247.229959997115657, 4668717.677766581997275 ], [ 334247.229959997115657, 4670644.912094281986356 ] ] ] } },
{ "type": "Feature", "properties": { "tile_name": "K-35-062-2_Rakovski_x2688_y3696.png", "map_name": "K-35-062-2_Rakovski", "mound_count": 0, "density": "empty" }, "geometry": { "type": "Polygon", "coordinates": [ [ [ 327501.909813047735952, 4670644.912094281986356 ], [ 329429.144140747550409, 4670644.912094281986356 ], [ 329429.144140747550409, 4668717.677766581997275 ], [ 327501.909813047735952, 4668717.677766581997275 ], [ 327501.909813047735952, 4670644.912094281986356 ] ] ] } },
{ "type": "Feature", "properties": { "tile_name": "K-35-062-2_Rakovski_x672_y3696.png", "map_name": "K-35-062-2_Rakovski", "mound_count": 0, "density": "empty" }, "geometry": { "type": "Polygon", "coordinates": [ [ [ 317383.929592623608187, 4670644.912094281986356 ], [ 319311.163920323422644, 4670644.912094281986356 ], [ 319311.163920323422644, 4668717.677766581997275 ], [ 317383.929592623608187, 4668717.677766581997275 ], [ 317383.929592623608187, 4670644.912094281986356 ] ] ] } },
{ "type": "Feature", "properties": { "tile_name": "K-35-062-2_Rakovski_x1344_y3696.png", "map_name": "K-35-062-2_Rakovski", "mound_count": 0, "density": "empty" }, "geometry": { "type": "Polygon", "coordinates": [ [ [ 320756.589666098298039, 4670644.912094281986356 ], [ 322683.823993798112497, 4670644.912094281986356 ], [ 322683.823993798112497, 4668717.677766581997275 ], [ 320756.589666098298039, 4668717.677766581997275 ], [ 320756.589666098298039, 4670644.912094281986356 ] ] ] } },
{ "type": "Feature", "properties": { "tile_name": "K-35-062-2_Rakovski_x2016_y1680.png", "map_name": "K-35-062-2_Rakovski", "mound_count": 0, "density": "empty" }, "geometry": { "type": "Polygon", "coordinates": [ [ [ 324129.249739573046099, 4680762.892314705997705 ], [ 326056.484067272860557, 4680762.892314705997705 ], [ 326056.484067272860557, 4678835.657987006008625 ], [ 324129.249739573046099, 4678835.657987006008625 ], [ 324129.249739573046099, 4680762.892314705997705 ] ] ] } },
{ "type": "Feature", "properties": { "tile_name": "K-35-062-2_Rakovski_x3696_y2016.png", "map_name": "K-35-062-2_Rakovski", "mound_count": 2, "density": "sparse" }, "geometry": { "type": "Polygon", "coordinates": [ [ [ 332560.899923259799834, 4679076.562277968972921 ], [ 334488.134250959614292, 4679076.562277968972921 ], [ 334488.134250959614292, 4677149.327950268983841 ], [ 332560.899923259799834, 4677149.327950268983841 ], [ 332560.899923259799834, 4679076.562277968972921 ] ] ] } },
{ "type": "Feature", "properties": { "tile_name": "K-35-062-2_Rakovski_x4032_y672.png", "map_name": "K-35-062-2_Rakovski", "mound_count": 1, "density": "sparse" }, "geometry": { "type": "Polygon", "coordinates": [ [ [ 334247.229959997115657, 4685821.88242491800338 ], [ 336174.464287696930114, 4685821.88242491800338 ], [ 336174.464287696930114, 4683894.6480972180143 ], [ 334247.229959997115657, 4683894.6480972180143 ], [ 334247.229959997115657, 4685821.88242491800338 ] ] ] } },
{ "type": "Feature", "properties": { "tile_name": "K-35-062-2_Rakovski_x2688_y2688.png", "map_name": "K-35-062-2_Rakovski", "mound_count": 2, "density": "sparse" }, "geometry": { "type": "Polygon", "coordinates": [ [ [ 327501.909813047735952, 4675703.902204493992031 ], [ 329429.144140747550409, 4675703.902204493992031 ], [ 329429.144140747550409, 4673776.66787679400295 ], [ 327501.909813047735952, 4673776.66787679400295 ], [ 327501.909813047735952, 4675703.902204493992031 ] ] ] } },
{ "type": "Feature", "properties": { "tile_name": "K-35-062-2_Rakovski_x1680_y2016.png", "map_name": "K-35-062-2_Rakovski", "mound_count": 2, "density": "sparse" }, "geometry": { "type": "Polygon", "coordinates": [ [ [ 322442.919702835672069, 4679076.562277968972921 ], [ 324370.154030535486527, 4679076.562277968972921 ], [ 324370.154030535486527, 4677149.327950268983841 ], [ 322442.919702835672069, 4677149.327950268983841 ], [ 322442.919702835672069, 4679076.562277968972921 ] ] ] } },
{ "type": "Feature", "properties": { "tile_name": "K-35-062-2_Rakovski_x3696_y672.png", "map_name": "K-35-062-2_Rakovski", "mound_count": 1, "density": "sparse" }, "geometry": { "type": "Polygon", "coordinates": [ [ [ 332560.899923259799834, 4685821.88242491800338 ], [ 334488.134250959614292, 4685821.88242491800338 ], [ 334488.134250959614292, 4683894.6480972180143 ], [ 332560.899923259799834, 4683894.6480972180143 ], [ 332560.899923259799834, 4685821.88242491800338 ] ] ] } },
{ "type": "Feature", "properties": { "tile_name": "K-35-062-2_Rakovski_x3360_y2352.png", "map_name": "K-35-062-2_Rakovski", "mound_count": 2, "density": "sparse" }, "geometry": { "type": "Polygon", "coordinates": [ [ [ 330874.569886522425804, 4677390.232241231948137 ], [ 332801.804214222240262, 4677390.232241231948137 ], [ 332801.804214222240262, 4675462.997913531959057 ], [ 330874.569886522425804, 4675462.997913531959057 ], [ 330874.569886522425804, 4677390.232241231948137 ] ] ] } },
{ "type": "Feature", "properties": { "tile_name": "K-35-062-2_Rakovski_x3024_y2688.png", "map_name": "K-35-062-2_Rakovski", "mound_count": 1, "density": "sparse" }, "geometry": { "type": "Polygon", "coordinates": [ [ [ 329188.239849785109982, 4675703.902204493992031 ], [ 331115.474177484924439, 4675703.902204493992031 ], [ 331115.474177484924439, 4673776.66787679400295 ], [ 329188.239849785109982, 4673776.66787679400295 ], [ 329188.239849785109982, 4675703.902204493992031 ] ] ] } },
{ "type": "Feature", "properties": { "tile_name": "K-35-062-2_Rakovski_x672_y0.png", "map_name": "K-35-062-2_Rakovski", "mound_count": 1, "density": "sparse" }, "geometry": { "type": "Polygon", "coordinates": [ [ [ 317383.929592623608187, 4689194.542498392984271 ], [ 319311.163920323422644, 4689194.542498392984271 ], [ 319311.163920323422644, 4687267.308170692995191 ], [ 317383.929592623608187, 4687267.308170692995191 ], [ 317383.929592623608187, 4689194.542498392984271 ] ] ] } },
{ "type": "Feature", "properties": { "tile_name": "K-35-062-2_Rakovski_x3360_y1344.png", "map_name": "K-35-062-2_Rakovski", "mound_count": 2, "density": "sparse" }, "geometry": { "type": "Polygon", "coordinates": [ [ [ 330874.569886522425804, 4682449.222351443953812 ], [ 332801.804214222240262, 4682449.222351443953812 ], [ 332801.804214222240262, 4680521.988023743964732 ], [ 330874.569886522425804, 4680521.988023743964732 ], [ 330874.569886522425804, 4682449.222351443953812 ] ] ] } },
{ "type": "Feature", "properties": { "tile_name": "K-35-062-2_Rakovski_x1344_y1344.png", "map_name": "K-35-062-2_Rakovski", "mound_count": 2, "density": "sparse" }, "geometry": { "type": "Polygon", "coordinates": [ [ [ 320756.589666098298039, 4682449.222351443953812 ], [ 322683.823993798112497, 4682449.222351443953812 ], [ 322683.823993798112497, 4680521.988023743964732 ], [ 320756.589666098298039, 4680521.988023743964732 ], [ 320756.589666098298039, 4682449.222351443953812 ] ] ] } },
{ "type": "Feature", "properties": { "tile_name": "K-35-062-2_Rakovski_x2352_y3024.png", "map_name": "K-35-062-2_Rakovski", "mound_count": 1, "density": "sparse" }, "geometry": { "type": "Polygon", "coordinates": [ [ [ 325815.579776310361922, 4674017.572167756967247 ], [ 327742.814104010176379, 4674017.572167756967247 ], [ 327742.814104010176379, 4672090.337840056978166 ], [ 325815.579776310361922, 4672090.337840056978166 ], [ 325815.579776310361922, 4674017.572167756967247 ] ] ] } },
{ "type": "Feature", "properties": { "tile_name": "K-35-062-2_Rakovski_x1344_y1008.png", "map_name": "K-35-062-2_Rakovski", "mound_count": 2, "density": "sparse" }, "geometry": { "type": "Polygon", "coordinates": [ [ [ 320756.589666098298039, 4684135.552388180978596 ], [ 322683.823993798112497, 4684135.552388180978596 ], [ 322683.823993798112497, 4682208.318060480989516 ], [ 320756.589666098298039, 4682208.318060480989516 ], [ 320756.589666098298039, 4684135.552388180978596 ] ] ] } },
{ "type": "Feature", "properties": { "tile_name": "K-35-062-2_Rakovski_x2352_y1344.png", "map_name": "K-35-062-2_Rakovski", "mound_count": 2, "density": "sparse" }, "geometry": { "type": "Polygon", "coordinates": [ [ [ 325815.579776310361922, 4682449.222351443953812 ], [ 327742.814104010176379, 4682449.222351443953812 ], [ 327742.814104010176379, 4680521.988023743964732 ], [ 325815.579776310361922, 4680521.988023743964732 ], [ 325815.579776310361922, 4682449.222351443953812 ] ] ] } },
{ "type": "Feature", "properties": { "tile_name": "K-35-062-2_Rakovski_x3696_y1680.png", "map_name": "K-35-062-2_Rakovski", "mound_count": 2, "density": "sparse" }, "geometry": { "type": "Polygon", "coordinates": [ [ [ 332560.899923259799834, 4680762.892314705997705 ], [ 334488.134250959614292, 4680762.892314705997705 ], [ 334488.134250959614292, 4678835.657987006008625 ], [ 332560.899923259799834, 4678835.657987006008625 ], [ 332560.899923259799834, 4680762.892314705997705 ] ] ] } },
{ "type": "Feature", "properties": { "tile_name": "K-35-062-2_Rakovski_x3696_y1344.png", "map_name": "K-35-062-2_Rakovski", "mound_count": 2, "density": "sparse" }, "geometry": { "type": "Polygon", "coordinates": [ [ [ 332560.899923259799834, 4682449.222351443953812 ], [ 334488.134250959614292, 4682449.222351443953812 ], [ 334488.134250959614292, 4680521.988023743964732 ], [ 332560.899923259799834, 4680521.988023743964732 ], [ 332560.899923259799834, 4682449.222351443953812 ] ] ] } },
{ "type": "Feature", "properties": { "tile_name": "K-35-078-1_Lesovo_x2352_y336.png", "map_name": "K-35-078-1_Lesovo", "mound_count": 3, "density": "dense" }, "geometry": { "type": "Polygon", "coordinates": [ [ [ 470187.896510619379114, 4648161.83717196341604 ], [ 472119.981824255664833, 4648161.83717196341604 ], [ 472119.981824255664833, 4646229.751858327537775 ], [ 470187.896510619379114, 4646229.751858327537775 ], [ 470187.896510619379114, 4648161.83717196341604 ] ] ] } },
{ "type": "Feature", "properties": { "tile_name": "K-35-078-1_Lesovo_x672_y2016.png", "map_name": "K-35-078-1_Lesovo", "mound_count": 0, "density": "empty" }, "geometry": { "type": "Polygon", "coordinates": [ [ [ 461735.023263460607268, 4639708.963924803771079 ], [ 463667.108577096892986, 4639708.963924803771079 ], [ 463667.108577096892986, 4637776.878611167892814 ], [ 461735.023263460607268, 4637776.878611167892814 ], [ 461735.023263460607268, 4639708.963924803771079 ] ] ] } },
{ "type": "Feature", "properties": { "tile_name": "K-35-078-1_Lesovo_x336_y336.png", "map_name": "K-35-078-1_Lesovo", "mound_count": 0, "density": "empty" }, "geometry": { "type": "Polygon", "coordinates": [ [ [ 460044.44861402886454, 4648161.83717196341604 ], [ 461976.533927665150259, 4648161.83717196341604 ], [ 461976.533927665150259, 4646229.751858327537775 ], [ 460044.44861402886454, 4646229.751858327537775 ], [ 460044.44861402886454, 4648161.83717196341604 ] ] ] } },
{ "type": "Feature", "properties": { "tile_name": "K-35-078-1_Lesovo_x3024_y1344.png", "map_name": "K-35-078-1_Lesovo", "mound_count": 0, "density": "empty" }, "geometry": { "type": "Polygon", "coordinates": [ [ [ 473569.04580948286457, 4643090.113223668187857 ], [ 475501.131123119150288, 4643090.113223668187857 ], [ 475501.131123119150288, 4641158.027910032309592 ], [ 473569.04580948286457, 4641158.027910032309592 ], [ 473569.04580948286457, 4643090.113223668187857 ] ] ] } },
{ "type": "Feature", "properties": { "tile_name": "K-35-078-1_Lesovo_x672_y336.png", "map_name": "K-35-078-1_Lesovo", "mound_count": 0, "density": "empty" }, "geometry": { "type": "Polygon", "coordinates": [ [ [ 461735.023263460607268, 4648161.83717196341604 ], [ 463667.108577096892986, 4648161.83717196341604 ], [ 463667.108577096892986, 4646229.751858327537775 ], [ 461735.023263460607268, 4646229.751858327537775 ], [ 461735.023263460607268, 4648161.83717196341604 ] ] ] } },
{ "type": "Feature", "properties": { "tile_name": "K-35-078-1_Lesovo_x2688_y672.png", "map_name": "K-35-078-1_Lesovo", "mound_count": 0, "density": "empty" }, "geometry": { "type": "Polygon", "coordinates": [ [ [ 471878.471160051121842, 4646471.262522531673312 ], [ 473810.556473687407561, 4646471.262522531673312 ], [ 473810.556473687407561, 4644539.177208895795047 ], [ 471878.471160051121842, 4644539.177208895795047 ], [ 471878.471160051121842, 4646471.262522531673312 ] ] ] } },
{ "type": "Feature", "properties": { "tile_name": "K-35-078-1_Lesovo_x2688_y2352.png", "map_name": "K-35-078-1_Lesovo", "mound_count": 0, "density": "empty" }, "geometry": { "type": "Polygon", "coordinates": [ [ [ 471878.471160051121842, 4638018.389275372028351 ], [ 473810.556473687407561, 4638018.389275372028351 ], [ 473810.556473687407561, 4636086.303961736150086 ], [ 471878.471160051121842, 4636086.303961736150086 ], [ 471878.471160051121842, 4638018.389275372028351 ] ] ] } },
{ "type": "Feature", "properties": { "tile_name": "K-35-078-1_Lesovo_x2016_y2688.png", "map_name": "K-35-078-1_Lesovo", "mound_count": 0, "density": "empty" }, "geometry": { "type": "Polygon", "coordinates": [ [ [ 468497.321861187636387, 4636327.814625940285623 ], [ 470429.407174823922105, 4636327.814625940285623 ], [ 470429.407174823922105, 4634395.729312304407358 ], [ 468497.321861187636387, 4634395.729312304407358 ], [ 468497.321861187636387, 4636327.814625940285623 ] ] ] } },
{ "type": "Feature", "properties": { "tile_name": "K-35-078-1_Lesovo_x1680_y1680.png", "map_name": "K-35-078-1_Lesovo", "mound_count": 0, "density": "empty" }, "geometry": { "type": "Polygon", "coordinates": [ [ [ 466806.747211755893659, 4641399.538574236445129 ], [ 468738.832525392179377, 4641399.538574236445129 ], [ 468738.832525392179377, 4639467.453260600566864 ], [ 466806.747211755893659, 4639467.453260600566864 ], [ 466806.747211755893659, 4641399.538574236445129 ] ] ] } },
{ "type": "Feature", "properties": { "tile_name": "K-35-078-1_Lesovo_x3360_y336.png", "map_name": "K-35-078-1_Lesovo", "mound_count": 0, "density": "empty" }, "geometry": { "type": "Polygon", "coordinates": [ [ [ 475259.620458914665505, 4648161.83717196341604 ], [ 477191.705772550951224, 4648161.83717196341604 ], [ 477191.705772550951224, 4646229.751858327537775 ], [ 475259.620458914665505, 4646229.751858327537775 ], [ 475259.620458914665505, 4648161.83717196341604 ] ] ] } },
{ "type": "Feature", "properties": { "tile_name": "K-35-078-1_Lesovo_x3360_y1680.png", "map_name": "K-35-078-1_Lesovo", "mound_count": 0, "density": "empty" }, "geometry": { "type": "Polygon", "coordinates": [ [ [ 475259.620458914665505, 4641399.538574236445129 ], [ 477191.705772550951224, 4641399.538574236445129 ], [ 477191.705772550951224, 4639467.453260600566864 ], [ 475259.620458914665505, 4639467.453260600566864 ], [ 475259.620458914665505, 4641399.538574236445129 ] ] ] } },
{ "type": "Feature", "properties": { "tile_name": "K-35-078-1_Lesovo_x1008_y2352.png", "map_name": "K-35-078-1_Lesovo", "mound_count": 0, "density": "empty" }, "geometry": { "type": "Polygon", "coordinates": [ [ [ 463425.597912892349996, 4638018.389275372028351 ], [ 465357.683226528635714, 4638018.389275372028351 ], [ 465357.683226528635714, 4636086.303961736150086 ], [ 463425.597912892349996, 4636086.303961736150086 ], [ 463425.597912892349996, 4638018.389275372028351 ] ] ] } },
{ "type": "Feature", "properties": { "tile_name": "K-35-078-1_Lesovo_x0_y2688.png", "map_name": "K-35-078-1_Lesovo", "mound_count": 0, "density": "empty" }, "geometry": { "type": "Polygon", "coordinates": [ [ [ 458353.873964597121812, 4636327.814625940285623 ], [ 460285.959278233407531, 4636327.814625940285623 ], [ 460285.959278233407531, 4634395.729312304407358 ], [ 458353.873964597121812, 4634395.729312304407358 ], [ 458353.873964597121812, 4636327.814625940285623 ] ] ] } },
{ "type": "Feature", "properties": { "tile_name": "K-35-078-1_Lesovo_x1344_y2016.png", "map_name": "K-35-078-1_Lesovo", "mound_count": 0, "density": "empty" }, "geometry": { "type": "Polygon", "coordinates": [ [ [ 465116.172562324150931, 4639708.963924803771079 ], [ 467048.25787596043665, 4639708.963924803771079 ], [ 467048.25787596043665, 4637776.878611167892814 ], [ 465116.172562324150931, 4637776.878611167892814 ], [ 465116.172562324150931, 4639708.963924803771079 ] ] ] } },
{ "type": "Feature", "properties": { "tile_name": "K-35-078-1_Lesovo_x1680_y2352.png", "map_name": "K-35-078-1_Lesovo", "mound_count": 0, "density": "empty" }, "geometry": { "type": "Polygon", "coordinates": [ [ [ 466806.747211755893659, 4638018.389275372028351 ], [ 468738.832525392179377, 4638018.389275372028351 ], [ 468738.832525392179377, 4636086.303961736150086 ], [ 466806.747211755893659, 4636086.303961736150086 ], [ 466806.747211755893659, 4638018.389275372028351 ] ] ] } },
{ "type": "Feature", "properties": { "tile_name": "K-35-078-1_Lesovo_x3696_y2352.png", "map_name": "K-35-078-1_Lesovo", "mound_count": 0, "density": "empty" }, "geometry": { "type": "Polygon", "coordinates": [ [ [ 476950.195108346408233, 4638018.389275372028351 ], [ 478882.280421982693952, 4638018.389275372028351 ], [ 478882.280421982693952, 4636086.303961736150086 ], [ 476950.195108346408233, 4636086.303961736150086 ], [ 476950.195108346408233, 4638018.389275372028351 ] ] ] } },
{ "type": "Feature", "properties": { "tile_name": "K-35-078-1_Lesovo_x1680_y2688.png", "map_name": "K-35-078-1_Lesovo", "mound_count": 0, "density": "empty" }, "geometry": { "type": "Polygon", "coordinates": [ [ [ 466806.747211755893659, 4636327.814625940285623 ], [ 468738.832525392179377, 4636327.814625940285623 ], [ 468738.832525392179377, 4634395.729312304407358 ], [ 466806.747211755893659, 4634395.729312304407358 ], [ 466806.747211755893659, 4636327.814625940285623 ] ] ] } },
{ "type": "Feature", "properties": { "tile_name": "K-35-078-1_Lesovo_x672_y2688.png", "map_name": "K-35-078-1_Lesovo", "mound_count": 0, "density": "empty" }, "geometry": { "type": "Polygon", "coordinates": [ [ [ 461735.023263460607268, 4636327.814625940285623 ], [ 463667.108577096892986, 4636327.814625940285623 ], [ 463667.108577096892986, 4634395.729312304407358 ], [ 461735.023263460607268, 4634395.729312304407358 ], [ 461735.023263460607268, 4636327.814625940285623 ] ] ] } },
{ "type": "Feature", "properties": { "tile_name": "K-35-078-1_Lesovo_x3696_y1008.png", "map_name": "K-35-078-1_Lesovo", "mound_count": 0, "density": "empty" }, "geometry": { "type": "Polygon", "coordinates": [ [ [ 476950.195108346408233, 4644780.687873099930584 ], [ 478882.280421982693952, 4644780.687873099930584 ], [ 478882.280421982693952, 4642848.60255946405232 ], [ 476950.195108346408233, 4642848.60255946405232 ], [ 476950.195108346408233, 4644780.687873099930584 ] ] ] } },
{ "type": "Feature", "properties": { "tile_name": "K-35-078-1_Lesovo_x0_y672.png", "map_name": "K-35-078-1_Lesovo", "mound_count": 0, "density": "empty" }, "geometry": { "type": "Polygon", "coordinates": [ [ [ 458353.873964597121812, 4646471.262522531673312 ], [ 460285.959278233407531, 4646471.262522531673312 ], [ 460285.959278233407531, 4644539.177208895795047 ], [ 458353.873964597121812, 4644539.177208895795047 ], [ 458353.873964597121812, 4646471.262522531673312 ] ] ] } },
{ "type": "Feature", "properties": { "tile_name": "K-35-078-1_Lesovo_x2688_y336.png", "map_name": "K-35-078-1_Lesovo", "mound_count": 0, "density": "empty" }, "geometry": { "type": "Polygon", "coordinates": [ [ [ 471878.471160051121842, 4648161.83717196341604 ], [ 473810.556473687407561, 4648161.83717196341604 ], [ 473810.556473687407561, 4646229.751858327537775 ], [ 471878.471160051121842, 4646229.751858327537775 ], [ 471878.471160051121842, 4648161.83717196341604 ] ] ] } },
{ "type": "Feature", "properties": { "tile_name": "K-35-078-1_Lesovo_x2688_y3024.png", "map_name": "K-35-078-1_Lesovo", "mound_count": 0, "density": "empty" }, "geometry": { "type": "Polygon", "coordinates": [ [ [ 471878.471160051121842, 4634637.239976508542895 ], [ 473810.556473687407561, 4634637.239976508542895 ], [ 473810.556473687407561, 4632705.15466287266463 ], [ 471878.471160051121842, 4632705.15466287266463 ], [ 471878.471160051121842, 4634637.239976508542895 ] ] ] } },
{ "type": "Feature", "properties": { "tile_name": "K-35-078-1_Lesovo_x3696_y672.png", "map_name": "K-35-078-1_Lesovo", "mound_count": 0, "density": "empty" }, "geometry": { "type": "Polygon", "coordinates": [ [ [ 476950.195108346408233, 4646471.262522531673312 ], [ 478882.280421982693952, 4646471.262522531673312 ], [ 478882.280421982693952, 4644539.177208895795047 ], [ 476950.195108346408233, 4644539.177208895795047 ], [ 476950.195108346408233, 4646471.262522531673312 ] ] ] } },
{ "type": "Feature", "properties": { "tile_name": "K-35-078-1_Lesovo_x3024_y672.png", "map_name": "K-35-078-1_Lesovo", "mound_count": 0, "density": "empty" }, "geometry": { "type": "Polygon", "coordinates": [ [ [ 473569.04580948286457, 4646471.262522531673312 ], [ 475501.131123119150288, 4646471.262522531673312 ], [ 475501.131123119150288, 4644539.177208895795047 ], [ 473569.04580948286457, 4644539.177208895795047 ], [ 473569.04580948286457, 4646471.262522531673312 ] ] ] } },
{ "type": "Feature", "properties": { "tile_name": "K-35-078-1_Lesovo_x336_y0.png", "map_name": "K-35-078-1_Lesovo", "mound_count": 0, "density": "empty" }, "geometry": { "type": "Polygon", "coordinates": [ [ [ 460044.44861402886454, 4649852.411821395158768 ], [ 461976.533927665150259, 4649852.411821395158768 ], [ 461976.533927665150259, 4647920.326507759280503 ], [ 460044.44861402886454, 4647920.326507759280503 ], [ 460044.44861402886454, 4649852.411821395158768 ] ] ] } },
{ "type": "Feature", "properties": { "tile_name": "K-35-078-1_Lesovo_x2016_y672.png", "map_name": "K-35-078-1_Lesovo", "mound_count": 0, "density": "empty" }, "geometry": { "type": "Polygon", "coordinates": [ [ [ 468497.321861187636387, 4646471.262522531673312 ], [ 470429.407174823922105, 4646471.262522531673312 ], [ 470429.407174823922105, 4644539.177208895795047 ], [ 468497.321861187636387, 4644539.177208895795047 ], [ 468497.321861187636387, 4646471.262522531673312 ] ] ] } },
{ "type": "Feature", "properties": { "tile_name": "K-35-078-1_Lesovo_x336_y1680.png", "map_name": "K-35-078-1_Lesovo", "mound_count": 0, "density": "empty" }, "geometry": { "type": "Polygon", "coordinates": [ [ [ 460044.44861402886454, 4641399.538574236445129 ], [ 461976.533927665150259, 4641399.538574236445129 ], [ 461976.533927665150259, 4639467.453260600566864 ], [ 460044.44861402886454, 4639467.453260600566864 ], [ 460044.44861402886454, 4641399.538574236445129 ] ] ] } },
{ "type": "Feature", "properties": { "tile_name": "K-35-078-1_Lesovo_x0_y1008.png", "map_name": "K-35-078-1_Lesovo", "mound_count": 0, "density": "empty" }, "geometry": { "type": "Polygon", "coordinates": [ [ [ 458353.873964597121812, 4644780.687873099930584 ], [ 460285.959278233407531, 4644780.687873099930584 ], [ 460285.959278233407531, 4642848.60255946405232 ], [ 458353.873964597121812, 4642848.60255946405232 ], [ 458353.873964597121812, 4644780.687873099930584 ] ] ] } },
{ "type": "Feature", "properties": { "tile_name": "K-35-078-1_Lesovo_x4032_y2016.png", "map_name": "K-35-078-1_Lesovo", "mound_count": 0, "density": "empty" }, "geometry": { "type": "Polygon", "coordinates": [ [ [ 478640.769757778150961, 4639708.963924803771079 ], [ 480572.855071414436679, 4639708.963924803771079 ], [ 480572.855071414436679, 4637776.878611167892814 ], [ 478640.769757778150961, 4637776.878611167892814 ], [ 478640.769757778150961, 4639708.963924803771079 ] ] ] } },
{ "type": "Feature", "properties": { "tile_name": "K-35-078-1_Lesovo_x336_y1008.png", "map_name": "K-35-078-1_Lesovo", "mound_count": 0, "density": "empty" }, "geometry": { "type": "Polygon", "coordinates": [ [ [ 460044.44861402886454, 4644780.687873099930584 ], [ 461976.533927665150259, 4644780.687873099930584 ], [ 461976.533927665150259, 4642848.60255946405232 ], [ 460044.44861402886454, 4642848.60255946405232 ], [ 460044.44861402886454, 4644780.687873099930584 ] ] ] } },
{ "type": "Feature", "properties": { "tile_name": "K-35-078-1_Lesovo_x2352_y1344.png", "map_name": "K-35-078-1_Lesovo", "mound_count": 0, "density": "empty" }, "geometry": { "type": "Polygon", "coordinates": [ [ [ 470187.896510619379114, 4643090.113223668187857 ], [ 472119.981824255664833, 4643090.113223668187857 ], [ 472119.981824255664833, 4641158.027910032309592 ], [ 470187.896510619379114, 4641158.027910032309592 ], [ 470187.896510619379114, 4643090.113223668187857 ] ] ] } },
{ "type": "Feature", "properties": { "tile_name": "K-35-078-1_Lesovo_x2688_y1008.png", "map_name": "K-35-078-1_Lesovo", "mound_count": 0, "density": "empty" }, "geometry": { "type": "Polygon", "coordinates": [ [ [ 471878.471160051121842, 4644780.687873099930584 ], [ 473810.556473687407561, 4644780.687873099930584 ], [ 473810.556473687407561, 4642848.60255946405232 ], [ 471878.471160051121842, 4642848.60255946405232 ], [ 471878.471160051121842, 4644780.687873099930584 ] ] ] } },
{ "type": "Feature", "properties": { "tile_name": "K-35-078-1_Lesovo_x336_y2352.png", "map_name": "K-35-078-1_Lesovo", "mound_count": 0, "density": "empty" }, "geometry": { "type": "Polygon", "coordinates": [ [ [ 460044.44861402886454, 4638018.389275372028351 ], [ 461976.533927665150259, 4638018.389275372028351 ], [ 461976.533927665150259, 4636086.303961736150086 ], [ 460044.44861402886454, 4636086.303961736150086 ], [ 460044.44861402886454, 4638018.389275372028351 ] ] ] } },
{ "type": "Feature", "properties": { "tile_name": "K-35-078-1_Lesovo_x2352_y2352.png", "map_name": "K-35-078-1_Lesovo", "mound_count": 0, "density": "empty" }, "geometry": { "type": "Polygon", "coordinates": [ [ [ 470187.896510619379114, 4638018.389275372028351 ], [ 472119.981824255664833, 4638018.389275372028351 ], [ 472119.981824255664833, 4636086.303961736150086 ], [ 470187.896510619379114, 4636086.303961736150086 ], [ 470187.896510619379114, 4638018.389275372028351 ] ] ] } },
{ "type": "Feature", "properties": { "tile_name": "K-35-078-1_Lesovo_x3024_y1680.png", "map_name": "K-35-078-1_Lesovo", "mound_count": 0, "density": "empty" }, "geometry": { "type": "Polygon", "coordinates": [ [ [ 473569.04580948286457, 4641399.538574236445129 ], [ 475501.131123119150288, 4641399.538574236445129 ], [ 475501.131123119150288, 4639467.453260600566864 ], [ 473569.04580948286457, 4639467.453260600566864 ], [ 473569.04580948286457, 4641399.538574236445129 ] ] ] } },
{ "type": "Feature", "properties": { "tile_name": "K-35-078-1_Lesovo_x4032_y1008.png", "map_name": "K-35-078-1_Lesovo", "mound_count": 0, "density": "empty" }, "geometry": { "type": "Polygon", "coordinates": [ [ [ 478640.769757778150961, 4644780.687873099930584 ], [ 480572.855071414436679, 4644780.687873099930584 ], [ 480572.855071414436679, 4642848.60255946405232 ], [ 478640.769757778150961, 4642848.60255946405232 ], [ 478640.769757778150961, 4644780.687873099930584 ] ] ] } },
{ "type": "Feature", "properties": { "tile_name": "K-35-078-1_Lesovo_x3024_y3360.png", "map_name": "K-35-078-1_Lesovo", "mound_count": 0, "density": "empty" }, "geometry": { "type": "Polygon", "coordinates": [ [ [ 473569.04580948286457, 4632946.665327076800168 ], [ 475501.131123119150288, 4632946.665327076800168 ], [ 475501.131123119150288, 4631014.580013440921903 ], [ 473569.04580948286457, 4631014.580013440921903 ], [ 473569.04580948286457, 4632946.665327076800168 ] ] ] } },
{ "type": "Feature", "properties": { "tile_name": "K-35-078-1_Lesovo_x0_y3024.png", "map_name": "K-35-078-1_Lesovo", "mound_count": 1, "density": "sparse" }, "geometry": { "type": "Polygon", "coordinates": [ [ [ 458353.873964597121812, 4634637.239976508542895 ], [ 460285.959278233407531, 4634637.239976508542895 ], [ 460285.959278233407531, 4632705.15466287266463 ], [ 458353.873964597121812, 4632705.15466287266463 ], [ 458353.873964597121812, 4634637.239976508542895 ] ] ] } },
{ "type": "Feature", "properties": { "tile_name": "K-35-078-1_Lesovo_x3696_y0.png", "map_name": "K-35-078-1_Lesovo", "mound_count": 1, "density": "sparse" }, "geometry": { "type": "Polygon", "coordinates": [ [ [ 476950.195108346408233, 4649852.411821395158768 ], [ 478882.280421982693952, 4649852.411821395158768 ], [ 478882.280421982693952, 4647920.326507759280503 ], [ 476950.195108346408233, 4647920.326507759280503 ], [ 476950.195108346408233, 4649852.411821395158768 ] ] ] } },
{ "type": "Feature", "properties": { "tile_name": "K-35-078-1_Lesovo_x3696_y336.png", "map_name": "K-35-078-1_Lesovo", "mound_count": 1, "density": "sparse" }, "geometry": { "type": "Polygon", "coordinates": [ [ [ 476950.195108346408233, 4648161.83717196341604 ], [ 478882.280421982693952, 4648161.83717196341604 ], [ 478882.280421982693952, 4646229.751858327537775 ], [ 476950.195108346408233, 4646229.751858327537775 ], [ 476950.195108346408233, 4648161.83717196341604 ] ] ] } }
]
}
