{
"type": "FeatureCollection",
"name": "detections_vt4_pt0.10",
"crs": { "type": "name", "properties": { "name": "urn:ogc:def:crs:OGC:1.3:CRS84" } },
"features": [
{ "type": "Feature", "properties": { "candidate_id": "0", "mound_probability": 1.0, "vote_count": 5, "source_tile": "K-35-052-4_32635_x3360_y3360.png" }, "geometry": { "type": "Point", "coordinates": [ 25.959217, 42.333808 ] } },
{ "type": "Feature", "properties": { "candidate_id": "1", "mound_probability": 1.0, "vote_count": 5, "source_tile": "K-35-052-4_32635_x2688_y672.png" }, "geometry": { "type": "Point", "coordinates": [ 25.915856, 42.468947 ] } },
{ "type": "Feature", "properties": { "candidate_id": "2", "mound_probability": 0.95, "vote_count": 5, "source_tile": "K-35-052-4_32635_x2688_y1008.png" }, "geometry": { "type": "Point", "coordinates": [ 25.918281, 42.439686 ] } },
{ "type": "Feature", "properties": { "candidate_id": "3", "mound_probability": 1.0, "vote_count": 5, "source_tile": "K-35-052-4_32635_x1680_y336.png" }, "geometry": { "type": "Point", "coordinates": [ 25.870706, 42.48368 ] } },
{ "type": "Feature", "properties": { "candidate_id": "4", "mound_probability": 1.0, "vote_count": 5, "source_tile": "K-35-052-4_32635_x2016_y336.png" }, "geometry": { "type": "Point", "coordinates": [ 25.885678, 42.481701 ] } },
{ "type": "Feature", "properties": { "candidate_id": "7", "mound_probability": 0.95, "vote_count": 4, "source_tile": "K-35-052-4_32635_x2016_y1344.png" }, "geometry": { "type": "Point", "coordinates": [ 25.869787, 42.430967 ] } },
{ "type": "Feature", "properties": { "candidate_id": "8", "mound_probability": 1.0, "vote_count": 5, "source_tile": "K-35-052-4_32635_x0_y1008.png" }, "geometry": { "type": "Point", "coordinates": [ 25.763098, 42.446567 ] } },
{ "type": "Feature", "properties": { "candidate_id": "10", "mound_probability": 0.4, "vote_count": 5, "source_tile": "K-35-053-3_Elenovo_x3360_y0.png" }, "geometry": { "type": "Point", "coordinates": [ 26.204037, 42.492824 ] } },
{ "type": "Feature", "properties": { "candidate_id": "11", "mound_probability": 0.2, "vote_count": 4, "source_tile": "K-35-053-3_Elenovo_x3360_y0.png" }, "geometry": { "type": "Point", "coordinates": [ 26.215371, 42.493153 ] } },
{ "type": "Feature", "properties": { "candidate_id": "12", "mound_probability": 1.0, "vote_count": 5, "source_tile": "K-35-053-3_Elenovo_x3360_y0.png" }, "geometry": { "type": "Point", "coordinates": [ 26.221575, 42.489534 ] } },
{ "type": "Feature", "properties": { "candidate_id": "13", "mound_probability": 1.0, "vote_count": 5, "source_tile": "K-35-052-4_32635_x336_y1008.png" }, "geometry": { "type": "Point", "coordinates": [ 25.786215, 42.437399 ] } },
{ "type": "Feature", "properties": { "candidate_id": "14", "mound_probability": 0.95, "vote_count": 5, "source_tile": "K-35-053-3_Elenovo_x1680_y3024.png" }, "geometry": { "type": "Point", "coordinates": [ 26.115247, 42.348899 ] } },
{ "type": "Feature", "properties": { "candidate_id": "17", "mound_probability": 0.85, "vote_count": 5, "source_tile": "K-35-053-3_Elenovo_x1008_y3360.png" }, "geometry": { "type": "Point", "coordinates": [ 26.075445, 42.346961 ] } },
{ "type": "Feature", "properties": { "candidate_id": "18", "mound_probability": 0.95, "vote_count": 4, "source_tile": "K-35-053-3_Elenovo_x1008_y3360.png" }, "geometry": { "type": "Point", "coordinates": [ 26.08031, 42.346987 ] } },
{ "type": "Feature", "properties": { "candidate_id": "19", "mound_probability": 1.0, "vote_count": 4, "source_tile": "K-35-053-3_Elenovo_x1344_y672.png" }, "geometry": { "type": "Point", "coordinates": [ 26.090435, 42.468461 ] } },
{ "type": "Feature", "properties": { "candidate_id": "20", "mound_probability": 0.2, "vote_count": 4, "source_tile": "K-35-053-3_Elenovo_x1344_y672.png" }, "geometry": { "type": "Point", "coordinates": [ 26.091203, 42.467536 ] } },
{ "type": "Feature", "properties": { "candidate_id": "21", "mound_probability": 0.85, "vote_count": 5, "source_tile": "K-35-052-4_32635_x1344_y336.png" }, "geometry": { "type": "Point", "coordinates": [ 25.835921, 42.472704 ] } },
{ "type": "Feature", "properties": { "candidate_id": "24", "mound_probability": 0.95, "vote_count": 5, "source_tile": "K-35-052-4_32635_x2352_y1008.png" }, "geometry": { "type": "Point", "coordinates": [ 25.904304, 42.45364 ] } },
{ "type": "Feature", "properties": { "candidate_id": "25", "mound_probability": 0.7, "vote_count": 5, "source_tile": "K-35-053-3_Elenovo_x3024_y2352.png" }, "geometry": { "type": "Point", "coordinates": [ 26.186292, 42.389687 ] } },
{ "type": "Feature", "properties": { "candidate_id": "26", "mound_probability": 1.0, "vote_count": 5, "source_tile": "K-35-053-3_Elenovo_x3024_y2352.png" }, "geometry": { "type": "Point", "coordinates": [ 26.189216, 42.387703 ] } },
{ "type": "Feature", "properties": { "candidate_id": "27", "mound_probability": 0.95, "vote_count": 5, "source_tile": "K-35-053-3_Elenovo_x3024_y2352.png" }, "geometry": { "type": "Point", "coordinates": [ 26.192008, 42.381212 ] } },
{ "type": "Feature", "properties": { "candidate_id": "30", "mound_probability": 0.4, "vote_count": 5, "source_tile": "K-35-052-4_32635_x3024_y3024.png" }, "geometry": { "type": "Point", "coordinates": [ 25.946101, 42.357308 ] } },
{ "type": "Feature", "properties": { "candidate_id": "31", "mound_probability": 1.0, "vote_count": 5, "source_tile": "K-35-052-4_32635_x3024_y3024.png" }, "geometry": { "type": "Point", "coordinates": [ 25.945784, 42.354311 ] } },
{ "type": "Feature", "properties": { "candidate_id": "32", "mound_probability": 1.0, "vote_count": 5, "source_tile": "K-35-052-4_32635_x3024_y3024.png" }, "geometry": { "type": "Point", "coordinates": [ 25.946256, 42.351784 ] } },
{ "type": "Feature", "properties": { "candidate_id": "33", "mound_probability": 1.0, "vote_count": 5, "source_tile": "K-35-052-4_32635_x3024_y3024.png" }, "geometry": { "type": "Point", "coordinates": [ 25.946165, 42.350818 ] } },
{ "type": "Feature", "properties": { "candidate_id": "34", "mound_probability": 0.85, "vote_count": 5, "source_tile": "K-35-052-4_32635_x336_y2016.png" }, "geometry": { "type": "Point", "coordinates": [ 25.772629, 42.405226 ] } },
{ "type": "Feature", "properties": { "candidate_id": "35", "mound_probability": 0.85, "vote_count": 4, "source_tile": "K-35-052-4_32635_x336_y2016.png" }, "geometry": { "type": "Point", "coordinates": [ 25.773779, 42.393164 ] } },
{ "type": "Feature", "properties": { "candidate_id": "36", "mound_probability": 1.0, "vote_count": 4, "source_tile": "K-35-052-4_32635_x336_y2016.png" }, "geometry": { "type": "Point", "coordinates": [ 25.776227, 42.392748 ] } },
{ "type": "Feature", "properties": { "candidate_id": "38", "mound_probability": 0.4, "vote_count": 5, "source_tile": "K-35-052-4_32635_x336_y3360.png" }, "geometry": { "type": "Point", "coordinates": [ 25.789346, 42.341204 ] } },
{ "type": "Feature", "properties": { "candidate_id": "39", "mound_probability": 0.85, "vote_count": 5, "source_tile": "K-35-052-4_32635_x0_y2688.png" }, "geometry": { "type": "Point", "coordinates": [ 25.750755, 42.372598 ] } },
{ "type": "Feature", "properties": { "candidate_id": "40", "mound_probability": 1.0, "vote_count": 5, "source_tile": "K-35-052-4_32635_x0_y2688.png" }, "geometry": { "type": "Point", "coordinates": [ 25.769244, 42.366933 ] } },
{ "type": "Feature", "properties": { "candidate_id": "44", "mound_probability": 0.85, "vote_count": 5, "source_tile": "K-35-052-4_32635_x2016_y1008.png" }, "geometry": { "type": "Point", "coordinates": [ 25.880065, 42.450315 ] } },
{ "type": "Feature", "properties": { "candidate_id": "48", "mound_probability": 1.0, "vote_count": 4, "source_tile": "K-35-053-3_Elenovo_x2016_y1008.png" }, "geometry": { "type": "Point", "coordinates": [ 26.137167, 42.450717 ] } },
{ "type": "Feature", "properties": { "candidate_id": "50", "mound_probability": 0.95, "vote_count": 5, "source_tile": "K-35-052-4_32635_x3024_y2352.png" }, "geometry": { "type": "Point", "coordinates": [ 25.939958, 42.381978 ] } },
{ "type": "Feature", "properties": { "candidate_id": "51", "mound_probability": 1.0, "vote_count": 5, "source_tile": "K-35-053-3_Elenovo_x0_y1008.png" }, "geometry": { "type": "Point", "coordinates": [ 26.004095, 42.452532 ] } },
{ "type": "Feature", "properties": { "candidate_id": "52", "mound_probability": 0.85, "vote_count": 5, "source_tile": "K-35-052-4_32635_x3696_y2016.png" }, "geometry": { "type": "Point", "coordinates": [ 25.986813, 42.397156 ] } },
{ "type": "Feature", "properties": { "candidate_id": "54", "mound_probability": 1.0, "vote_count": 5, "source_tile": "K-35-052-4_32635_x336_y1008.png" }, "geometry": { "type": "Point", "coordinates": [ 25.772247, 42.446851 ] } },
{ "type": "Feature", "properties": { "candidate_id": "55", "mound_probability": 0.4, "vote_count": 4, "source_tile": "K-35-052-4_32635_x336_y1008.png" }, "geometry": { "type": "Point", "coordinates": [ 25.774805, 42.44615 ] } },
{ "type": "Feature", "properties": { "candidate_id": "57", "mound_probability": 0.95, "vote_count": 5, "source_tile": "K-35-053-3_Elenovo_x1344_y0.png" }, "geometry": { "type": "Point", "coordinates": [ 26.09091, 42.494116 ] } },
{ "type": "Feature", "properties": { "candidate_id": "58", "mound_probability": 0.95, "vote_count": 5, "source_tile": "K-35-053-3_Elenovo_x1344_y0.png" }, "geometry": { "type": "Point", "coordinates": [ 26.094362, 42.493001 ] } },
{ "type": "Feature", "properties": { "candidate_id": "59", "mound_probability": 1.0, "vote_count": 5, "source_tile": "K-35-053-3_Elenovo_x1344_y0.png" }, "geometry": { "type": "Point", "coordinates": [ 26.097699, 42.490358 ] } },
{ "type": "Feature", "properties": { "candidate_id": "60", "mound_probability": 1.0, "vote_count": 5, "source_tile": "K-35-053-3_Elenovo_x3360_y1008.png" }, "geometry": { "type": "Point", "coordinates": [ 26.221511, 42.452981 ] } },
{ "type": "Feature", "properties": { "candidate_id": "61", "mound_probability": 0.95, "vote_count": 4, "source_tile": "K-35-053-3_Elenovo_x0_y672.png" }, "geometry": { "type": "Point", "coordinates": [ 25.99959, 42.460087 ] } },
{ "type": "Feature", "properties": { "candidate_id": "62", "mound_probability": 0.95, "vote_count": 5, "source_tile": "K-35-053-3_Elenovo_x0_y672.png" }, "geometry": { "type": "Point", "coordinates": [ 26.003465, 42.461823 ] } },
{ "type": "Feature", "properties": { "candidate_id": "65", "mound_probability": 1.0, "vote_count": 5, "source_tile": "K-35-053-3_Elenovo_x3360_y1680.png" }, "geometry": { "type": "Point", "coordinates": [ 26.215014, 42.408795 ] } },
{ "type": "Feature", "properties": { "candidate_id": "67", "mound_probability": 0.95, "vote_count": 5, "source_tile": "K-35-053-3_Elenovo_x3360_y2016.png" }, "geometry": { "type": "Point", "coordinates": [ 26.205621, 42.401811 ] } },
{ "type": "Feature", "properties": { "candidate_id": "68", "mound_probability": 1.0, "vote_count": 5, "source_tile": "K-35-053-3_Elenovo_x3360_y2016.png" }, "geometry": { "type": "Point", "coordinates": [ 26.221529, 42.400889 ] } },
{ "type": "Feature", "properties": { "candidate_id": "70", "mound_probability": 1.0, "vote_count": 5, "source_tile": "K-35-052-4_32635_x0_y1680.png" }, "geometry": { "type": "Point", "coordinates": [ 25.765003, 42.420315 ] } },
{ "type": "Feature", "properties": { "candidate_id": "76", "mound_probability": 1.0, "vote_count": 5, "source_tile": "K-35-052-4_32635_x2352_y672.png" }, "geometry": { "type": "Point", "coordinates": [ 25.903707, 42.453794 ] } },
{ "type": "Feature", "properties": { "candidate_id": "79", "mound_probability": 1.0, "vote_count": 4, "source_tile": "K-35-052-4_32635_x336_y2352.png" }, "geometry": { "type": "Point", "coordinates": [ 25.77218, 42.387651 ] } },
{ "type": "Feature", "properties": { "candidate_id": "81", "mound_probability": 1.0, "vote_count": 5, "source_tile": "K-35-052-4_32635_x0_y2352.png" }, "geometry": { "type": "Point", "coordinates": [ 25.769134, 42.385814 ] } },
{ "type": "Feature", "properties": { "candidate_id": "82", "mound_probability": 1.0, "vote_count": 5, "source_tile": "K-35-052-4_32635_x0_y2352.png" }, "geometry": { "type": "Point", "coordinates": [ 25.769458, 42.384771 ] } },
{ "type": "Feature", "properties": { "candidate_id": "83", "mound_probability": 1.0, "vote_count": 5, "source_tile": "K-35-052-4_32635_x0_y2352.png" }, "geometry": { "type": "Point", "coordinates": [ 25.769723, 42.383763 ] } },
{ "type": "Feature", "properties": { "candidate_id": "85", "mound_probability": 0.95, "vote_count": 5, "source_tile": "K-35-052-4_32635_x672_y1008.png" }, "geometry": { "type": "Point", "coordinates": [ 25.805789, 42.438969 ] } },
{ "type": "Feature", "properties": { "candidate_id": "86", "mound_probability": 1.0, "vote_count": 5, "source_tile": "K-35-052-4_32635_x672_y1344.png" }, "geometry": { "type": "Point", "coordinates": [ 25.799491, 42.432961 ] } },
{ "type": "Feature", "properties": { "candidate_id": "87", "mound_probability": 0.75, "vote_count": 5, "source_tile": "K-35-052-4_32635_x672_y1344.png" }, "geometry": { "type": "Point", "coordinates": [ 25.79543, 42.422798 ] } },
{ "type": "Feature", "properties": { "candidate_id": "88", "mound_probability": 0.4, "vote_count": 4, "source_tile": "K-35-053-3_Elenovo_x336_y1008.png" }, "geometry": { "type": "Point", "coordinates": [ 26.025711, 42.439942 ] } },
{ "type": "Feature", "properties": { "candidate_id": "90", "mound_probability": 0.1, "vote_count": 4, "source_tile": "K-35-052-4_32635_x1008_y3360.png" }, "geometry": { "type": "Point", "coordinates": [ 25.824442, 42.338283 ] } },
{ "type": "Feature", "properties": { "candidate_id": "92", "mound_probability": 1.0, "vote_count": 4, "source_tile": "K-35-052-4_32635_x336_y1680.png" }, "geometry": { "type": "Point", "coordinates": [ 25.775041, 42.421588 ] } },
{ "type": "Feature", "properties": { "candidate_id": "93", "mound_probability": 1.0, "vote_count": 5, "source_tile": "K-35-052-4_32635_x336_y1680.png" }, "geometry": { "type": "Point", "coordinates": [ 25.786241, 42.413688 ] } },
{ "type": "Feature", "properties": { "candidate_id": "94", "mound_probability": 1.0, "vote_count": 5, "source_tile": "K-35-052-4_32635_x336_y1680.png" }, "geometry": { "type": "Point", "coordinates": [ 25.7882, 42.413802 ] } },
{ "type": "Feature", "properties": { "candidate_id": "95", "mound_probability": 0.2, "vote_count": 5, "source_tile": "K-35-052-4_32635_x0_y1344.png" }, "geometry": { "type": "Point", "coordinates": [ 25.750407, 42.424877 ] } },
{ "type": "Feature", "properties": { "candidate_id": "101", "mound_probability": 1.0, "vote_count": 5, "source_tile": "K-35-052-4_32635_x2352_y336.png" }, "geometry": { "type": "Point", "coordinates": [ 25.90325, 42.478927 ] } },
{ "type": "Feature", "properties": { "candidate_id": "104", "mound_probability": 0.4, "vote_count": 4, "source_tile": "K-35-053-3_Elenovo_x336_y1680.png" }, "geometry": { "type": "Point", "coordinates": [ 26.03524, 42.415742 ] } },
{ "type": "Feature", "properties": { "candidate_id": "106", "mound_probability": 0.95, "vote_count": 5, "source_tile": "K-35-053-3_Elenovo_x3024_y672.png" }, "geometry": { "type": "Point", "coordinates": [ 26.20296, 42.468805 ] } },
{ "type": "Feature", "properties": { "candidate_id": "108", "mound_probability": 0.95, "vote_count": 5, "source_tile": "K-35-053-3_Elenovo_x2016_y0.png" }, "geometry": { "type": "Point", "coordinates": [ 26.120789, 42.496324 ] } },
{ "type": "Feature", "properties": { "candidate_id": "109", "mound_probability": 1.0, "vote_count": 4, "source_tile": "K-35-053-3_Elenovo_x2016_y0.png" }, "geometry": { "type": "Point", "coordinates": [ 26.122191, 42.49152 ] } },
{ "type": "Feature", "properties": { "candidate_id": "110", "mound_probability": 1.0, "vote_count": 5, "source_tile": "K-35-053-3_Elenovo_x3360_y336.png" }, "geometry": { "type": "Point", "coordinates": [ 26.209594, 42.481695 ] } },
{ "type": "Feature", "properties": { "candidate_id": "111", "mound_probability": 1.0, "vote_count": 5, "source_tile": "K-35-053-3_Elenovo_x3360_y336.png" }, "geometry": { "type": "Point", "coordinates": [ 26.216189, 42.48108 ] } },
{ "type": "Feature", "properties": { "candidate_id": "112", "mound_probability": 0.95, "vote_count": 4, "source_tile": "K-35-053-3_Elenovo_x3360_y336.png" }, "geometry": { "type": "Point", "coordinates": [ 26.221819, 42.480812 ] } },
{ "type": "Feature", "properties": { "candidate_id": "114", "mound_probability": 1.0, "vote_count": 5, "source_tile": "K-35-053-3_Elenovo_x1344_y2016.png" }, "geometry": { "type": "Point", "coordinates": [ 26.083044, 42.404558 ] } },
{ "type": "Feature", "properties": { "candidate_id": "116", "mound_probability": 1.0, "vote_count": 5, "source_tile": "K-35-053-3_Elenovo_x1344_y2016.png" }, "geometry": { "type": "Point", "coordinates": [ 26.089332, 42.402164 ] } },
{ "type": "Feature", "properties": { "candidate_id": "117", "mound_probability": 1.0, "vote_count": 5, "source_tile": "K-35-053-3_Elenovo_x1344_y2016.png" }, "geometry": { "type": "Point", "coordinates": [ 26.096887, 42.396042 ] } },
{ "type": "Feature", "properties": { "candidate_id": "118", "mound_probability": 1.0, "vote_count": 5, "source_tile": "K-35-053-3_Elenovo_x336_y2688.png" }, "geometry": { "type": "Point", "coordinates": [ 26.04054, 42.371495 ] } },
{ "type": "Feature", "properties": { "candidate_id": "119", "mound_probability": 1.0, "vote_count": 4, "source_tile": "K-35-053-3_Elenovo_x336_y2688.png" }, "geometry": { "type": "Point", "coordinates": [ 26.036589, 42.365617 ] } },
{ "type": "Feature", "properties": { "candidate_id": "122", "mound_probability": 0.85, "vote_count": 4, "source_tile": "K-35-052-4_32635_x2016_y0.png" }, "geometry": { "type": "Point", "coordinates": [ 25.869666, 42.494631 ] } },
{ "type": "Feature", "properties": { "candidate_id": "125", "mound_probability": 0.95, "vote_count": 4, "source_tile": "K-35-053-3_Elenovo_x0_y1344.png" }, "geometry": { "type": "Point", "coordinates": [ 26.014958, 42.428904 ] } },
{ "type": "Feature", "properties": { "candidate_id": "127", "mound_probability": 1.0, "vote_count": 5, "source_tile": "K-35-053-3_Elenovo_x4032_y1680.png" }, "geometry": { "type": "Point", "coordinates": [ 26.247782, 42.409758 ] } },
{ "type": "Feature", "properties": { "candidate_id": "128", "mound_probability": 0.1, "vote_count": 5, "source_tile": "K-35-053-3_Elenovo_x1680_y1344.png" }, "geometry": { "type": "Point", "coordinates": [ 26.100056, 42.424881 ] } },
{ "type": "Feature", "properties": { "candidate_id": "129", "mound_probability": 1.0, "vote_count": 5, "source_tile": "K-35-053-3_Elenovo_x3696_y2016.png" }, "geometry": { "type": "Point", "coordinates": [ 26.230133, 42.408224 ] } },
{ "type": "Feature", "properties": { "candidate_id": "130", "mound_probability": 0.95, "vote_count": 4, "source_tile": "K-35-053-3_Elenovo_x1008_y336.png" }, "geometry": { "type": "Point", "coordinates": [ 26.076616, 42.483966 ] } },
{ "type": "Feature", "properties": { "candidate_id": "131", "mound_probability": 0.95, "vote_count": 5, "source_tile": "K-35-052-4_32635_x672_y1008.png" }, "geometry": { "type": "Point", "coordinates": [ 25.803592, 42.448792 ] } },
{ "type": "Feature", "properties": { "candidate_id": "132", "mound_probability": 1.0, "vote_count": 5, "source_tile": "K-35-052-4_32635_x672_y1008.png" }, "geometry": { "type": "Point", "coordinates": [ 25.800411, 42.440402 ] } },
{ "type": "Feature", "properties": { "candidate_id": "137", "mound_probability": 0.95, "vote_count": 5, "source_tile": "K-35-053-3_Elenovo_x336_y3024.png" }, "geometry": { "type": "Point", "coordinates": [ 26.038704, 42.357158 ] } },
{ "type": "Feature", "properties": { "candidate_id": "142", "mound_probability": 0.2, "vote_count": 5, "source_tile": "K-35-052-4_32635_x672_y1680.png" }, "geometry": { "type": "Point", "coordinates": [ 25.79313, 42.410727 ] } },
{ "type": "Feature", "properties": { "candidate_id": "144", "mound_probability": 1.0, "vote_count": 5, "source_tile": "K-35-062-2_Rakovski_x0_y1008.png" }, "geometry": { "type": "Point", "coordinates": [ 24.761989, 42.283097 ] } },
{ "type": "Feature", "properties": { "candidate_id": "145", "mound_probability": 0.95, "vote_count": 5, "source_tile": "K-35-062-2_Rakovski_x0_y1008.png" }, "geometry": { "type": "Point", "coordinates": [ 24.759919, 42.271773 ] } },
{ "type": "Feature", "properties": { "candidate_id": "148", "mound_probability": 0.85, "vote_count": 5, "source_tile": "K-35-053-3_Elenovo_x336_y0.png" }, "geometry": { "type": "Point", "coordinates": [ 26.03689, 42.484937 ] } },
{ "type": "Feature", "properties": { "candidate_id": "151", "mound_probability": 1.0, "vote_count": 5, "source_tile": "K-35-062-2_Rakovski_x0_y0.png" }, "geometry": { "type": "Point", "coordinates": [ 24.748902, 42.322669 ] } },
{ "type": "Feature", "properties": { "candidate_id": "152", "mound_probability": 1.0, "vote_count": 5, "source_tile": "K-35-053-3_Elenovo_x336_y2016.png" }, "geometry": { "type": "Point", "coordinates": [ 26.040015, 42.403743 ] } },
{ "type": "Feature", "properties": { "candidate_id": "153", "mound_probability": 0.95, "vote_count": 5, "source_tile": "K-35-053-3_Elenovo_x336_y2016.png" }, "geometry": { "type": "Point", "coordinates": [ 26.040323, 42.399409 ] } },
{ "type": "Feature", "properties": { "candidate_id": "154", "mound_probability": 0.95, "vote_count": 5, "source_tile": "K-35-053-3_Elenovo_x3696_y3024.png" }, "geometry": { "type": "Point", "coordinates": [ 26.245594, 42.358731 ] } },
{ "type": "Feature", "properties": { "candidate_id": "157", "mound_probability": 0.1, "vote_count": 5, "source_tile": "K-35-053-3_Elenovo_x4032_y3024.png" }, "geometry": { "type": "Point", "coordinates": [ 26.246564, 42.351774 ] } },
{ "type": "Feature", "properties": { "candidate_id": "163", "mound_probability": 0.2, "vote_count": 4, "source_tile": "K-35-062-2_Rakovski_x0_y336.png" }, "geometry": { "type": "Point", "coordinates": [ 24.760456, 42.301801 ] } },
{ "type": "Feature", "properties": { "candidate_id": "164", "mound_probability": 1.0, "vote_count": 5, "source_tile": "K-35-062-2_Rakovski_x0_y672.png" }, "geometry": { "type": "Point", "coordinates": [ 24.76184, 42.289872 ] } },
{ "type": "Feature", "properties": { "candidate_id": "166", "mound_probability": 0.95, "vote_count": 5, "source_tile": "K-35-053-3_Elenovo_x672_y0.png" }, "geometry": { "type": "Point", "coordinates": [ 26.058965, 42.499097 ] } },
{ "type": "Feature", "properties": { "candidate_id": "167", "mound_probability": 1.0, "vote_count": 5, "source_tile": "K-35-053-3_Elenovo_x672_y0.png" }, "geometry": { "type": "Point", "coordinates": [ 26.04958, 42.486336 ] } },
{ "type": "Feature", "properties": { "candidate_id": "168", "mound_probability": 0.4, "vote_count": 5, "source_tile": "K-35-053-3_Elenovo_x672_y0.png" }, "geometry": { "type": "Point", "coordinates": [ 26.054185, 42.48423 ] } },
{ "type": "Feature", "properties": { "candidate_id": "170", "mound_probability": 1.0, "vote_count": 4, "source_tile": "K-35-053-3_Elenovo_x336_y2352.png" }, "geometry": { "type": "Point", "coordinates": [ 26.039611, 42.391705 ] } },
{ "type": "Feature", "properties": { "candidate_id": "171", "mound_probability": 1.0, "vote_count": 4, "source_tile": "K-35-053-3_Elenovo_x336_y2352.png" }, "geometry": { "type": "Point", "coordinates": [ 26.041058, 42.384405 ] } },
{ "type": "Feature", "properties": { "candidate_id": "172", "mound_probability": 0.95, "vote_count": 4, "source_tile": "K-35-053-3_Elenovo_x336_y2352.png" }, "geometry": { "type": "Point", "coordinates": [ 26.026212, 42.380548 ] } },
{ "type": "Feature", "properties": { "candidate_id": "173", "mound_probability": 1.0, "vote_count": 5, "source_tile": "K-35-053-3_Elenovo_x3360_y1680.png" }, "geometry": { "type": "Point", "coordinates": [ 26.20428, 42.423133 ] } },
{ "type": "Feature", "properties": { "candidate_id": "174", "mound_probability": 1.0, "vote_count": 5, "source_tile": "K-35-053-3_Elenovo_x3360_y1680.png" }, "geometry": { "type": "Point", "coordinates": [ 26.212663, 42.41725 ] } },
{ "type": "Feature", "properties": { "candidate_id": "175", "mound_probability": 1.0, "vote_count": 5, "source_tile": "K-35-053-3_Elenovo_x3360_y1680.png" }, "geometry": { "type": "Point", "coordinates": [ 26.219537, 42.417321 ] } },
{ "type": "Feature", "properties": { "candidate_id": "176", "mound_probability": 0.95, "vote_count": 5, "source_tile": "K-35-053-3_Elenovo_x3360_y1680.png" }, "geometry": { "type": "Point", "coordinates": [ 26.210099, 42.410849 ] } },
{ "type": "Feature", "properties": { "candidate_id": "180", "mound_probability": 0.95, "vote_count": 5, "source_tile": "K-35-052-4_32635_x2688_y1344.png" }, "geometry": { "type": "Point", "coordinates": [ 25.926844, 42.424934 ] } },
{ "type": "Feature", "properties": { "candidate_id": "181", "mound_probability": 0.2, "vote_count": 5, "source_tile": "K-35-062-2_Rakovski_x1008_y672.png" }, "geometry": { "type": "Point", "coordinates": [ 24.815515, 42.288979 ] } },
{ "type": "Feature", "properties": { "candidate_id": "182", "mound_probability": 0.85, "vote_count": 5, "source_tile": "K-35-053-3_Elenovo_x0_y2016.png" }, "geometry": { "type": "Point", "coordinates": [ 26.001998, 42.405351 ] } },
{ "type": "Feature", "properties": { "candidate_id": "183", "mound_probability": 1.0, "vote_count": 4, "source_tile": "K-35-053-3_Elenovo_x0_y2016.png" }, "geometry": { "type": "Point", "coordinates": [ 26.002991, 42.396477 ] } },
{ "type": "Feature", "properties": { "candidate_id": "184", "mound_probability": 1.0, "vote_count": 5, "source_tile": "K-35-062-2_Rakovski_x1344_y1680.png" }, "geometry": { "type": "Point", "coordinates": [ 24.831934, 42.241807 ] } },
{ "type": "Feature", "properties": { "candidate_id": "185", "mound_probability": 1.0, "vote_count": 5, "source_tile": "K-35-053-3_Elenovo_x3360_y2352.png" }, "geometry": { "type": "Point", "coordinates": [ 26.217512, 42.384175 ] } },
{ "type": "Feature", "properties": { "candidate_id": "186", "mound_probability": 0.95, "vote_count": 5, "source_tile": "K-35-053-3_Elenovo_x3360_y2352.png" }, "geometry": { "type": "Point", "coordinates": [ 26.206234, 42.383349 ] } },
{ "type": "Feature", "properties": { "candidate_id": "188", "mound_probability": 1.0, "vote_count": 4, "source_tile": "K-35-053-3_Elenovo_x672_y336.png" }, "geometry": { "type": "Point", "coordinates": [ 26.048221, 42.473485 ] } },
{ "type": "Feature", "properties": { "candidate_id": "190", "mound_probability": 1.0, "vote_count": 5, "source_tile": "K-35-053-3_Elenovo_x672_y2016.png" }, "geometry": { "type": "Point", "coordinates": [ 26.043306, 42.405613 ] } },
{ "type": "Feature", "properties": { "candidate_id": "191", "mound_probability": 0.4, "vote_count": 5, "source_tile": "K-35-053-3_Elenovo_x672_y2016.png" }, "geometry": { "type": "Point", "coordinates": [ 26.050569, 42.401012 ] } },
{ "type": "Feature", "properties": { "candidate_id": "192", "mound_probability": 0.95, "vote_count": 4, "source_tile": "K-35-053-3_Elenovo_x672_y2016.png" }, "geometry": { "type": "Point", "coordinates": [ 26.044966, 42.392683 ] } },
{ "type": "Feature", "properties": { "candidate_id": "195", "mound_probability": 1.0, "vote_count": 5, "source_tile": "K-35-053-3_Elenovo_x3696_y3024.png" }, "geometry": { "type": "Point", "coordinates": [ 26.239696, 42.359121 ] } },
{ "type": "Feature", "properties": { "candidate_id": "196", "mound_probability": 1.0, "vote_count": 4, "source_tile": "K-35-053-3_Elenovo_x3696_y3024.png" }, "geometry": { "type": "Point", "coordinates": [ 26.242981, 42.35137 ] } },
{ "type": "Feature", "properties": { "candidate_id": "199", "mound_probability": 1.0, "vote_count": 5, "source_tile": "K-35-062-2_Rakovski_x1008_y1008.png" }, "geometry": { "type": "Point", "coordinates": [ 24.824188, 42.272783 ] } },
{ "type": "Feature", "properties": { "candidate_id": "200", "mound_probability": 1.0, "vote_count": 5, "source_tile": "K-35-062-2_Rakovski_x1008_y1344.png" }, "geometry": { "type": "Point", "coordinates": [ 24.825745, 42.271627 ] } },
{ "type": "Feature", "properties": { "candidate_id": "201", "mound_probability": 1.0, "vote_count": 5, "source_tile": "K-35-062-2_Rakovski_x1680_y0.png" }, "geometry": { "type": "Point", "coordinates": [ 24.846219, 42.3275 ] } },
{ "type": "Feature", "properties": { "candidate_id": "202", "mound_probability": 1.0, "vote_count": 5, "source_tile": "K-35-062-2_Rakovski_x1680_y0.png" }, "geometry": { "type": "Point", "coordinates": [ 24.84919, 42.326605 ] } },
{ "type": "Feature", "properties": { "candidate_id": "203", "mound_probability": 1.0, "vote_count": 5, "source_tile": "K-35-062-2_Rakovski_x1680_y0.png" }, "geometry": { "type": "Point", "coordinates": [ 24.852238, 42.326228 ] } },
{ "type": "Feature", "properties": { "candidate_id": "204", "mound_probability": 1.0, "vote_count": 5, "source_tile": "K-35-062-2_Rakovski_x1680_y0.png" }, "geometry": { "type": "Point", "coordinates": [ 24.848485, 42.321466 ] } },
{ "type": "Feature", "properties": { "candidate_id": "205", "mound_probability": 1.0, "vote_count": 5, "source_tile": "K-35-062-2_Rakovski_x1008_y0.png" }, "geometry": { "type": "Point", "coordinates": [ 24.806464, 42.317288 ] } },
{ "type": "Feature", "properties": { "candidate_id": "206", "mound_probability": 1.0, "vote_count": 5, "source_tile": "K-35-062-2_Rakovski_x1008_y336.png" }, "geometry": { "type": "Point", "coordinates": [ 24.810909, 42.316282 ] } },
{ "type": "Feature", "properties": { "candidate_id": "208", "mound_probability": 1.0, "vote_count": 5, "source_tile": "K-35-062-2_Rakovski_x1008_y336.png" }, "geometry": { "type": "Point", "coordinates": [ 24.810642, 42.311027 ] } },
{ "type": "Feature", "properties": { "candidate_id": "209", "mound_probability": 1.0, "vote_count": 5, "source_tile": "K-35-062-2_Rakovski_x1008_y336.png" }, "geometry": { "type": "Point", "coordinates": [ 24.816254, 42.313388 ] } },
{ "type": "Feature", "properties": { "candidate_id": "210", "mound_probability": 1.0, "vote_count": 5, "source_tile": "K-35-062-2_Rakovski_x1008_y336.png" }, "geometry": { "type": "Point", "coordinates": [ 24.824724, 42.309047 ] } },
{ "type": "Feature", "properties": { "candidate_id": "211", "mound_probability": 1.0, "vote_count": 5, "source_tile": "K-35-062-2_Rakovski_x1008_y336.png" }, "geometry": { "type": "Point", "coordinates": [ 24.823675, 42.307877 ] } },
{ "type": "Feature", "properties": { "candidate_id": "212", "mound_probability": 1.0, "vote_count": 5, "source_tile": "K-35-062-2_Rakovski_x1008_y336.png" }, "geometry": { "type": "Point", "coordinates": [ 24.819777, 42.30664 ] } },
{ "type": "Feature", "properties": { "candidate_id": "213", "mound_probability": 1.0, "vote_count": 4, "source_tile": "K-35-062-2_Rakovski_x1008_y336.png" }, "geometry": { "type": "Point", "coordinates": [ 24.811222, 42.302918 ] } },
{ "type": "Feature", "properties": { "candidate_id": "217", "mound_probability": 1.0, "vote_count": 5, "source_tile": "K-35-052-4_32635_x0_y2352.png" }, "geometry": { "type": "Point", "coordinates": [ 25.763868, 42.389554 ] } },
{ "type": "Feature", "properties": { "candidate_id": "218", "mound_probability": 0.95, "vote_count": 5, "source_tile": "K-35-062-2_Rakovski_x2016_y1008.png" }, "geometry": { "type": "Point", "coordinates": [ 24.875105, 42.278517 ] } },
{ "type": "Feature", "properties": { "candidate_id": "219", "mound_probability": 1.0, "vote_count": 5, "source_tile": "K-35-062-2_Rakovski_x1008_y0.png" }, "geometry": { "type": "Point", "coordinates": [ 24.813786, 42.320789 ] } },
{ "type": "Feature", "properties": { "candidate_id": "220", "mound_probability": 1.0, "vote_count": 5, "source_tile": "K-35-062-2_Rakovski_x1008_y1008.png" }, "geometry": { "type": "Point", "coordinates": [ 24.823607, 42.273792 ] } },
{ "type": "Feature", "properties": { "candidate_id": "222", "mound_probability": 0.85, "vote_count": 4, "source_tile": "K-35-053-3_Elenovo_x3696_y672.png" }, "geometry": { "type": "Point", "coordinates": [ 26.232074, 42.468328 ] } },
{ "type": "Feature", "properties": { "candidate_id": "223", "mound_probability": 0.2, "vote_count": 5, "source_tile": "K-35-053-3_Elenovo_x3696_y672.png" }, "geometry": { "type": "Point", "coordinates": [ 26.233833, 42.464967 ] } },
{ "type": "Feature", "properties": { "candidate_id": "225", "mound_probability": 0.95, "vote_count": 4, "source_tile": "K-35-062-2_Rakovski_x0_y2352.png" }, "geometry": { "type": "Point", "coordinates": [ 24.765026, 42.226626 ] } },
{ "type": "Feature", "properties": { "candidate_id": "227", "mound_probability": 0.95, "vote_count": 5, "source_tile": "K-35-062-2_Rakovski_x0_y2352.png" }, "geometry": { "type": "Point", "coordinates": [ 24.76776, 42.223762 ] } },
{ "type": "Feature", "properties": { "candidate_id": "229", "mound_probability": 0.95, "vote_count": 5, "source_tile": "K-35-062-2_Rakovski_x0_y2352.png" }, "geometry": { "type": "Point", "coordinates": [ 24.750631, 42.216034 ] } },
{ "type": "Feature", "properties": { "candidate_id": "230", "mound_probability": 0.85, "vote_count": 5, "source_tile": "K-35-062-2_Rakovski_x0_y2352.png" }, "geometry": { "type": "Point", "coordinates": [ 24.748784, 42.21332 ] } },
{ "type": "Feature", "properties": { "candidate_id": "231", "mound_probability": 0.2, "vote_count": 4, "source_tile": "K-35-062-2_Rakovski_x2688_y3360.png" }, "geometry": { "type": "Point", "coordinates": [ 24.925962, 42.174872 ] } },
{ "type": "Feature", "properties": { "candidate_id": "234", "mound_probability": 1.0, "vote_count": 5, "source_tile": "K-35-053-3_Elenovo_x2688_y672.png" }, "geometry": { "type": "Point", "coordinates": [ 26.170207, 42.453537 ] } },
{ "type": "Feature", "properties": { "candidate_id": "235", "mound_probability": 1.0, "vote_count": 5, "source_tile": "K-35-062-2_Rakovski_x3024_y3360.png" }, "geometry": { "type": "Point", "coordinates": [ 24.938669, 42.17459 ] } },
{ "type": "Feature", "properties": { "candidate_id": "237", "mound_probability": 0.95, "vote_count": 5, "source_tile": "K-35-062-2_Rakovski_x2352_y2688.png" }, "geometry": { "type": "Point", "coordinates": [ 24.901586, 42.205818 ] } },
{ "type": "Feature", "properties": { "candidate_id": "238", "mound_probability": 1.0, "vote_count": 5, "source_tile": "K-35-062-2_Rakovski_x2352_y2688.png" }, "geometry": { "type": "Point", "coordinates": [ 24.898349, 42.20326 ] } },
{ "type": "Feature", "properties": { "candidate_id": "239", "mound_probability": 0.85, "vote_count": 5, "source_tile": "K-35-062-2_Rakovski_x2352_y2688.png" }, "geometry": { "type": "Point", "coordinates": [ 24.907139, 42.202887 ] } },
{ "type": "Feature", "properties": { "candidate_id": "240", "mound_probability": 0.85, "vote_count": 4, "source_tile": "K-35-053-3_Elenovo_x672_y2688.png" }, "geometry": { "type": "Point", "coordinates": [ 26.058784, 42.372896 ] } },
{ "type": "Feature", "properties": { "candidate_id": "245", "mound_probability": 0.4, "vote_count": 4, "source_tile": "K-35-062-2_Rakovski_x3024_y2016.png" }, "geometry": { "type": "Point", "coordinates": [ 24.950621, 42.244607 ] } },
{ "type": "Feature", "properties": { "candidate_id": "247", "mound_probability": 1.0, "vote_count": 5, "source_tile": "K-35-053-3_Elenovo_x0_y1680.png" }, "geometry": { "type": "Point", "coordinates": [ 26.010503, 42.417734 ] } },
{ "type": "Feature", "properties": { "candidate_id": "248", "mound_probability": 1.0, "vote_count": 5, "source_tile": "K-35-053-3_Elenovo_x0_y1680.png" }, "geometry": { "type": "Point", "coordinates": [ 26.007369, 42.415218 ] } },
{ "type": "Feature", "properties": { "candidate_id": "249", "mound_probability": 0.2, "vote_count": 4, "source_tile": "K-35-053-3_Elenovo_x0_y1680.png" }, "geometry": { "type": "Point", "coordinates": [ 26.003142, 42.414807 ] } },
{ "type": "Feature", "properties": { "candidate_id": "255", "mound_probability": 1.0, "vote_count": 5, "source_tile": "K-35-053-3_Elenovo_x0_y1680.png" }, "geometry": { "type": "Point", "coordinates": [ 26.005448, 42.410441 ] } },
{ "type": "Feature", "properties": { "candidate_id": "256", "mound_probability": 1.0, "vote_count": 5, "source_tile": "K-35-062-2_Rakovski_x1008_y1680.png" }, "geometry": { "type": "Point", "coordinates": [ 24.823277, 42.250999 ] } },
{ "type": "Feature", "properties": { "candidate_id": "260", "mound_probability": 1.0, "vote_count": 5, "source_tile": "K-35-053-3_Elenovo_x1680_y3024.png" }, "geometry": { "type": "Point", "coordinates": [ 26.114582, 42.347452 ] } },
{ "type": "Feature", "properties": { "candidate_id": "261", "mound_probability": 0.15, "vote_count": 4, "source_tile": "K-35-053-3_Elenovo_x1680_y3360.png" }, "geometry": { "type": "Point", "coordinates": [ 26.113357, 42.341912 ] } },
{ "type": "Feature", "properties": { "candidate_id": "262", "mound_probability": 1.0, "vote_count": 4, "source_tile": "K-35-053-3_Elenovo_x1680_y3360.png" }, "geometry": { "type": "Point", "coordinates": [ 26.114209, 42.341938 ] } },
{ "type": "Feature", "properties": { "candidate_id": "264", "mound_probability": 1.0, "vote_count": 5, "source_tile": "K-35-053-3_Elenovo_x1680_y3360.png" }, "geometry": { "type": "Point", "coordinates": [ 26.111208, 42.340556 ] } },
{ "type": "Feature", "properties": { "candidate_id": "265", "mound_probability": 0.2, "vote_count": 4, "source_tile": "K-35-053-3_Elenovo_x1680_y3360.png" }, "geometry": { "type": "Point", "coordinates": [ 26.118006, 42.338686 ] } },
{ "type": "Feature", "properties": { "candidate_id": "267", "mound_probability": 1.0, "vote_count": 5, "source_tile": "K-35-062-2_Rakovski_x336_y336.png" }, "geometry": { "type": "Point", "coordinates": [ 24.775119, 42.306013 ] } },
{ "type": "Feature", "properties": { "candidate_id": "268", "mound_probability": 1.0, "vote_count": 5, "source_tile": "K-35-062-2_Rakovski_x336_y336.png" }, "geometry": { "type": "Point", "coordinates": [ 24.770674, 42.301915 ] } },
{ "type": "Feature", "properties": { "candidate_id": "271", "mound_probability": 1.0, "vote_count": 4, "source_tile": "K-35-062-2_Rakovski_x2016_y2016.png" }, "geometry": { "type": "Point", "coordinates": [ 24.89114, 42.227564 ] } },
{ "type": "Feature", "properties": { "candidate_id": "273", "mound_probability": 0.85, "vote_count": 4, "source_tile": "K-35-062-2_Rakovski_x0_y1344.png" }, "geometry": { "type": "Point", "coordinates": [ 24.765798, 42.27008 ] } },
{ "type": "Feature", "properties": { "candidate_id": "274", "mound_probability": 0.95, "vote_count": 5, "source_tile": "K-35-062-2_Rakovski_x0_y1344.png" }, "geometry": { "type": "Point", "coordinates": [ 24.764369, 42.26193 ] } },
{ "type": "Feature", "properties": { "candidate_id": "275", "mound_probability": 1.0, "vote_count": 5, "source_tile": "K-35-062-2_Rakovski_x0_y1344.png" }, "geometry": { "type": "Point", "coordinates": [ 24.763365, 42.261231 ] } },
{ "type": "Feature", "properties": { "candidate_id": "276", "mound_probability": 1.0, "vote_count": 4, "source_tile": "K-35-062-2_Rakovski_x0_y1344.png" }, "geometry": { "type": "Point", "coordinates": [ 24.751275, 42.258248 ] } },
{ "type": "Feature", "properties": { "candidate_id": "280", "mound_probability": 1.0, "vote_count": 4, "source_tile": "K-35-062-2_Rakovski_x336_y1008.png" }, "geometry": { "type": "Point", "coordinates": [ 24.771298, 42.278288 ] } },
{ "type": "Feature", "properties": { "candidate_id": "281", "mound_probability": 1.0, "vote_count": 5, "source_tile": "K-35-062-2_Rakovski_x336_y1008.png" }, "geometry": { "type": "Point", "coordinates": [ 24.769044, 42.274973 ] } },
{ "type": "Feature", "properties": { "candidate_id": "283", "mound_probability": 1.0, "vote_count": 4, "source_tile": "K-35-062-2_Rakovski_x3024_y3024.png" }, "geometry": { "type": "Point", "coordinates": [ 24.94947, 42.187949 ] } },
{ "type": "Feature", "properties": { "candidate_id": "287", "mound_probability": 0.95, "vote_count": 5, "source_tile": "K-35-053-3_Elenovo_x3696_y2688.png" }, "geometry": { "type": "Point", "coordinates": [ 26.237562, 42.37275 ] } },
{ "type": "Feature", "properties": { "candidate_id": "289", "mound_probability": 0.95, "vote_count": 4, "source_tile": "K-35-053-3_Elenovo_x3696_y2688.png" }, "geometry": { "type": "Point", "coordinates": [ 26.232872, 42.37008 ] } },
{ "type": "Feature", "properties": { "candidate_id": "290", "mound_probability": 0.85, "vote_count": 5, "source_tile": "K-35-053-3_Elenovo_x3696_y2688.png" }, "geometry": { "type": "Point", "coordinates": [ 26.233213, 42.368739 ] } },
{ "type": "Feature", "properties": { "candidate_id": "293", "mound_probability": 0.95, "vote_count": 5, "source_tile": "K-35-062-2_Rakovski_x336_y672.png" }, "geometry": { "type": "Point", "coordinates": [ 24.776429, 42.300481 ] } },
{ "type": "Feature", "properties": { "candidate_id": "303", "mound_probability": 0.85, "vote_count": 4, "source_tile": "K-35-062-2_Rakovski_x1680_y672.png" }, "geometry": { "type": "Point", "coordinates": [ 24.855615, 42.30011 ] } },
{ "type": "Feature", "properties": { "candidate_id": "304", "mound_probability": 1.0, "vote_count": 5, "source_tile": "K-35-062-2_Rakovski_x1680_y672.png" }, "geometry": { "type": "Point", "coordinates": [ 24.865504, 42.299902 ] } },
{ "type": "Feature", "properties": { "candidate_id": "305", "mound_probability": 1.0, "vote_count": 5, "source_tile": "K-35-062-2_Rakovski_x1680_y672.png" }, "geometry": { "type": "Point", "coordinates": [ 24.867037, 42.298818 ] } },
{ "type": "Feature", "properties": { "candidate_id": "306", "mound_probability": 0.4, "vote_count": 5, "source_tile": "K-35-053-3_Elenovo_x3696_y2352.png" }, "geometry": { "type": "Point", "coordinates": [ 26.227835, 42.392585 ] } },
{ "type": "Feature", "properties": { "candidate_id": "307", "mound_probability": 0.1, "vote_count": 5, "source_tile": "K-35-053-3_Elenovo_x3696_y2352.png" }, "geometry": { "type": "Point", "coordinates": [ 26.231185, 42.39025 ] } },
{ "type": "Feature", "properties": { "candidate_id": "308", "mound_probability": 1.0, "vote_count": 5, "source_tile": "K-35-053-3_Elenovo_x3696_y2352.png" }, "geometry": { "type": "Point", "coordinates": [ 26.241806, 42.391961 ] } },
{ "type": "Feature", "properties": { "candidate_id": "310", "mound_probability": 0.2, "vote_count": 5, "source_tile": "K-35-053-3_Elenovo_x3696_y2352.png" }, "geometry": { "type": "Point", "coordinates": [ 26.232023, 42.384536 ] } },
{ "type": "Feature", "properties": { "candidate_id": "311", "mound_probability": 0.95, "vote_count": 5, "source_tile": "K-35-053-3_Elenovo_x3696_y2352.png" }, "geometry": { "type": "Point", "coordinates": [ 26.236232, 42.381839 ] } },
{ "type": "Feature", "properties": { "candidate_id": "312", "mound_probability": 1.0, "vote_count": 5, "source_tile": "K-35-062-2_Rakovski_x2688_y336.png" }, "geometry": { "type": "Point", "coordinates": [ 24.928554, 42.319745 ] } },
{ "type": "Feature", "properties": { "candidate_id": "313", "mound_probability": 1.0, "vote_count": 5, "source_tile": "K-35-062-2_Rakovski_x2688_y336.png" }, "geometry": { "type": "Point", "coordinates": [ 24.917185, 42.316522 ] } },
{ "type": "Feature", "properties": { "candidate_id": "314", "mound_probability": 1.0, "vote_count": 5, "source_tile": "K-35-062-2_Rakovski_x2688_y336.png" }, "geometry": { "type": "Point", "coordinates": [ 24.921791, 42.31714 ] } },
{ "type": "Feature", "properties": { "candidate_id": "315", "mound_probability": 0.4, "vote_count": 5, "source_tile": "K-35-062-2_Rakovski_x2688_y336.png" }, "geometry": { "type": "Point", "coordinates": [ 24.916564, 42.312682 ] } },
{ "type": "Feature", "properties": { "candidate_id": "316", "mound_probability": 0.95, "vote_count": 5, "source_tile": "K-35-062-2_Rakovski_x2688_y336.png" }, "geometry": { "type": "Point", "coordinates": [ 24.929675, 42.311735 ] } },
{ "type": "Feature", "properties": { "candidate_id": "317", "mound_probability": 0.3, "vote_count": 5, "source_tile": "K-35-062-2_Rakovski_x2688_y336.png" }, "geometry": { "type": "Point", "coordinates": [ 24.921622, 42.311385 ] } },
{ "type": "Feature", "properties": { "candidate_id": "318", "mound_probability": 0.4, "vote_count": 4, "source_tile": "K-35-062-2_Rakovski_x3696_y0.png" }, "geometry": { "type": "Point", "coordinates": [ 24.984341, 42.327913 ] } },
{ "type": "Feature", "properties": { "candidate_id": "324", "mound_probability": 0.2, "vote_count": 5, "source_tile": "K-35-062-2_Rakovski_x4032_y3360.png" }, "geometry": { "type": "Point", "coordinates": [ 24.994876, 42.170919 ] } },
{ "type": "Feature", "properties": { "candidate_id": "326", "mound_probability": 0.95, "vote_count": 4, "source_tile": "K-35-062-2_Rakovski_x2352_y3360.png" }, "geometry": { "type": "Point", "coordinates": [ 24.903019, 42.1829 ] } },
{ "type": "Feature", "properties": { "candidate_id": "327", "mound_probability": 0.4, "vote_count": 5, "source_tile": "K-35-062-2_Rakovski_x2352_y3360.png" }, "geometry": { "type": "Point", "coordinates": [ 24.899936, 42.174949 ] } },
{ "type": "Feature", "properties": { "candidate_id": "329", "mound_probability": 1.0, "vote_count": 5, "source_tile": "K-35-062-2_Rakovski_x2688_y1680.png" }, "geometry": { "type": "Point", "coordinates": [ 24.931328, 42.247847 ] } },
{ "type": "Feature", "properties": { "candidate_id": "331", "mound_probability": 0.95, "vote_count": 5, "source_tile": "K-35-062-2_Rakovski_x3696_y2688.png" }, "geometry": { "type": "Point", "coordinates": [ 24.990479, 42.209205 ] } },
{ "type": "Feature", "properties": { "candidate_id": "333", "mound_probability": 0.85, "vote_count": 4, "source_tile": "K-35-062-2_Rakovski_x3696_y2352.png" }, "geometry": { "type": "Point", "coordinates": [ 24.976192, 42.222041 ] } },
{ "type": "Feature", "properties": { "candidate_id": "334", "mound_probability": 0.95, "vote_count": 5, "source_tile": "K-35-062-2_Rakovski_x672_y1008.png" }, "geometry": { "type": "Point", "coordinates": [ 24.788619, 42.285457 ] } },
{ "type": "Feature", "properties": { "candidate_id": "335", "mound_probability": 0.85, "vote_count": 5, "source_tile": "K-35-062-2_Rakovski_x672_y1008.png" }, "geometry": { "type": "Point", "coordinates": [ 24.798685, 42.284358 ] } },
{ "type": "Feature", "properties": { "candidate_id": "336", "mound_probability": 1.0, "vote_count": 5, "source_tile": "K-35-062-2_Rakovski_x672_y1008.png" }, "geometry": { "type": "Point", "coordinates": [ 24.795445, 42.272576 ] } },
{ "type": "Feature", "properties": { "candidate_id": "337", "mound_probability": 1.0, "vote_count": 5, "source_tile": "K-35-062-2_Rakovski_x3696_y1008.png" }, "geometry": { "type": "Point", "coordinates": [ 24.990149, 42.276985 ] } },
{ "type": "Feature", "properties": { "candidate_id": "339", "mound_probability": 1.0, "vote_count": 5, "source_tile": "K-35-062-2_Rakovski_x1680_y336.png" }, "geometry": { "type": "Point", "coordinates": [ 24.849905, 42.314863 ] } },
{ "type": "Feature", "properties": { "candidate_id": "340", "mound_probability": 0.85, "vote_count": 5, "source_tile": "K-35-062-2_Rakovski_x1680_y336.png" }, "geometry": { "type": "Point", "coordinates": [ 24.856004, 42.311301 ] } },
{ "type": "Feature", "properties": { "candidate_id": "341", "mound_probability": 1.0, "vote_count": 5, "source_tile": "K-35-062-2_Rakovski_x1680_y336.png" }, "geometry": { "type": "Point", "coordinates": [ 24.847824, 42.30869 ] } },
{ "type": "Feature", "properties": { "candidate_id": "342", "mound_probability": 0.1, "vote_count": 5, "source_tile": "K-35-062-2_Rakovski_x1680_y336.png" }, "geometry": { "type": "Point", "coordinates": [ 24.868731, 42.30466 ] } },
{ "type": "Feature", "properties": { "candidate_id": "343", "mound_probability": 0.85, "vote_count": 4, "source_tile": "K-35-062-2_Rakovski_x1680_y336.png" }, "geometry": { "type": "Point", "coordinates": [ 24.85473, 42.303396 ] } },
{ "type": "Feature", "properties": { "candidate_id": "344", "mound_probability": 0.2, "vote_count": 5, "source_tile": "K-35-062-2_Rakovski_x2016_y0.png" }, "geometry": { "type": "Point", "coordinates": [ 24.881048, 42.318963 ] } },
{ "type": "Feature", "properties": { "candidate_id": "345", "mound_probability": 1.0, "vote_count": 5, "source_tile": "K-35-062-2_Rakovski_x2016_y336.png" }, "geometry": { "type": "Point", "coordinates": [ 24.870949, 42.306553 ] } },
{ "type": "Feature", "properties": { "candidate_id": "348", "mound_probability": 1.0, "vote_count": 5, "source_tile": "K-35-052-4_32635_x336_y336.png" }, "geometry": { "type": "Point", "coordinates": [ 25.779399, 42.474923 ] } },
{ "type": "Feature", "properties": { "candidate_id": "350", "mound_probability": 0.95, "vote_count": 4, "source_tile": "K-35-052-4_32635_x336_y336.png" }, "geometry": { "type": "Point", "coordinates": [ 25.767762, 42.471098 ] } },
{ "type": "Feature", "properties": { "candidate_id": "356", "mound_probability": 0.95, "vote_count": 4, "source_tile": "K-35-062-2_Rakovski_x672_y1680.png" }, "geometry": { "type": "Point", "coordinates": [ 24.790963, 42.250177 ] } },
{ "type": "Feature", "properties": { "candidate_id": "358", "mound_probability": 0.95, "vote_count": 5, "source_tile": "K-35-062-2_Rakovski_x2352_y2016.png" }, "geometry": { "type": "Point", "coordinates": [ 24.897025, 42.234652 ] } },
{ "type": "Feature", "properties": { "candidate_id": "359", "mound_probability": 0.95, "vote_count": 5, "source_tile": "K-35-062-2_Rakovski_x2352_y2016.png" }, "geometry": { "type": "Point", "coordinates": [ 24.901907, 42.231587 ] } },
{ "type": "Feature", "properties": { "candidate_id": "360", "mound_probability": 1.0, "vote_count": 5, "source_tile": "K-35-062-2_Rakovski_x2352_y2016.png" }, "geometry": { "type": "Point", "coordinates": [ 24.892432, 42.227595 ] } },
{ "type": "Feature", "properties": { "candidate_id": "362", "mound_probability": 1.0, "vote_count": 5, "source_tile": "K-35-062-2_Rakovski_x672_y1344.png" }, "geometry": { "type": "Point", "coordinates": [ 24.788579, 42.260611 ] } },
{ "type": "Feature", "properties": { "candidate_id": "363", "mound_probability": 0.85, "vote_count": 4, "source_tile": "K-35-062-2_Rakovski_x3696_y336.png" }, "geometry": { "type": "Point", "coordinates": [ 24.978407, 42.317905 ] } },
{ "type": "Feature", "properties": { "candidate_id": "364", "mound_probability": 0.95, "vote_count": 4, "source_tile": "K-35-062-2_Rakovski_x3696_y336.png" }, "geometry": { "type": "Point", "coordinates": [ 24.983941, 42.316822 ] } },
{ "type": "Feature", "properties": { "candidate_id": "365", "mound_probability": 0.1, "vote_count": 5, "source_tile": "K-35-062-2_Rakovski_x4032_y0.png" }, "geometry": { "type": "Point", "coordinates": [ 24.991641, 42.325104 ] } },
{ "type": "Feature", "properties": { "candidate_id": "368", "mound_probability": 1.0, "vote_count": 5, "source_tile": "K-35-062-2_Rakovski_x3696_y3360.png" }, "geometry": { "type": "Point", "coordinates": [ 24.975705, 42.179099 ] } },
{ "type": "Feature", "properties": { "candidate_id": "369", "mound_probability": 0.95, "vote_count": 4, "source_tile": "K-35-062-2_Rakovski_x3696_y3360.png" }, "geometry": { "type": "Point", "coordinates": [ 24.99514, 42.16922 ] } },
{ "type": "Feature", "properties": { "candidate_id": "378", "mound_probability": 1.0, "vote_count": 4, "source_tile": "K-35-062-2_Rakovski_x2016_y0.png" }, "geometry": { "type": "Point", "coordinates": [ 24.873073, 42.323293 ] } },
{ "type": "Feature", "properties": { "candidate_id": "418", "mound_probability": 0.85, "vote_count": 4, "source_tile": "K-35-062-2_Rakovski_x3024_y0.png" }, "geometry": { "type": "Point", "coordinates": [ 24.936742, 42.33221 ] } },
{ "type": "Feature", "properties": { "candidate_id": "419", "mound_probability": 0.85, "vote_count": 4, "source_tile": "K-35-062-2_Rakovski_x3024_y0.png" }, "geometry": { "type": "Point", "coordinates": [ 24.934358, 42.330293 ] } },
{ "type": "Feature", "properties": { "candidate_id": "430", "mound_probability": 0.95, "vote_count": 5, "source_tile": "K-35-062-2_Rakovski_x3024_y672.png" }, "geometry": { "type": "Point", "coordinates": [ 24.937815, 42.296706 ] } },
{ "type": "Feature", "properties": { "candidate_id": "433", "mound_probability": 0.1, "vote_count": 5, "source_tile": "K-35-062-2_Rakovski_x3024_y336.png" }, "geometry": { "type": "Point", "coordinates": [ 24.943678, 42.31678 ] } },
{ "type": "Feature", "properties": { "candidate_id": "435", "mound_probability": 1.0, "vote_count": 5, "source_tile": "K-35-062-2_Rakovski_x3024_y336.png" }, "geometry": { "type": "Point", "coordinates": [ 24.945438, 42.31614 ] } },
{ "type": "Feature", "properties": { "candidate_id": "436", "mound_probability": 1.0, "vote_count": 4, "source_tile": "K-35-078-1_Lesovo_x4032_y336.png" }, "geometry": { "type": "Point", "coordinates": [ 26.744238, 41.977688 ] } },
{ "type": "Feature", "properties": { "candidate_id": "437", "mound_probability": 0.95, "vote_count": 5, "source_tile": "K-35-078-1_Lesovo_x2016_y0.png" }, "geometry": { "type": "Point", "coordinates": [ 26.641871, 41.994068 ] } },
{ "type": "Feature", "properties": { "candidate_id": "439", "mound_probability": 0.95, "vote_count": 4, "source_tile": "K-35-078-1_Lesovo_x0_y3360.png" }, "geometry": { "type": "Point", "coordinates": [ 26.50677, 41.842377 ] } },
{ "type": "Feature", "properties": { "candidate_id": "441", "mound_probability": 0.95, "vote_count": 5, "source_tile": "K-35-078-1_Lesovo_x336_y3024.png" }, "geometry": { "type": "Point", "coordinates": [ 26.529667, 41.858002 ] } },
{ "type": "Feature", "properties": { "candidate_id": "442", "mound_probability": 0.3, "vote_count": 5, "source_tile": "K-35-078-1_Lesovo_x336_y3024.png" }, "geometry": { "type": "Point", "coordinates": [ 26.52043, 41.853069 ] } },
{ "type": "Feature", "properties": { "candidate_id": "443", "mound_probability": 1.0, "vote_count": 4, "source_tile": "K-35-062-2_Rakovski_x672_y672.png" }, "geometry": { "type": "Point", "coordinates": [ 24.790787, 42.29134 ] } },
{ "type": "Feature", "properties": { "candidate_id": "444", "mound_probability": 1.0, "vote_count": 5, "source_tile": "K-35-062-2_Rakovski_x3696_y1008.png" }, "geometry": { "type": "Point", "coordinates": [ 24.975961, 42.290617 ] } },
{ "type": "Feature", "properties": { "candidate_id": "445", "mound_probability": 1.0, "vote_count": 4, "source_tile": "K-35-062-2_Rakovski_x3696_y1008.png" }, "geometry": { "type": "Point", "coordinates": [ 24.983765, 42.287347 ] } },
{ "type": "Feature", "properties": { "candidate_id": "446", "mound_probability": 1.0, "vote_count": 5, "source_tile": "K-35-062-2_Rakovski_x3696_y1008.png" }, "geometry": { "type": "Point", "coordinates": [ 24.984607, 42.282197 ] } },
{ "type": "Feature", "properties": { "candidate_id": "448", "mound_probability": 0.95, "vote_count": 4, "source_tile": "K-35-062-2_Rakovski_x3696_y1008.png" }, "geometry": { "type": "Point", "coordinates": [ 24.982354, 42.274888 ] } },
{ "type": "Feature", "properties": { "candidate_id": "449", "mound_probability": 0.75, "vote_count": 4, "source_tile": "K-35-078-1_Lesovo_x0_y336.png" }, "geometry": { "type": "Point", "coordinates": [ 26.513429, 41.982293 ] } },
{ "type": "Feature", "properties": { "candidate_id": "456", "mound_probability": 0.95, "vote_count": 5, "source_tile": "K-35-078-1_Lesovo_x2352_y0.png" }, "geometry": { "type": "Point", "coordinates": [ 26.641381, 41.994156 ] } },
{ "type": "Feature", "properties": { "candidate_id": "458", "mound_probability": 0.95, "vote_count": 5, "source_tile": "K-35-078-1_Lesovo_x2352_y0.png" }, "geometry": { "type": "Point", "coordinates": [ 26.659479, 41.984229 ] } },
{ "type": "Feature", "properties": { "candidate_id": "465", "mound_probability": 0.85, "vote_count": 4, "source_tile": "K-35-078-1_Lesovo_x2688_y1680.png" }, "geometry": { "type": "Point", "coordinates": [ 26.678397, 41.916298 ] } },
{ "type": "Feature", "properties": { "candidate_id": "469", "mound_probability": 1.0, "vote_count": 4, "source_tile": "K-35-062-2_Rakovski_x336_y0.png" }, "geometry": { "type": "Point", "coordinates": [ 24.776791, 42.329178 ] } },
{ "type": "Feature", "properties": { "candidate_id": "479", "mound_probability": 0.95, "vote_count": 5, "source_tile": "K-35-062-2_Rakovski_x3360_y1680.png" }, "geometry": { "type": "Point", "coordinates": [ 24.970662, 42.253369 ] } },
{ "type": "Feature", "properties": { "candidate_id": "480", "mound_probability": 1.0, "vote_count": 4, "source_tile": "K-35-062-2_Rakovski_x3360_y1680.png" }, "geometry": { "type": "Point", "coordinates": [ 24.955846, 42.249495 ] } },
{ "type": "Feature", "properties": { "candidate_id": "499", "mound_probability": 0.4, "vote_count": 4, "source_tile": "K-35-078-1_Lesovo_x336_y3360.png" }, "geometry": { "type": "Point", "coordinates": [ 26.538927, 41.841726 ] } },
{ "type": "Feature", "properties": { "candidate_id": "500", "mound_probability": 0.95, "vote_count": 4, "source_tile": "K-35-078-1_Lesovo_x336_y3360.png" }, "geometry": { "type": "Point", "coordinates": [ 26.536881, 41.837127 ] } },
{ "type": "Feature", "properties": { "candidate_id": "501", "mound_probability": 0.95, "vote_count": 4, "source_tile": "K-35-078-1_Lesovo_x336_y3360.png" }, "geometry": { "type": "Point", "coordinates": [ 26.53621, 41.831752 ] } },
{ "type": "Feature", "properties": { "candidate_id": "510", "mound_probability": 1.0, "vote_count": 5, "source_tile": "K-35-062-2_Rakovski_x2352_y1680.png" }, "geometry": { "type": "Point", "coordinates": [ 24.904593, 42.257992 ] } },
{ "type": "Feature", "properties": { "candidate_id": "534", "mound_probability": 0.1, "vote_count": 4, "source_tile": "K-35-078-1_Lesovo_x672_y1680.png" }, "geometry": { "type": "Point", "coordinates": [ 26.552048, 41.913593 ] } },
{ "type": "Feature", "properties": { "candidate_id": "578", "mound_probability": 1.0, "vote_count": 4, "source_tile": "K-35-053-3_Elenovo_x1344_y2688.png" }, "geometry": { "type": "Point", "coordinates": [ 26.099206, 42.377745 ] } },
{ "type": "Feature", "properties": { "candidate_id": "594", "mound_probability": 1.0, "vote_count": 4, "source_tile": "K-35-052-4_32635_x0_y1680.png" }, "geometry": { "type": "Point", "coordinates": [ 25.765804, 42.420811 ] } },
{ "type": "Feature", "properties": { "candidate_id": "615", "mound_probability": 1.0, "vote_count": 4, "source_tile": "K-35-052-4_32635_x336_y2352.png" }, "geometry": { "type": "Point", "coordinates": [ 25.785682, 42.385003 ] } },
{ "type": "Feature", "properties": { "candidate_id": "655", "mound_probability": 1.0, "vote_count": 4, "source_tile": "K-35-062-2_Rakovski_x2016_y2016.png" }, "geometry": { "type": "Point", "coordinates": [ 24.870524, 42.23977 ] } },
{ "type": "Feature", "properties": { "candidate_id": "674", "mound_probability": 1.0, "vote_count": 4, "source_tile": "K-35-062-2_Rakovski_x4032_y3024.png" }, "geometry": { "type": "Point", "coordinates": [ 24.997236, 42.187713 ] } }
]
}
