{"type": "FeatureCollection", "features": [{"type": "Feature", "geometry": {"type": "Polygon", "coordinates": [[[323986.634399, 4679339.950969], [323986.634399, 4679404.192114], [323924.962901, 4679404.192114], [323924.962901, 4679339.950969], [323986.634399, 4679339.950969]]]}, "properties": {"source_tile": "K-35-062-2_Rakovski_x1792_y1792.png", "label": "mound", "subtype": "burial_mound", "reasoning": "Visual match to Reference Image 1A/1B. Small brown sunburst/star shape located to the left of the vertical orange road.", "confidence": "high", "method": "visual_v3"}}, {"type": "Feature", "geometry": {"type": "Polygon", "coordinates": [[[324372.081265, 4678556.209009], [324372.081265, 4678620.450154], [324302.700829, 4678620.450154], [324302.700829, 4678556.209009], [324372.081265, 4678556.209009]]]}, "properties": {"source_tile": "K-35-062-2_Rakovski_x1792_y1792.png", "label": "mound", "subtype": "burial_mound", "reasoning": "Visual match to Reference Image 1A/1B. Small brown sunburst/star shape located to the right of the vertical orange road, near a diagonal line.", "confidence": "high", "method": "visual_v3"}}, {"type": "Feature", "geometry": {"type": "Polygon", "coordinates": [[[323480.414183, 4678319.801599], [323480.414183, 4678422.587429], [323377.628352, 4678422.587429], [323377.628352, 4678319.801599], [323480.414183, 4678319.801599]]]}, "properties": {"source_tile": "K-35-062-2_Rakovski_x1792_y1792.png", "label": "mound", "subtype": "benchmark_mound", "reasoning": "Visual match to Reference Image 3B/3C. Black square with radiating spikes (benchmark on mound) situated between the numbers '2' and '169.2'.", "confidence": "high", "method": "visual_v3"}}, {"type": "Feature", "geometry": {"type": "Polygon", "coordinates": [[[326995.689596, 4680707.002519], [326995.689596, 4680809.78835], [326892.903765, 4680809.78835], [326892.903765, 4680707.002519], [326995.689596, 4680707.002519]]]}, "properties": {"source_tile": "K-35-062-2_Rakovski_x2240_y1344.png", "label": "mound", "subtype": "triangulation_mound", "reasoning": "Visual match to Reference Image 3A. Distinct black triangle with radiating spikes (triangulation point) located next to elevation '176.9' and text '\u043a\u0443\u0440\u0433.'.", "confidence": "high", "method": "visual_v3"}}, {"type": "Feature", "geometry": {"type": "Polygon", "coordinates": [[[327185.843383, 4680509.139795], [327185.843383, 4680593.938105], [327098.475427, 4680593.938105], [327098.475427, 4680509.139795], [327185.843383, 4680509.139795]]]}, "properties": {"source_tile": "K-35-062-2_Rakovski_x2240_y1344.png", "label": "mound", "subtype": "burial_mound", "reasoning": "Visual match to Reference Image 1B. Small brown sunburst/gear symbol located near the blue vertical line and number '6'.", "confidence": "high", "method": "visual_v3"}}, {"type": "Feature", "geometry": {"type": "Polygon", "coordinates": [[[327483.922293, 4680372.948569], [327483.922293, 4680457.746879], [327391.415045, 4680457.746879], [327391.415045, 4680372.948569], [327483.922293, 4680372.948569]]]}, "properties": {"source_tile": "K-35-062-2_Rakovski_x2240_y1344.png", "label": "mound", "subtype": "burial_mound", "reasoning": "Visual match to Reference Image 1B. Small brown sunburst/gear symbol located to the right of the number '3.0'.", "confidence": "high", "method": "visual_v3"}}, {"type": "Feature", "geometry": {"type": "Polygon", "coordinates": [[[315745.780414, 4677392.159476], [315745.780414, 4677489.806015], [315650.703521, 4677489.806015], [315650.703521, 4677392.159476], [315745.780414, 4677392.159476]]]}, "properties": {"source_tile": "K-35-062-2_Rakovski_x0_y2240.png", "label": "mound", "subtype": "benchmark_mound", "reasoning": "Visual match to Reference Image 3B/3C. Black square symbol with radiating spikes indicating a benchmark on a mound.", "confidence": "high", "method": "visual_v3"}}, {"type": "Feature", "geometry": {"type": "Polygon", "coordinates": [[[315249.83878, 4677510.363181], [315249.83878, 4677577.173971], [315183.02799, 4677577.173971], [315183.02799, 4677510.363181], [315249.83878, 4677510.363181]]]}, "properties": {"source_tile": "K-35-062-2_Rakovski_x0_y2240.png", "label": "mound", "subtype": "burial_mound", "reasoning": "Visual match to Reference Image 1A. Small orange sunburst symbol.", "confidence": "high", "method": "visual_v3"}}, {"type": "Feature", "geometry": {"type": "Polygon", "coordinates": [[[315583.892731, 4677325.348686], [315583.892731, 4677392.159476], [315517.081941, 4677392.159476], [315517.081941, 4677325.348686], [315583.892731, 4677325.348686]]]}, "properties": {"source_tile": "K-35-062-2_Rakovski_x0_y2240.png", "label": "mound", "subtype": "burial_mound", "reasoning": "Visual match to Reference Image 1A. Small orange sunburst symbol.", "confidence": "high", "method": "visual_v3"}}, {"type": "Feature", "geometry": {"type": "Polygon", "coordinates": [[[315265.256655, 4677253.398604], [315265.256655, 4677320.209394], [315198.445865, 4677320.209394], [315198.445865, 4677253.398604], [315265.256655, 4677253.398604]]]}, "properties": {"source_tile": "K-35-062-2_Rakovski_x0_y2240.png", "label": "mound", "subtype": "burial_mound", "reasoning": "Visual match to Reference Image 1A. Small orange sunburst symbol inside contour loop.", "confidence": "high", "method": "visual_v3"}}, {"type": "Feature", "geometry": {"type": "Polygon", "coordinates": [[[315794.603684, 4676996.434027], [315794.603684, 4677063.244817], [315727.792894, 4677063.244817], [315727.792894, 4676996.434027], [315794.603684, 4676996.434027]]]}, "properties": {"source_tile": "K-35-062-2_Rakovski_x0_y2240.png", "label": "mound", "subtype": "burial_mound", "reasoning": "Visual match to Reference Image 1A. Small orange sunburst symbol labeled '4'.", "confidence": "high", "method": "visual_v3"}}, {"type": "Feature", "geometry": {"type": "Polygon", "coordinates": [[[316323.950712, 4676919.344654], [316323.950712, 4676986.155444], [316257.139922, 4676986.155444], [316257.139922, 4676919.344654], [316323.950712, 4676919.344654]]]}, "properties": {"source_tile": "K-35-062-2_Rakovski_x0_y2240.png", "label": "mound", "subtype": "burial_mound", "reasoning": "Visual match to Reference Image 1A. Small orange sunburst symbol labeled '7'.", "confidence": "high", "method": "visual_v3"}}, {"type": "Feature", "geometry": {"type": "Polygon", "coordinates": [[[316282.83638, 4676713.772992], [316282.83638, 4676780.583782], [316216.02559, 4676780.583782], [316216.02559, 4676713.772992], [316282.83638, 4676713.772992]]]}, "properties": {"source_tile": "K-35-062-2_Rakovski_x0_y2240.png", "label": "mound", "subtype": "burial_mound", "reasoning": "Visual match to Reference Image 1A. Small orange sunburst symbol labeled '8'.", "confidence": "high", "method": "visual_v3"}}, {"type": "Feature", "geometry": {"type": "Polygon", "coordinates": [[[315861.414474, 4676662.380077], [315861.414474, 4676729.190867], [315794.603684, 4676729.190867], [315794.603684, 4676662.380077], [315861.414474, 4676662.380077]]]}, "properties": {"source_tile": "K-35-062-2_Rakovski_x0_y2240.png", "label": "mound", "subtype": "burial_mound", "reasoning": "Visual match to Reference Image 1A. Small orange sunburst symbol labeled '3'.", "confidence": "high", "method": "visual_v3"}}, {"type": "Feature", "geometry": {"type": "Polygon", "coordinates": [[[314391.577093, 4676174.14738], [314391.577093, 4676240.95817], [314324.766303, 4676240.95817], [314324.766303, 4676174.14738], [314391.577093, 4676174.14738]]]}, "properties": {"source_tile": "K-35-062-2_Rakovski_x0_y2240.png", "label": "mound", "subtype": "burial_mound", "reasoning": "Visual match to Reference Image 1A. Small orange sunburst symbol labeled '1'.", "confidence": "high", "method": "visual_v3"}}, {"type": "Feature", "geometry": {"type": "Polygon", "coordinates": [[[314216.841181, 4675860.650596], [314216.841181, 4675958.297136], [314139.751808, 4675958.297136], [314139.751808, 4675860.650596], [314216.841181, 4675860.650596]]]}, "properties": {"source_tile": "K-35-062-2_Rakovski_x0_y2240.png", "label": "mound", "subtype": "benchmark_mound", "reasoning": "Visual match to Reference Image 3B/3C. Black square symbol with radiating spikes near elevation 174.3.", "confidence": "high", "method": "visual_v3"}}, {"type": "Feature", "geometry": {"type": "Polygon", "coordinates": [[[334427.105164, 4670654.548266], [334427.105164, 4670757.334097], [334332.02827, 4670757.334097], [334332.02827, 4670654.548266], [334427.105164, 4670654.548266]]]}, "properties": {"source_tile": "K-35-062-2_Rakovski_x3584_y3584.png", "label": "mound", "subtype": "benchmark_mound", "reasoning": "Visual match to Reference Image 3B/3C (Benchmark on Mound). Distinct black square shape with radiating spikes located between elevation number '146.4' and mound height '3'.", "confidence": "high", "method": "visual_v3"}}, {"type": "Feature", "geometry": {"type": "Polygon", "coordinates": [[[404335.869207, 4702868.85271], [404335.869207, 4702953.505201], [404251.216716, 4702953.505201], [404251.216716, 4702868.85271], [404335.869207, 4702868.85271]]]}, "properties": {"source_tile": "K-35-052-4_32635_x1344_y448.png", "label": "mound", "subtype": "burial_mound", "reasoning": "Visual match to Reference Image 1 (Burial Mound). Distinct orange sunburst/gear shape with radiating spikes located near the green patch.", "confidence": "high", "method": "visual_v3"}}, {"type": "Feature", "geometry": {"type": "Polygon", "coordinates": [[[405726.222233, 4702440.459803], [405726.222233, 4702517.416613], [405649.265423, 4702517.416613], [405649.265423, 4702440.459803], [405726.222233, 4702440.459803]]]}, "properties": {"source_tile": "K-35-052-4_32635_x1344_y448.png", "label": "mound", "subtype": "benchmark_mound", "reasoning": "Visual match to Reference Image 3B/3C (Benchmark on Mound). Black square symbol with central dot and radiating spikes, located near elevation 169.5.", "confidence": "high", "method": "visual_v3"}}, {"type": "Feature", "geometry": {"type": "Polygon", "coordinates": [[[404181.955588, 4701817.109646], [404181.955588, 4701901.762136], [404097.303097, 4701901.762136], [404097.303097, 4701817.109646], [404181.955588, 4701817.109646]]]}, "properties": {"source_tile": "K-35-052-4_32635_x1344_y448.png", "label": "mound", "subtype": "burial_mound", "reasoning": "Visual match to Reference Image 1 (Burial Mound). Orange sunburst/gear shape with radiating spikes located below the text '\u0443\u0440\u0433. \u041c\u043e\u0433\u0438\u043b\u0430\u0442\u0430'.", "confidence": "high", "method": "visual_v3"}}, {"type": "Feature", "geometry": {"type": "Polygon", "coordinates": [[[403160.995247, 4687941.79688], [403160.995247, 4688049.536413], [403040.429579, 4688049.536413], [403040.429579, 4687941.79688], [403160.995247, 4687941.79688]]]}, "properties": {"source_tile": "K-35-052-4_32635_x896_y3584.png", "label": "mound", "subtype": "benchmark_mound", "reasoning": "Visual match to Reference Example 3B/3C. A black square symbol with radiating spikes (benchmark) is visible near the top edge, positioned above the elevation number '133.0'.", "confidence": "high", "method": "visual_v3"}}, {"type": "Feature", "geometry": {"type": "Polygon", "coordinates": [[[412867.814162, 4699031.273139], [412867.814162, 4699123.621311], [412775.46599, 4699123.621311], [412775.46599, 4699031.273139], [412867.814162, 4699031.273139]]]}, "properties": {"source_tile": "K-35-052-4_32635_x3136_y1344.png", "label": "mound", "subtype": "burial_mound", "reasoning": "Visual match to Reference Image 1 (Burial Mound). Distinct orange sunburst/gear shape located near the top left corner.", "confidence": "high", "method": "visual_v3"}}, {"type": "Feature", "geometry": {"type": "Polygon", "coordinates": [[[414242.775826, 4699182.621531], [414242.775826, 4699259.578341], [414170.94947, 4699259.578341], [414170.94947, 4699182.621531], [414242.775826, 4699182.621531]]]}, "properties": {"source_tile": "K-35-052-4_32635_x3136_y1344.png", "label": "mound", "subtype": "burial_mound", "reasoning": "Visual match to Reference Image 1 (Burial Mound). Distinct orange sunburst/gear shape located near the top edge.", "confidence": "high", "method": "visual_v3"}}, {"type": "Feature", "geometry": {"type": "Polygon", "coordinates": [[[409963.977214, 4700683.279318], [409963.977214, 4700773.062263], [409876.759496, 4700773.062263], [409876.759496, 4700683.279318], [409963.977214, 4700683.279318]]]}, "properties": {"source_tile": "K-35-052-4_32635_x2240_y896.png", "label": "mound", "subtype": "burial_mound", "reasoning": "Visual match to Reference Image 1 (Burial Mound). Distinct orange sunburst/gear shape with radiating spikes located near the vertical grid line.", "confidence": "high", "method": "visual_v3"}}, {"type": "Feature", "geometry": {"type": "Polygon", "coordinates": [[[406785.660978, 4690837.938147], [406785.660978, 4690927.721091], [406695.878034, 4690927.721091], [406695.878034, 4690837.938147], [406785.660978, 4690837.938147]]]}, "properties": {"source_tile": "K-35-052-4_32635_x1792_y2688.png", "label": "mound", "subtype": "triangulation_mound", "reasoning": "Visual match to Reference Image 3A. Black triangle with central dot and radiating spikes, located next to elevation 129.5.", "confidence": "high", "method": "visual_v3"}}, {"type": "Feature", "geometry": {"type": "Polygon", "coordinates": [[[408119.579011, 4690684.024527], [408119.579011, 4690773.807472], [408029.796066, 4690773.807472], [408029.796066, 4690684.024527], [408119.579011, 4690684.024527]]]}, "properties": {"source_tile": "K-35-052-4_32635_x1792_y2688.png", "label": "mound", "subtype": "burial_mound", "reasoning": "Visual match to Reference Image 1. Brown circular 'sunburst' shape with radiating spikes, labeled with number '1'.", "confidence": "high", "method": "visual_v3"}}, {"type": "Feature", "geometry": {"type": "Polygon", "coordinates": [[[406008.397201, 4692294.987075], [406008.397201, 4692397.596154], [405905.788122, 4692397.596154], [405905.788122, 4692294.987075], [406008.397201, 4692294.987075]]]}, "properties": {"source_tile": "K-35-052-4_32635_x1792_y2688.png", "label": "mound", "subtype": "burial_mound", "reasoning": "Visual match to Reference Image 1/2. Brown irregular shape with spiked edges, labeled with number '3'.", "confidence": "high", "method": "visual_v3"}}, {"type": "Feature", "geometry": {"type": "Polygon", "coordinates": [[[424373.017521, 4696524.823557], [424373.017521, 4696588.951555], [424308.889523, 4696588.951555], [424308.889523, 4696524.823557], [424373.017521, 4696524.823557]]]}, "properties": {"source_tile": "K-35-053-3_Elenovo_x1344_y1792.png", "label": "mound", "subtype": "burial_mound", "reasoning": "Visual match to Reference Image 1 (Burial Mound). Sunburst shape visible.", "confidence": "high", "method": "visual_v3"}}, {"type": "Feature", "geometry": {"type": "Polygon", "coordinates": [[[424891.171741, 4695929.715739], [424891.171741, 4695991.278617], [424829.608864, 4695991.278617], [424829.608864, 4695929.715739], [424891.171741, 4695929.715739]]]}, "properties": {"source_tile": "K-35-053-3_Elenovo_x1344_y1792.png", "label": "mound", "subtype": "burial_mound", "reasoning": "Visual match to Reference Image 1 (Burial Mound). Sunburst shape visible.", "confidence": "high", "method": "visual_v3"}}, {"type": "Feature", "geometry": {"type": "Polygon", "coordinates": [[[425847.961466, 4695786.069024], [425847.961466, 4695837.371423], [425796.659068, 4695837.371423], [425796.659068, 4695786.069024], [425847.961466, 4695786.069024]]]}, "properties": {"source_tile": "K-35-053-3_Elenovo_x1344_y1792.png", "label": "mound", "subtype": "burial_mound", "reasoning": "Visual match to Reference Image 1 (Burial Mound). Sunburst shape visible (Cluster Item 1).", "confidence": "high", "method": "visual_v3"}}, {"type": "Feature", "geometry": {"type": "Polygon", "coordinates": [[[425906.959224, 4695786.069024], [425906.959224, 4695837.371423], [425855.656826, 4695837.371423], [425855.656826, 4695786.069024], [425906.959224, 4695786.069024]]]}, "properties": {"source_tile": "K-35-053-3_Elenovo_x1344_y1792.png", "label": "mound", "subtype": "burial_mound", "reasoning": "Visual match to Reference Image 1 (Burial Mound). Sunburst shape visible (Cluster Item 2).", "confidence": "high", "method": "visual_v3"}}, {"type": "Feature", "geometry": {"type": "Polygon", "coordinates": [[[425873.612665, 4695734.766626], [425873.612665, 4695786.069024], [425822.310267, 4695786.069024], [425822.310267, 4695734.766626], [425873.612665, 4695734.766626]]]}, "properties": {"source_tile": "K-35-053-3_Elenovo_x1344_y1792.png", "label": "mound", "subtype": "burial_mound", "reasoning": "Visual match to Reference Image 1 (Burial Mound). Sunburst shape visible (Cluster Item 3).", "confidence": "high", "method": "visual_v3"}}, {"type": "Feature", "geometry": {"type": "Polygon", "coordinates": [[[424573.096873, 4695083.22617], [424573.096873, 4695144.789048], [424506.403756, 4695144.789048], [424506.403756, 4695083.22617], [424573.096873, 4695083.22617]]]}, "properties": {"source_tile": "K-35-053-3_Elenovo_x1344_y1792.png", "label": "mound", "subtype": "burial_mound", "reasoning": "Visual match to Reference Image 1 (Burial Mound). Sunburst shape visible.", "confidence": "high", "method": "visual_v3"}}, {"type": "Feature", "geometry": {"type": "Polygon", "coordinates": [[[425070.730135, 4694826.71418], [425070.730135, 4694888.277058], [425009.167257, 4694888.277058], [425009.167257, 4694826.71418], [425070.730135, 4694826.71418]]]}, "properties": {"source_tile": "K-35-053-3_Elenovo_x1344_y1792.png", "label": "mound", "subtype": "burial_mound", "reasoning": "Visual match to Reference Image 1 (Burial Mound). Sunburst shape visible.", "confidence": "high", "method": "visual_v3"}}, {"type": "Feature", "geometry": {"type": "Polygon", "coordinates": [[[432337.714826, 4702673.415969], [432337.714826, 4702750.369566], [432260.761228, 4702750.369566], [432260.761228, 4702673.415969], [432337.714826, 4702673.415969]]]}, "properties": {"source_tile": "K-35-053-3_Elenovo_x2688_y448.png", "label": "mound", "subtype": "burial_mound", "reasoning": "Visual match to Reference Image 1 (Burial Mound). Distinct brown 'sunburst' or gear shape with radiating spikes. The identification is further supported by the adjacent text label '\u043a\u0443\u0440\u0433.' (abbreviation for Kurgan/Mound).", "confidence": "high", "method": "visual_v3"}}, {"type": "Feature", "geometry": {"type": "Polygon", "coordinates": [[[427130.521418, 4688675.556648], [427130.521418, 4688778.161444], [427015.091023, 4688778.161444], [427015.091023, 4688675.556648], [427130.521418, 4688675.556648]]]}, "properties": {"source_tile": "K-35-053-3_Elenovo_x1792_y3136.png", "label": "mound", "subtype": "burial_mound", "reasoning": "Visual match to Reference Image 1 (Burial Mound). Brown sunburst shape visible below label 167.3.", "confidence": "high", "method": "visual_v3"}}, {"type": "Feature", "geometry": {"type": "Polygon", "coordinates": [[[427964.185388, 4688354.91666], [427964.185388, 4688457.521456], [427861.580591, 4688457.521456], [427861.580591, 4688354.91666], [427964.185388, 4688354.91666]]]}, "properties": {"source_tile": "K-35-053-3_Elenovo_x1792_y3136.png", "label": "mound", "subtype": "burial_mound", "reasoning": "Visual match to Reference Image 1 (Burial Mound). Brown sunburst shape visible to the right of the central grid line.", "confidence": "high", "method": "visual_v3"}}, {"type": "Feature", "geometry": {"type": "Polygon", "coordinates": [[[427002.265423, 4688072.75347], [427002.265423, 4688175.358266], [426899.660627, 4688175.358266], [426899.660627, 4688072.75347], [427002.265423, 4688072.75347]]]}, "properties": {"source_tile": "K-35-053-3_Elenovo_x1792_y3136.png", "label": "mound", "subtype": "burial_mound", "reasoning": "Visual match to Reference Image 1 (Burial Mound). Brown sunburst shape visible near the power line (top symbol of the pair).", "confidence": "high", "method": "visual_v3"}}, {"type": "Feature", "geometry": {"type": "Polygon", "coordinates": [[[427027.916622, 4687995.799873], [427027.916622, 4688098.404669], [426925.311826, 4688098.404669], [426925.311826, 4687995.799873], [427027.916622, 4687995.799873]]]}, "properties": {"source_tile": "K-35-053-3_Elenovo_x1792_y3136.png", "label": "mound", "subtype": "burial_mound", "reasoning": "Visual match to Reference Image 1 (Burial Mound). Brown sunburst shape visible near the power line (bottom symbol of the pair).", "confidence": "high", "method": "visual_v3"}}, {"type": "Feature", "geometry": {"type": "Polygon", "coordinates": [[[426797.055831, 4687918.846276], [426797.055831, 4688021.451072], [426694.451035, 4688021.451072], [426694.451035, 4687918.846276], [426797.055831, 4687918.846276]]]}, "properties": {"source_tile": "K-35-053-3_Elenovo_x1792_y3136.png", "label": "mound", "subtype": "burial_mound", "reasoning": "Visual match to Reference Image 1 (Burial Mound). Brown sunburst shape visible near the left edge of the map.", "confidence": "high", "method": "visual_v3"}}, {"type": "Feature", "geometry": {"type": "Polygon", "coordinates": [[[427951.359788, 4687803.41588], [427951.359788, 4687906.020676], [427848.754992, 4687906.020676], [427848.754992, 4687803.41588], [427951.359788, 4687803.41588]]]}, "properties": {"source_tile": "K-35-053-3_Elenovo_x1792_y3136.png", "label": "mound", "subtype": "burial_mound", "reasoning": "Visual match to Reference Image 1 (Burial Mound). Brown sunburst shape visible in the bottom center area (left symbol of the pair).", "confidence": "high", "method": "visual_v3"}}, {"type": "Feature", "geometry": {"type": "Polygon", "coordinates": [[[428105.266982, 4687790.590281], [428105.266982, 4687893.195077], [428002.662186, 4687893.195077], [428002.662186, 4687790.590281], [428105.266982, 4687790.590281]]]}, "properties": {"source_tile": "K-35-053-3_Elenovo_x1792_y3136.png", "label": "mound", "subtype": "burial_mound", "reasoning": "Visual match to Reference Image 1 (Burial Mound). Brown sunburst shape visible in the bottom center area (right symbol of the pair).", "confidence": "high", "method": "visual_v3"}}, {"type": "Feature", "geometry": {"type": "Polygon", "coordinates": [[[427399.859008, 4687687.985484], [427399.859008, 4687790.590281], [427297.254212, 4687790.590281], [427297.254212, 4687687.985484], [427399.859008, 4687687.985484]]]}, "properties": {"source_tile": "K-35-053-3_Elenovo_x1792_y3136.png", "label": "mound", "subtype": "burial_mound", "reasoning": "Visual match to Reference Image 1 (Burial Mound). Brown sunburst shape visible to the right of the blue circle labeled '21'.", "confidence": "high", "method": "visual_v3"}}, {"type": "Feature", "geometry": {"type": "Polygon", "coordinates": [[[420879.32421, 4689811.904766], [420879.32421, 4689906.814202], [420786.979893, 4689906.814202], [420786.979893, 4689811.904766], [420879.32421, 4689811.904766]]]}, "properties": {"source_tile": "K-35-053-3_Elenovo_x448_y3136.png", "label": "mound", "subtype": "burial_mound", "reasoning": "Visual match to Reference Image 1 (Burial Mound). Distinct brown sunburst/gear shape with radiating spikes located to the left of the vertical grid line.", "confidence": "high", "method": "visual_v3"}}, {"type": "Feature", "geometry": {"type": "Polygon", "coordinates": [[[421128.140841, 4689940.160761], [421128.140841, 4690022.244598], [421025.536045, 4690022.244598], [421025.536045, 4689940.160761], [421128.140841, 4689940.160761]]]}, "properties": {"source_tile": "K-35-053-3_Elenovo_x448_y3136.png", "label": "mound", "subtype": "benchmark_mound", "reasoning": "Visual match to Reference Image 3C (Benchmark on Mound). Black square symbol with radiating spikes, partially cut off by the top edge of the map.", "confidence": "high", "method": "visual_v3"}}, {"type": "Feature", "geometry": {"type": "Polygon", "coordinates": [[[433279.113831, 4693131.169923], [433279.113831, 4693182.472321], [433227.811433, 4693182.472321], [433227.811433, 4693131.169923], [433279.113831, 4693131.169923]]]}, "properties": {"source_tile": "K-35-053-3_Elenovo_x3136_y2240.png", "label": "mound", "subtype": "burial_mound", "reasoning": "Visual match to Reference Image 1 (Burial Mound). Small brown sunburst shape located near the left edge of the map.", "confidence": "high", "method": "visual_v3"}}, {"type": "Feature", "geometry": {"type": "Polygon", "coordinates": [[[433499.714142, 4692400.11075], [433499.714142, 4692451.413148], [433448.411744, 4692451.413148], [433448.411744, 4692400.11075], [433499.714142, 4692400.11075]]]}, "properties": {"source_tile": "K-35-053-3_Elenovo_x3136_y2240.png", "label": "mound", "subtype": "burial_mound", "reasoning": "Visual match to Reference Image 1 (Burial Mound). Brown sunburst shape with radiating spikes, labeled with number '1'.", "confidence": "high", "method": "visual_v3"}}, {"type": "Feature", "geometry": {"type": "Polygon", "coordinates": [[[434684.799539, 4692602.755222], [434684.799539, 4692669.44834], [434618.106421, 4692669.44834], [434618.106421, 4692602.755222], [434684.799539, 4692602.755222]]]}, "properties": {"source_tile": "K-35-053-3_Elenovo_x3136_y2240.png", "label": "mound", "subtype": "benchmark_mound", "reasoning": "Visual match to Reference Image 3B (Benchmark on Mound). Black square with distinct radiating spikes, located near elevation '198.8'.", "confidence": "high", "method": "visual_v3"}}, {"type": "Feature", "geometry": {"type": "Polygon", "coordinates": [[[435613.372944, 4692707.925138], [435613.372944, 4692759.227537], [435562.070546, 4692759.227537], [435562.070546, 4692707.925138], [435613.372944, 4692707.925138]]]}, "properties": {"source_tile": "K-35-053-3_Elenovo_x3136_y2240.png", "label": "mound", "subtype": "burial_mound", "reasoning": "Visual match to Reference Image 1 (Burial Mound). Brown sunburst shape with radiating spikes, labeled with number '1'.", "confidence": "high", "method": "visual_v3"}}, {"type": "Feature", "geometry": {"type": "Polygon", "coordinates": [[[471061.843101, 4648208.851248], [471061.843101, 4648286.13466], [470976.831347, 4648286.13466], [470976.831347, 4648208.851248], [471061.843101, 4648208.851248]]]}, "properties": {"source_tile": "K-35-078-1_Lesovo_x2240_y0.png", "label": "mound", "subtype": "burial_mound", "reasoning": "Visual match to Reference Image 1 (Burial Mound). Brown circular symbol with radiating spikes (sunburst shape) visible near the center of the map.", "confidence": "high", "method": "visual_v3"}}, {"type": "Feature", "geometry": {"type": "Polygon", "coordinates": [[[471878.47116, 4648049.132195], [471878.47116, 4648157.328973], [471767.698269, 4648157.328973], [471767.698269, 4648049.132195], [471878.47116, 4648049.132195]]]}, "properties": {"source_tile": "K-35-078-1_Lesovo_x2240_y0.png", "label": "mound", "subtype": "triangulation_mound", "reasoning": "Visual match to Reference Image 3A (Triangulation Point on Mound). Black triangle with center dot surrounded by a spiked circle/sunburst.", "confidence": "high", "method": "visual_v3"}}], "crs": {"type": "name", "properties": {"name": "urn:ogc:def:crs:EPSG::32635"}}}