{
"type": "FeatureCollection",
"name": "verified_best_20m",
"crs": { "type": "name", "properties": { "name": "urn:ogc:def:crs:OGC:1.3:CRS84" } },
"features": [
{ "type": "Feature", "properties": { "vote_count": 5, "source_tile": "K-35-052-4_32635_x0_y0.png", "mound_probability": 0.98 }, "geometry": { "type": "Point", "coordinates": [ 25.76429820037588, 42.483694100448346 ] } },
{ "type": "Feature", "properties": { "vote_count": 5, "source_tile": "K-35-052-4_32635_x0_y1008.png", "mound_probability": 0.99 }, "geometry": { "type": "Point", "coordinates": [ 25.763043584131406, 42.446548494753046 ] } },
{ "type": "Feature", "properties": { "vote_count": 5, "source_tile": "K-35-052-4_32635_x0_y1344.png", "mound_probability": 0.95 }, "geometry": { "type": "Point", "coordinates": [ 25.750869028788888, 42.424881017895665 ] } },
{ "type": "Feature", "properties": { "vote_count": 5, "source_tile": "K-35-052-4_32635_x0_y1344.png", "mound_probability": 0.95 }, "geometry": { "type": "Point", "coordinates": [ 25.751736378067477, 42.424895665198747 ] } },
{ "type": "Feature", "properties": { "vote_count": 5, "source_tile": "K-35-052-4_32635_x0_y1680.png", "mound_probability": 1.0 }, "geometry": { "type": "Point", "coordinates": [ 25.7657717533571, 42.420815240506649 ] } },
{ "type": "Feature", "properties": { "vote_count": 5, "source_tile": "K-35-052-4_32635_x0_y1680.png", "mound_probability": 1.0 }, "geometry": { "type": "Point", "coordinates": [ 25.764858095153176, 42.420273475977019 ] } },
{ "type": "Feature", "properties": { "vote_count": 5, "source_tile": "K-35-052-4_32635_x0_y2016.png", "mound_probability": 0.99 }, "geometry": { "type": "Point", "coordinates": [ 25.751943322318265, 42.401137250681288 ] } },
{ "type": "Feature", "properties": { "vote_count": 5, "source_tile": "K-35-052-4_32635_x0_y2016.png", "mound_probability": 0.99 }, "geometry": { "type": "Point", "coordinates": [ 25.764869211612492, 42.393640158381288 ] } },
{ "type": "Feature", "properties": { "vote_count": 5, "source_tile": "K-35-052-4_32635_x0_y2016.png", "mound_probability": 0.98 }, "geometry": { "type": "Point", "coordinates": [ 25.764829315512035, 42.392605333743361 ] } },
{ "type": "Feature", "properties": { "vote_count": 5, "source_tile": "K-35-052-4_32635_x0_y2016.png", "mound_probability": 0.95 }, "geometry": { "type": "Point", "coordinates": [ 25.768671952330603, 42.39362865742946 ] } },
{ "type": "Feature", "properties": { "vote_count": 5, "source_tile": "K-35-052-4_32635_x0_y2352.png", "mound_probability": 0.98 }, "geometry": { "type": "Point", "coordinates": [ 25.76712809259201, 42.390610671476686 ] } },
{ "type": "Feature", "properties": { "vote_count": 5, "source_tile": "K-35-052-4_32635_x0_y2352.png", "mound_probability": 0.99 }, "geometry": { "type": "Point", "coordinates": [ 25.766104828908368, 42.39046538061551 ] } },
{ "type": "Feature", "properties": { "vote_count": 5, "source_tile": "K-35-052-4_32635_x0_y2352.png", "mound_probability": 0.98 }, "geometry": { "type": "Point", "coordinates": [ 25.763935705963235, 42.389484719072946 ] } },
{ "type": "Feature", "properties": { "vote_count": 5, "source_tile": "K-35-052-4_32635_x0_y2352.png", "mound_probability": 0.99 }, "geometry": { "type": "Point", "coordinates": [ 25.769064480298063, 42.385773113572789 ] } },
{ "type": "Feature", "properties": { "vote_count": 5, "source_tile": "K-35-052-4_32635_x336_y2352.png", "mound_probability": 0.99 }, "geometry": { "type": "Point", "coordinates": [ 25.76941522359877, 42.384717792766615 ] } },
{ "type": "Feature", "properties": { "vote_count": 5, "source_tile": "K-35-052-4_32635_x336_y2352.png", "mound_probability": 0.98 }, "geometry": { "type": "Point", "coordinates": [ 25.76982378641782, 42.383663091184772 ] } },
{ "type": "Feature", "properties": { "vote_count": 5, "source_tile": "K-35-052-4_32635_x0_y2688.png", "mound_probability": 0.98 }, "geometry": { "type": "Point", "coordinates": [ 25.750702353843412, 42.372596426182959 ] } },
{ "type": "Feature", "properties": { "vote_count": 5, "source_tile": "K-35-052-4_32635_x0_y2688.png", "mound_probability": 1.0 }, "geometry": { "type": "Point", "coordinates": [ 25.751763146462491, 42.365107293510803 ] } },
{ "type": "Feature", "properties": { "vote_count": 5, "source_tile": "K-35-052-4_32635_x0_y2688.png", "mound_probability": 1.0 }, "geometry": { "type": "Point", "coordinates": [ 25.769356239803397, 42.366825714370407 ] } },
{ "type": "Feature", "properties": { "vote_count": 5, "source_tile": "K-35-052-4_32635_x0_y3024.png", "mound_probability": 0.98 }, "geometry": { "type": "Point", "coordinates": [ 25.757083674775476, 42.354890407472816 ] } },
{ "type": "Feature", "properties": { "vote_count": 5, "source_tile": "K-35-052-4_32635_x336_y336.png", "mound_probability": 0.98 }, "geometry": { "type": "Point", "coordinates": [ 25.767925069768012, 42.47100265034382 ] } },
{ "type": "Feature", "properties": { "vote_count": 5, "source_tile": "K-35-052-4_32635_x0_y336.png", "mound_probability": 0.98 }, "geometry": { "type": "Point", "coordinates": [ 25.764316984758093, 42.469893036529498 ] } },
{ "type": "Feature", "properties": { "vote_count": 5, "source_tile": "K-35-052-4_32635_x0_y672.png", "mound_probability": 0.98 }, "geometry": { "type": "Point", "coordinates": [ 25.762264384354221, 42.466841378064416 ] } },
{ "type": "Feature", "properties": { "vote_count": 5, "source_tile": "K-35-052-4_32635_x1008_y336.png", "mound_probability": 0.98 }, "geometry": { "type": "Point", "coordinates": [ 25.826068763156876, 42.481924045063082 ] } },
{ "type": "Feature", "properties": { "vote_count": 5, "source_tile": "K-35-052-4_32635_x1008_y336.png", "mound_probability": 0.98 }, "geometry": { "type": "Point", "coordinates": [ 25.826941538906667, 42.479122940691425 ] } },
{ "type": "Feature", "properties": { "vote_count": 5, "source_tile": "K-35-052-4_32635_x1008_y3360.png", "mound_probability": 0.98 }, "geometry": { "type": "Point", "coordinates": [ 25.824463459624912, 42.338327681412267 ] } },
{ "type": "Feature", "properties": { "vote_count": 5, "source_tile": "K-35-052-4_32635_x1344_y336.png", "mound_probability": 0.98 }, "geometry": { "type": "Point", "coordinates": [ 25.835940061508506, 42.472652487762026 ] } },
{ "type": "Feature", "properties": { "vote_count": 5, "source_tile": "K-35-052-4_32635_x1008_y672.png", "mound_probability": 0.95 }, "geometry": { "type": "Point", "coordinates": [ 25.825990160262165, 42.466471027370311 ] } },
{ "type": "Feature", "properties": { "vote_count": 5, "source_tile": "K-35-052-4_32635_x1344_y672.png", "mound_probability": 0.99 }, "geometry": { "type": "Point", "coordinates": [ 25.834246805493784, 42.463026962619935 ] } },
{ "type": "Feature", "properties": { "vote_count": 5, "source_tile": "K-35-052-4_32635_x1680_y0.png", "mound_probability": 0.98 }, "geometry": { "type": "Point", "coordinates": [ 25.863717017182278, 42.496006330994554 ] } },
{ "type": "Feature", "properties": { "vote_count": 5, "source_tile": "K-35-052-4_32635_x1680_y0.png", "mound_probability": 0.95 }, "geometry": { "type": "Point", "coordinates": [ 25.86382084926365, 42.494862091788576 ] } },
{ "type": "Feature", "properties": { "vote_count": 5, "source_tile": "K-35-052-4_32635_x2016_y0.png", "mound_probability": 0.98 }, "geometry": { "type": "Point", "coordinates": [ 25.870842669998819, 42.49679407346089 ] } },
{ "type": "Feature", "properties": { "vote_count": 5, "source_tile": "K-35-052-4_32635_x2016_y0.png", "mound_probability": 0.98 }, "geometry": { "type": "Point", "coordinates": [ 25.871037805725855, 42.496098612262266 ] } },
{ "type": "Feature", "properties": { "vote_count": 5, "source_tile": "K-35-052-4_32635_x2016_y0.png", "mound_probability": 0.98 }, "geometry": { "type": "Point", "coordinates": [ 25.869594696412786, 42.494586526811894 ] } },
{ "type": "Feature", "properties": { "vote_count": 5, "source_tile": "K-35-052-4_32635_x1680_y0.png", "mound_probability": 1.0 }, "geometry": { "type": "Point", "coordinates": [ 25.864867744223766, 42.485780913452906 ] } },
{ "type": "Feature", "properties": { "vote_count": 5, "source_tile": "K-35-052-4_32635_x2016_y336.png", "mound_probability": 0.99 }, "geometry": { "type": "Point", "coordinates": [ 25.87072535530131, 42.483654077791684 ] } },
{ "type": "Feature", "properties": { "vote_count": 5, "source_tile": "K-35-052-4_32635_x2016_y1008.png", "mound_probability": 0.95 }, "geometry": { "type": "Point", "coordinates": [ 25.873054573163461, 42.451395341662895 ] } },
{ "type": "Feature", "properties": { "vote_count": 5, "source_tile": "K-35-052-4_32635_x2016_y1344.png", "mound_probability": 0.98 }, "geometry": { "type": "Point", "coordinates": [ 25.869362456150125, 42.430892379619834 ] } },
{ "type": "Feature", "properties": { "vote_count": 5, "source_tile": "K-35-052-4_32635_x2016_y336.png", "mound_probability": 0.98 }, "geometry": { "type": "Point", "coordinates": [ 25.885500771769301, 42.481622821672183 ] } },
{ "type": "Feature", "properties": { "vote_count": 5, "source_tile": "K-35-052-4_32635_x2016_y1008.png", "mound_probability": 1.0 }, "geometry": { "type": "Point", "coordinates": [ 25.879950595610733, 42.450262507498977 ] } },
{ "type": "Feature", "properties": { "vote_count": 5, "source_tile": "K-35-052-4_32635_x336_y1008.png", "mound_probability": 0.99 }, "geometry": { "type": "Point", "coordinates": [ 25.77222624915392, 42.446713506668978 ] } },
{ "type": "Feature", "properties": { "vote_count": 5, "source_tile": "K-35-052-4_32635_x336_y1008.png", "mound_probability": 0.95 }, "geometry": { "type": "Point", "coordinates": [ 25.774898840110183, 42.446163566764824 ] } },
{ "type": "Feature", "properties": { "vote_count": 5, "source_tile": "K-35-052-4_32635_x336_y1680.png", "mound_probability": 0.98 }, "geometry": { "type": "Point", "coordinates": [ 25.775190836378151, 42.421456720730092 ] } },
{ "type": "Feature", "properties": { "vote_count": 5, "source_tile": "K-35-052-4_32635_x336_y2016.png", "mound_probability": 0.98 }, "geometry": { "type": "Point", "coordinates": [ 25.772611509612926, 42.405246763823754 ] } },
{ "type": "Feature", "properties": { "vote_count": 5, "source_tile": "K-35-052-4_32635_x336_y336.png", "mound_probability": 0.98 }, "geometry": { "type": "Point", "coordinates": [ 25.780367959969528, 42.477494939928619 ] } },
{ "type": "Feature", "properties": { "vote_count": 5, "source_tile": "K-35-052-4_32635_x336_y2016.png", "mound_probability": 0.99 }, "geometry": { "type": "Point", "coordinates": [ 25.773868003573256, 42.393188382728518 ] } },
{ "type": "Feature", "properties": { "vote_count": 5, "source_tile": "K-35-052-4_32635_x336_y2016.png", "mound_probability": 0.98 }, "geometry": { "type": "Point", "coordinates": [ 25.7760101226561, 42.392746491257881 ] } },
{ "type": "Feature", "properties": { "vote_count": 5, "source_tile": "K-35-052-4_32635_x336_y2352.png", "mound_probability": 0.98 }, "geometry": { "type": "Point", "coordinates": [ 25.772451370981436, 42.38758757183858 ] } },
{ "type": "Feature", "properties": { "vote_count": 5, "source_tile": "K-35-052-4_32635_x336_y2352.png", "mound_probability": 1.0 }, "geometry": { "type": "Point", "coordinates": [ 25.775525066769774, 42.387066862180738 ] } },
{ "type": "Feature", "properties": { "vote_count": 5, "source_tile": "K-35-052-4_32635_x336_y336.png", "mound_probability": 0.98 }, "geometry": { "type": "Point", "coordinates": [ 25.768914792738126, 42.471135003946081 ] } },
{ "type": "Feature", "properties": { "vote_count": 5, "source_tile": "K-35-052-4_32635_x336_y336.png", "mound_probability": 0.99 }, "geometry": { "type": "Point", "coordinates": [ 25.7799811998675, 42.469752455015808 ] } },
{ "type": "Feature", "properties": { "vote_count": 5, "source_tile": "K-35-052-4_32635_x2016_y336.png", "mound_probability": 0.98 }, "geometry": { "type": "Point", "coordinates": [ 25.88579746097621, 42.48165602772432 ] } },
{ "type": "Feature", "properties": { "vote_count": 5, "source_tile": "K-35-052-4_32635_x2352_y3024.png", "mound_probability": 0.95 }, "geometry": { "type": "Point", "coordinates": [ 25.902525628901209, 42.351197742384691 ] } },
{ "type": "Feature", "properties": { "vote_count": 5, "source_tile": "K-35-052-4_32635_x2352_y3024.png", "mound_probability": 0.95 }, "geometry": { "type": "Point", "coordinates": [ 25.906646724969036, 42.352717688538 ] } },
{ "type": "Feature", "properties": { "vote_count": 5, "source_tile": "K-35-052-4_32635_x2352_y1008.png", "mound_probability": 0.98 }, "geometry": { "type": "Point", "coordinates": [ 25.904498602502411, 42.45367051573794 ] } },
{ "type": "Feature", "properties": { "vote_count": 5, "source_tile": "K-35-052-4_32635_x2688_y1008.png", "mound_probability": 0.98 }, "geometry": { "type": "Point", "coordinates": [ 25.918291848174608, 42.439636700516509 ] } },
{ "type": "Feature", "properties": { "vote_count": 5, "source_tile": "K-35-052-4_32635_x2688_y1680.png", "mound_probability": 1.0 }, "geometry": { "type": "Point", "coordinates": [ 25.921088711101451, 42.414150172969329 ] } },
{ "type": "Feature", "properties": { "vote_count": 5, "source_tile": "K-35-052-4_32635_x2688_y672.png", "mound_probability": 0.99 }, "geometry": { "type": "Point", "coordinates": [ 25.915924251438195, 42.468954945219359 ] } },
{ "type": "Feature", "properties": { "vote_count": 5, "source_tile": "K-35-052-4_32635_x2688_y1344.png", "mound_probability": 0.99 }, "geometry": { "type": "Point", "coordinates": [ 25.926822271618992, 42.424871959307318 ] } },
{ "type": "Feature", "properties": { "vote_count": 5, "source_tile": "K-35-052-4_32635_x3024_y2016.png", "mound_probability": 0.98 }, "geometry": { "type": "Point", "coordinates": [ 25.944149711310548, 42.408130806710908 ] } },
{ "type": "Feature", "properties": { "vote_count": 5, "source_tile": "K-35-052-4_32635_x3024_y2352.png", "mound_probability": 0.98 }, "geometry": { "type": "Point", "coordinates": [ 25.939952819821841, 42.381922784217231 ] } },
{ "type": "Feature", "properties": { "vote_count": 5, "source_tile": "K-35-052-4_32635_x3024_y3024.png", "mound_probability": 0.98 }, "geometry": { "type": "Point", "coordinates": [ 25.94610571915107, 42.357291111141606 ] } },
{ "type": "Feature", "properties": { "vote_count": 5, "source_tile": "K-35-052-4_32635_x3024_y3024.png", "mound_probability": 0.98 }, "geometry": { "type": "Point", "coordinates": [ 25.945863387790673, 42.354130540456623 ] } },
{ "type": "Feature", "properties": { "vote_count": 5, "source_tile": "K-35-052-4_32635_x3024_y3024.png", "mound_probability": 1.0 }, "geometry": { "type": "Point", "coordinates": [ 25.946257105026582, 42.351760934592477 ] } },
{ "type": "Feature", "properties": { "vote_count": 5, "source_tile": "K-35-052-4_32635_x3024_y3024.png", "mound_probability": 0.98 }, "geometry": { "type": "Point", "coordinates": [ 25.946175605166452, 42.350824973117177 ] } },
{ "type": "Feature", "properties": { "vote_count": 5, "source_tile": "K-35-052-4_32635_x3024_y2352.png", "mound_probability": 0.98 }, "geometry": { "type": "Point", "coordinates": [ 25.948779733762944, 42.394471033429717 ] } },
{ "type": "Feature", "properties": { "vote_count": 5, "source_tile": "K-35-052-4_32635_x3024_y3360.png", "mound_probability": 0.95 }, "geometry": { "type": "Point", "coordinates": [ 25.946513188851252, 42.346323113495465 ] } },
{ "type": "Feature", "properties": { "vote_count": 5, "source_tile": "K-35-052-4_32635_x3360_y2016.png", "mound_probability": 0.99 }, "geometry": { "type": "Point", "coordinates": [ 25.9674539769461, 42.399636754922859 ] } },
{ "type": "Feature", "properties": { "vote_count": 5, "source_tile": "K-35-052-4_32635_x3360_y2688.png", "mound_probability": 0.98 }, "geometry": { "type": "Point", "coordinates": [ 25.95914330617715, 42.370767401758172 ] } },
{ "type": "Feature", "properties": { "vote_count": 5, "source_tile": "K-35-052-4_32635_x3360_y3696.png", "mound_probability": 0.98 }, "geometry": { "type": "Point", "coordinates": [ 25.959204908056581, 42.33369559687717 ] } },
{ "type": "Feature", "properties": { "vote_count": 5, "source_tile": "K-35-052-4_32635_x3360_y2352.png", "mound_probability": 0.98 }, "geometry": { "type": "Point", "coordinates": [ 25.970229150306054, 42.38509533916254 ] } },
{ "type": "Feature", "properties": { "vote_count": 5, "source_tile": "K-35-052-4_32635_x3696_y1344.png", "mound_probability": 1.0 }, "geometry": { "type": "Point", "coordinates": [ 25.972449527114343, 42.433363382104901 ] } },
{ "type": "Feature", "properties": { "vote_count": 5, "source_tile": "K-35-052-4_32635_x3696_y1344.png", "mound_probability": 0.98 }, "geometry": { "type": "Point", "coordinates": [ 25.984354165615599, 42.426930011392813 ] } },
{ "type": "Feature", "properties": { "vote_count": 5, "source_tile": "K-35-052-4_32635_x3696_y2016.png", "mound_probability": 0.98 }, "geometry": { "type": "Point", "coordinates": [ 25.987070242023311, 42.397119064238204 ] } },
{ "type": "Feature", "properties": { "vote_count": 5, "source_tile": "K-35-052-4_32635_x3696_y2352.png", "mound_probability": 0.99 }, "geometry": { "type": "Point", "coordinates": [ 25.989339648273305, 42.384666343531606 ] } },
{ "type": "Feature", "properties": { "vote_count": 5, "source_tile": "K-35-052-4_32635_x3696_y2688.png", "mound_probability": 0.98 }, "geometry": { "type": "Point", "coordinates": [ 25.984842640160409, 42.376016103469915 ] } },
{ "type": "Feature", "properties": { "vote_count": 5, "source_tile": "K-35-052-4_32635_x336_y1344.png", "mound_probability": 1.0 }, "geometry": { "type": "Point", "coordinates": [ 25.78644275782133, 42.437373077038345 ] } },
{ "type": "Feature", "properties": { "vote_count": 5, "source_tile": "K-35-052-4_32635_x336_y1680.png", "mound_probability": 0.99 }, "geometry": { "type": "Point", "coordinates": [ 25.786273020491922, 42.413682104829448 ] } },
{ "type": "Feature", "properties": { "vote_count": 5, "source_tile": "K-35-052-4_32635_x672_y1680.png", "mound_probability": 0.99 }, "geometry": { "type": "Point", "coordinates": [ 25.788248999010531, 42.413764520455707 ] } },
{ "type": "Feature", "properties": { "vote_count": 5, "source_tile": "K-35-052-4_32635_x672_y1680.png", "mound_probability": 1.0 }, "geometry": { "type": "Point", "coordinates": [ 25.793206342286386, 42.410671193660924 ] } },
{ "type": "Feature", "properties": { "vote_count": 5, "source_tile": "K-35-052-4_32635_x336_y336.png", "mound_probability": 0.98 }, "geometry": { "type": "Point", "coordinates": [ 25.779401027807083, 42.474879056475842 ] } },
{ "type": "Feature", "properties": { "vote_count": 5, "source_tile": "K-35-052-4_32635_x336_y2352.png", "mound_probability": 1.0 }, "geometry": { "type": "Point", "coordinates": [ 25.785757150646621, 42.384904622294542 ] } },
{ "type": "Feature", "properties": { "vote_count": 5, "source_tile": "K-35-052-4_32635_x672_y1008.png", "mound_probability": 0.99 }, "geometry": { "type": "Point", "coordinates": [ 25.800450406903508, 42.440386329473426 ] } },
{ "type": "Feature", "properties": { "vote_count": 5, "source_tile": "K-35-052-4_32635_x672_y1344.png", "mound_probability": 0.99 }, "geometry": { "type": "Point", "coordinates": [ 25.799471203016942, 42.432924408371868 ] } },
{ "type": "Feature", "properties": { "vote_count": 5, "source_tile": "K-35-052-4_32635_x672_y1680.png", "mound_probability": 1.0 }, "geometry": { "type": "Point", "coordinates": [ 25.795430086260421, 42.422786312128942 ] } },
{ "type": "Feature", "properties": { "vote_count": 5, "source_tile": "K-35-052-4_32635_x672_y1680.png", "mound_probability": 0.98 }, "geometry": { "type": "Point", "coordinates": [ 25.79366768666209, 42.409565420450853 ] } },
{ "type": "Feature", "properties": { "vote_count": 5, "source_tile": "K-35-052-4_32635_x672_y2352.png", "mound_probability": 0.98 }, "geometry": { "type": "Point", "coordinates": [ 25.79821874619789, 42.388161660531928 ] } },
{ "type": "Feature", "properties": { "vote_count": 5, "source_tile": "K-35-052-4_32635_x672_y2352.png", "mound_probability": 0.99 }, "geometry": { "type": "Point", "coordinates": [ 25.800588463366729, 42.387673056191602 ] } },
{ "type": "Feature", "properties": { "vote_count": 5, "source_tile": "K-35-052-4_32635_x672_y2352.png", "mound_probability": 0.99 }, "geometry": { "type": "Point", "coordinates": [ 25.794547787529321, 42.386494850412433 ] } },
{ "type": "Feature", "properties": { "vote_count": 5, "source_tile": "K-35-052-4_32635_x672_y2352.png", "mound_probability": 0.98 }, "geometry": { "type": "Point", "coordinates": [ 25.800609348857805, 42.387438334509881 ] } },
{ "type": "Feature", "properties": { "vote_count": 5, "source_tile": "K-35-052-4_32635_x672_y2352.png", "mound_probability": 0.98 }, "geometry": { "type": "Point", "coordinates": [ 25.802774060112263, 42.385336579508568 ] } },
{ "type": "Feature", "properties": { "vote_count": 5, "source_tile": "K-35-052-4_32635_x336_y3360.png", "mound_probability": 0.95 }, "geometry": { "type": "Point", "coordinates": [ 25.789189753174071, 42.341214394325249 ] } },
{ "type": "Feature", "properties": { "vote_count": 5, "source_tile": "K-35-052-4_32635_x672_y1008.png", "mound_probability": 0.98 }, "geometry": { "type": "Point", "coordinates": [ 25.803655974660103, 42.448836286725204 ] } },
{ "type": "Feature", "properties": { "vote_count": 5, "source_tile": "K-35-052-4_32635_x672_y1008.png", "mound_probability": 0.98 }, "geometry": { "type": "Point", "coordinates": [ 25.805758192255823, 42.4389356580336 ] } },
{ "type": "Feature", "properties": { "vote_count": 5, "source_tile": "K-35-053-3_Elenovo_x0_y1344.png", "mound_probability": 0.98 }, "geometry": { "type": "Point", "coordinates": [ 26.014717516227837, 42.428869796854691 ] } },
{ "type": "Feature", "properties": { "vote_count": 5, "source_tile": "K-35-053-3_Elenovo_x0_y1680.png", "mound_probability": 0.98 }, "geometry": { "type": "Point", "coordinates": [ 26.01049782169671, 42.417699638792634 ] } },
{ "type": "Feature", "properties": { "vote_count": 5, "source_tile": "K-35-053-3_Elenovo_x0_y1680.png", "mound_probability": 0.98 }, "geometry": { "type": "Point", "coordinates": [ 26.0074510594253, 42.41521302159267 ] } },
{ "type": "Feature", "properties": { "vote_count": 5, "source_tile": "K-35-053-3_Elenovo_x0_y1680.png", "mound_probability": 0.98 }, "geometry": { "type": "Point", "coordinates": [ 26.004429620374815, 42.413764363719764 ] } },
{ "type": "Feature", "properties": { "vote_count": 5, "source_tile": "K-35-053-3_Elenovo_x0_y1680.png", "mound_probability": 0.98 }, "geometry": { "type": "Point", "coordinates": [ 26.003803598284058, 42.412839786211386 ] } },
{ "type": "Feature", "properties": { "vote_count": 5, "source_tile": "K-35-053-3_Elenovo_x0_y1680.png", "mound_probability": 0.98 }, "geometry": { "type": "Point", "coordinates": [ 26.004872418929619, 42.413116755110075 ] } },
{ "type": "Feature", "properties": { "vote_count": 5, "source_tile": "K-35-053-3_Elenovo_x0_y1680.png", "mound_probability": 0.98 }, "geometry": { "type": "Point", "coordinates": [ 26.005470883563934, 42.410385323422808 ] } },
{ "type": "Feature", "properties": { "vote_count": 5, "source_tile": "K-35-053-3_Elenovo_x0_y2016.png", "mound_probability": 0.95 }, "geometry": { "type": "Point", "coordinates": [ 26.003005225733361, 42.396372356458663 ] } },
{ "type": "Feature", "properties": { "vote_count": 5, "source_tile": "K-35-053-3_Elenovo_x1008_y0.png", "mound_probability": 0.98 }, "geometry": { "type": "Point", "coordinates": [ 26.077369425314359, 42.497541100263739 ] } },
{ "type": "Feature", "properties": { "vote_count": 5, "source_tile": "K-35-053-3_Elenovo_x1008_y0.png", "mound_probability": 0.98 }, "geometry": { "type": "Point", "coordinates": [ 26.07101622200744, 42.492567548873815 ] } },
{ "type": "Feature", "properties": { "vote_count": 5, "source_tile": "K-35-053-3_Elenovo_x1008_y336.png", "mound_probability": 0.98 }, "geometry": { "type": "Point", "coordinates": [ 26.076638486420954, 42.48392544425419 ] } },
{ "type": "Feature", "properties": { "vote_count": 5, "source_tile": "K-35-053-3_Elenovo_x1008_y2016.png", "mound_probability": 0.95 }, "geometry": { "type": "Point", "coordinates": [ 26.075338028066664, 42.405637277389133 ] } },
{ "type": "Feature", "properties": { "vote_count": 5, "source_tile": "K-35-053-3_Elenovo_x1344_y2016.png", "mound_probability": 0.99 }, "geometry": { "type": "Point", "coordinates": [ 26.083056146985591, 42.404496420329764 ] } },
{ "type": "Feature", "properties": { "vote_count": 5, "source_tile": "K-35-053-3_Elenovo_x1344_y2016.png", "mound_probability": 0.98 }, "geometry": { "type": "Point", "coordinates": [ 26.089252885455839, 42.402209847692056 ] } },
{ "type": "Feature", "properties": { "vote_count": 5, "source_tile": "K-35-053-3_Elenovo_x1008_y2016.png", "mound_probability": 0.98 }, "geometry": { "type": "Point", "coordinates": [ 26.075087457359288, 42.397429680796137 ] } },
{ "type": "Feature", "properties": { "vote_count": 5, "source_tile": "K-35-053-3_Elenovo_x1008_y3360.png", "mound_probability": 0.98 }, "geometry": { "type": "Point", "coordinates": [ 26.075515629286784, 42.346938966998735 ] } },
{ "type": "Feature", "properties": { "vote_count": 5, "source_tile": "K-35-053-3_Elenovo_x1008_y3360.png", "mound_probability": 0.99 }, "geometry": { "type": "Point", "coordinates": [ 26.080156415036818, 42.346874069221869 ] } },
{ "type": "Feature", "properties": { "vote_count": 5, "source_tile": "K-35-053-3_Elenovo_x1344_y0.png", "mound_probability": 0.98 }, "geometry": { "type": "Point", "coordinates": [ 26.090962698291008, 42.494162070283359 ] } },
{ "type": "Feature", "properties": { "vote_count": 5, "source_tile": "K-35-053-3_Elenovo_x1344_y0.png", "mound_probability": 0.98 }, "geometry": { "type": "Point", "coordinates": [ 26.094315033671162, 42.492959354230571 ] } },
{ "type": "Feature", "properties": { "vote_count": 5, "source_tile": "K-35-053-3_Elenovo_x1344_y0.png", "mound_probability": 0.99 }, "geometry": { "type": "Point", "coordinates": [ 26.097651535963003, 42.49036559392674 ] } },
{ "type": "Feature", "properties": { "vote_count": 5, "source_tile": "K-35-053-3_Elenovo_x1344_y2016.png", "mound_probability": 0.95 }, "geometry": { "type": "Point", "coordinates": [ 26.098978801036953, 42.407821484522955 ] } },
{ "type": "Feature", "properties": { "vote_count": 5, "source_tile": "K-35-053-3_Elenovo_x1344_y2016.png", "mound_probability": 0.98 }, "geometry": { "type": "Point", "coordinates": [ 26.096666654099185, 42.396001703240955 ] } },
{ "type": "Feature", "properties": { "vote_count": 5, "source_tile": "K-35-053-3_Elenovo_x1344_y2352.png", "mound_probability": 0.98 }, "geometry": { "type": "Point", "coordinates": [ 26.100134121728594, 42.388163836848001 ] } },
{ "type": "Feature", "properties": { "vote_count": 5, "source_tile": "K-35-053-3_Elenovo_x1344_y2688.png", "mound_probability": 0.98 }, "geometry": { "type": "Point", "coordinates": [ 26.099125259061342, 42.377668228593031 ] } },
{ "type": "Feature", "properties": { "vote_count": 5, "source_tile": "K-35-053-3_Elenovo_x1344_y2688.png", "mound_probability": 0.98 }, "geometry": { "type": "Point", "coordinates": [ 26.09938968126886, 42.37655734846529 ] } },
{ "type": "Feature", "properties": { "vote_count": 5, "source_tile": "K-35-053-3_Elenovo_x1344_y2688.png", "mound_probability": 0.98 }, "geometry": { "type": "Point", "coordinates": [ 26.099585123453167, 42.375389952985138 ] } },
{ "type": "Feature", "properties": { "vote_count": 5, "source_tile": "K-35-053-3_Elenovo_x1344_y672.png", "mound_probability": 0.98 }, "geometry": { "type": "Point", "coordinates": [ 26.090506369435143, 42.466675503218937 ] } },
{ "type": "Feature", "properties": { "vote_count": 5, "source_tile": "K-35-053-3_Elenovo_x1344_y672.png", "mound_probability": 0.98 }, "geometry": { "type": "Point", "coordinates": [ 26.091128665314773, 42.465879122572645 ] } },
{ "type": "Feature", "properties": { "vote_count": 5, "source_tile": "K-35-053-3_Elenovo_x1344_y672.png", "mound_probability": 0.98 }, "geometry": { "type": "Point", "coordinates": [ 26.091172273725004, 42.465580887468185 ] } },
{ "type": "Feature", "properties": { "vote_count": 5, "source_tile": "K-35-053-3_Elenovo_x1680_y0.png", "mound_probability": 0.98 }, "geometry": { "type": "Point", "coordinates": [ 26.112652991436331, 42.492296297467028 ] } },
{ "type": "Feature", "properties": { "vote_count": 5, "source_tile": "K-35-053-3_Elenovo_x1680_y1680.png", "mound_probability": 0.98 }, "geometry": { "type": "Point", "coordinates": [ 26.109145511742518, 42.413670775173209 ] } },
{ "type": "Feature", "properties": { "vote_count": 5, "source_tile": "K-35-053-3_Elenovo_x1680_y3360.png", "mound_probability": 0.98 }, "geometry": { "type": "Point", "coordinates": [ 26.11452273878842, 42.347356879632322 ] } },
{ "type": "Feature", "properties": { "vote_count": 5, "source_tile": "K-35-053-3_Elenovo_x1680_y3360.png", "mound_probability": 1.0 }, "geometry": { "type": "Point", "coordinates": [ 26.113359048441207, 42.34194992556089 ] } },
{ "type": "Feature", "properties": { "vote_count": 5, "source_tile": "K-35-053-3_Elenovo_x1680_y3360.png", "mound_probability": 0.98 }, "geometry": { "type": "Point", "coordinates": [ 26.114319529565492, 42.341991135042477 ] } },
{ "type": "Feature", "properties": { "vote_count": 5, "source_tile": "K-35-053-3_Elenovo_x1680_y3360.png", "mound_probability": 0.98 }, "geometry": { "type": "Point", "coordinates": [ 26.113538502169163, 42.341311978023775 ] } },
{ "type": "Feature", "properties": { "vote_count": 5, "source_tile": "K-35-053-3_Elenovo_x1680_y3360.png", "mound_probability": 0.98 }, "geometry": { "type": "Point", "coordinates": [ 26.111192279312839, 42.340485693311599 ] } },
{ "type": "Feature", "properties": { "vote_count": 5, "source_tile": "K-35-053-3_Elenovo_x1680_y672.png", "mound_probability": 1.0 }, "geometry": { "type": "Point", "coordinates": [ 26.107684214165943, 42.465103940394954 ] } },
{ "type": "Feature", "properties": { "vote_count": 5, "source_tile": "K-35-053-3_Elenovo_x1680_y672.png", "mound_probability": 0.98 }, "geometry": { "type": "Point", "coordinates": [ 26.103290554409856, 42.457982965454306 ] } },
{ "type": "Feature", "properties": { "vote_count": 5, "source_tile": "K-35-053-3_Elenovo_x2016_y0.png", "mound_probability": 0.98 }, "geometry": { "type": "Point", "coordinates": [ 26.120887861608821, 42.49621819735421 ] } },
{ "type": "Feature", "properties": { "vote_count": 5, "source_tile": "K-35-053-3_Elenovo_x2016_y0.png", "mound_probability": 0.98 }, "geometry": { "type": "Point", "coordinates": [ 26.122209756205493, 42.491428242544906 ] } },
{ "type": "Feature", "properties": { "vote_count": 5, "source_tile": "K-35-053-3_Elenovo_x1680_y1680.png", "mound_probability": 0.98 }, "geometry": { "type": "Point", "coordinates": [ 26.117569048832475, 42.417016885120596 ] } },
{ "type": "Feature", "properties": { "vote_count": 5, "source_tile": "K-35-053-3_Elenovo_x1680_y336.png", "mound_probability": 0.98 }, "geometry": { "type": "Point", "coordinates": [ 26.118142486014538, 42.480823124910494 ] } },
{ "type": "Feature", "properties": { "vote_count": 5, "source_tile": "K-35-053-3_Elenovo_x1680_y3024.png", "mound_probability": 0.98 }, "geometry": { "type": "Point", "coordinates": [ 26.115174709125967, 42.348916933780011 ] } },
{ "type": "Feature", "properties": { "vote_count": 5, "source_tile": "K-35-053-3_Elenovo_x1680_y3360.png", "mound_probability": 0.98 }, "geometry": { "type": "Point", "coordinates": [ 26.117957856747495, 42.338551928769128 ] } },
{ "type": "Feature", "properties": { "vote_count": 5, "source_tile": "K-35-053-3_Elenovo_x1680_y1680.png", "mound_probability": 0.98 }, "geometry": { "type": "Point", "coordinates": [ 26.117618018777026, 42.415330870948374 ] } },
{ "type": "Feature", "properties": { "vote_count": 5, "source_tile": "K-35-053-3_Elenovo_x2016_y336.png", "mound_probability": 1.0 }, "geometry": { "type": "Point", "coordinates": [ 26.129332750855216, 42.479293634697569 ] } },
{ "type": "Feature", "properties": { "vote_count": 5, "source_tile": "K-35-053-3_Elenovo_x1680_y3360.png", "mound_probability": 0.98 }, "geometry": { "type": "Point", "coordinates": [ 26.115211171309184, 42.347233114652518 ] } },
{ "type": "Feature", "properties": { "vote_count": 5, "source_tile": "K-35-053-3_Elenovo_x336_y1008.png", "mound_probability": 0.98 }, "geometry": { "type": "Point", "coordinates": [ 26.025660867331482, 42.439927650252415 ] } },
{ "type": "Feature", "properties": { "vote_count": 5, "source_tile": "K-35-053-3_Elenovo_x336_y336.png", "mound_probability": 0.99 }, "geometry": { "type": "Point", "coordinates": [ 26.025277766712364, 42.479818846232682 ] } },
{ "type": "Feature", "properties": { "vote_count": 5, "source_tile": "K-35-053-3_Elenovo_x336_y336.png", "mound_probability": 0.98 }, "geometry": { "type": "Point", "coordinates": [ 26.027795522805114, 42.474462329880666 ] } },
{ "type": "Feature", "properties": { "vote_count": 5, "source_tile": "K-35-053-3_Elenovo_x336_y2352.png", "mound_probability": 0.98 }, "geometry": { "type": "Point", "coordinates": [ 26.026278451959225, 42.380476838819035 ] } },
{ "type": "Feature", "properties": { "vote_count": 5, "source_tile": "K-35-053-3_Elenovo_x2352_y0.png", "mound_probability": 0.98 }, "geometry": { "type": "Point", "coordinates": [ 26.145032243778967, 42.498511136904213 ] } },
{ "type": "Feature", "properties": { "vote_count": 5, "source_tile": "K-35-053-3_Elenovo_x2352_y0.png", "mound_probability": 0.99 }, "geometry": { "type": "Point", "coordinates": [ 26.142560878629382, 42.490849434200804 ] } },
{ "type": "Feature", "properties": { "vote_count": 5, "source_tile": "K-35-053-3_Elenovo_x2016_y1680.png", "mound_probability": 0.95 }, "geometry": { "type": "Point", "coordinates": [ 26.139247132575832, 42.408324687966193 ] } },
{ "type": "Feature", "properties": { "vote_count": 5, "source_tile": "K-35-053-3_Elenovo_x2016_y1008.png", "mound_probability": 0.98 }, "geometry": { "type": "Point", "coordinates": [ 26.137264961088189, 42.450614450023664 ] } },
{ "type": "Feature", "properties": { "vote_count": 5, "source_tile": "K-35-053-3_Elenovo_x2352_y0.png", "mound_probability": 0.98 }, "geometry": { "type": "Point", "coordinates": [ 26.155572532366108, 42.497319311996677 ] } },
{ "type": "Feature", "properties": { "vote_count": 5, "source_tile": "K-35-053-3_Elenovo_x2352_y0.png", "mound_probability": 0.98 }, "geometry": { "type": "Point", "coordinates": [ 26.156866225453278, 42.498006272372535 ] } },
{ "type": "Feature", "properties": { "vote_count": 5, "source_tile": "K-35-053-3_Elenovo_x2688_y1680.png", "mound_probability": 0.98 }, "geometry": { "type": "Point", "coordinates": [ 26.166544700994852, 42.410704573932883 ] } },
{ "type": "Feature", "properties": { "vote_count": 5, "source_tile": "K-35-053-3_Elenovo_x2688_y1008.png", "mound_probability": 1.0 }, "geometry": { "type": "Point", "coordinates": [ 26.170241212828202, 42.453431098242497 ] } },
{ "type": "Feature", "properties": { "vote_count": 5, "source_tile": "K-35-053-3_Elenovo_x2688_y1680.png", "mound_probability": 0.98 }, "geometry": { "type": "Point", "coordinates": [ 26.173388265991505, 42.41813195609879 ] } },
{ "type": "Feature", "properties": { "vote_count": 5, "source_tile": "K-35-053-3_Elenovo_x2688_y336.png", "mound_probability": 1.0 }, "geometry": { "type": "Point", "coordinates": [ 26.175851388520453, 42.473657454570805 ] } },
{ "type": "Feature", "properties": { "vote_count": 5, "source_tile": "K-35-053-3_Elenovo_x3024_y1680.png", "mound_probability": 0.99 }, "geometry": { "type": "Point", "coordinates": [ 26.18630969019128, 42.41927782442999 ] } },
{ "type": "Feature", "properties": { "vote_count": 5, "source_tile": "K-35-053-3_Elenovo_x3024_y1680.png", "mound_probability": 0.98 }, "geometry": { "type": "Point", "coordinates": [ 26.194177401016603, 42.41204480085586 ] } },
{ "type": "Feature", "properties": { "vote_count": 5, "source_tile": "K-35-053-3_Elenovo_x3024_y2016.png", "mound_probability": 0.98 }, "geometry": { "type": "Point", "coordinates": [ 26.186282740735177, 42.398390723301226 ] } },
{ "type": "Feature", "properties": { "vote_count": 5, "source_tile": "K-35-053-3_Elenovo_x3024_y2352.png", "mound_probability": 0.98 }, "geometry": { "type": "Point", "coordinates": [ 26.189179239818653, 42.387660875428132 ] } },
{ "type": "Feature", "properties": { "vote_count": 5, "source_tile": "K-35-053-3_Elenovo_x3024_y2352.png", "mound_probability": 0.98 }, "geometry": { "type": "Point", "coordinates": [ 26.191846542251074, 42.381149083865367 ] } },
{ "type": "Feature", "properties": { "vote_count": 5, "source_tile": "K-35-053-3_Elenovo_x3360_y0.png", "mound_probability": 0.99 }, "geometry": { "type": "Point", "coordinates": [ 26.203909567204828, 42.492788086362864 ] } },
{ "type": "Feature", "properties": { "vote_count": 5, "source_tile": "K-35-053-3_Elenovo_x3360_y1680.png", "mound_probability": 0.98 }, "geometry": { "type": "Point", "coordinates": [ 26.204315498250203, 42.423013364593565 ] } },
{ "type": "Feature", "properties": { "vote_count": 5, "source_tile": "K-35-053-3_Elenovo_x3024_y1680.png", "mound_probability": 0.99 }, "geometry": { "type": "Point", "coordinates": [ 26.200230787455972, 42.416413057207798 ] } },
{ "type": "Feature", "properties": { "vote_count": 5, "source_tile": "K-35-053-3_Elenovo_x3024_y1680.png", "mound_probability": 0.98 }, "geometry": { "type": "Point", "coordinates": [ 26.196375053248893, 42.411417001438629 ] } },
{ "type": "Feature", "properties": { "vote_count": 5, "source_tile": "K-35-053-3_Elenovo_x3024_y2016.png", "mound_probability": 0.99 }, "geometry": { "type": "Point", "coordinates": [ 26.196997925044393, 42.407310775451656 ] } },
{ "type": "Feature", "properties": { "vote_count": 5, "source_tile": "K-35-053-3_Elenovo_x3024_y2016.png", "mound_probability": 1.0 }, "geometry": { "type": "Point", "coordinates": [ 26.198615629477906, 42.407322095958513 ] } },
{ "type": "Feature", "properties": { "vote_count": 5, "source_tile": "K-35-053-3_Elenovo_x3024_y2016.png", "mound_probability": 0.99 }, "geometry": { "type": "Point", "coordinates": [ 26.199400169540855, 42.405057005629352 ] } },
{ "type": "Feature", "properties": { "vote_count": 5, "source_tile": "K-35-053-3_Elenovo_x3360_y2016.png", "mound_probability": 0.98 }, "geometry": { "type": "Point", "coordinates": [ 26.205589503888607, 42.401777368843234 ] } },
{ "type": "Feature", "properties": { "vote_count": 5, "source_tile": "K-35-053-3_Elenovo_x3360_y2352.png", "mound_probability": 0.98 }, "geometry": { "type": "Point", "coordinates": [ 26.206322541541489, 42.383306820648336 ] } },
{ "type": "Feature", "properties": { "vote_count": 5, "source_tile": "K-35-053-3_Elenovo_x3360_y672.png", "mound_probability": 0.98 }, "geometry": { "type": "Point", "coordinates": [ 26.202884318580537, 42.468712420903195 ] } },
{ "type": "Feature", "properties": { "vote_count": 5, "source_tile": "K-35-053-3_Elenovo_x3360_y0.png", "mound_probability": 0.98 }, "geometry": { "type": "Point", "coordinates": [ 26.215510382021524, 42.493114975177932 ] } },
{ "type": "Feature", "properties": { "vote_count": 5, "source_tile": "K-35-053-3_Elenovo_x3360_y1680.png", "mound_probability": 0.98 }, "geometry": { "type": "Point", "coordinates": [ 26.212505132700372, 42.417212795468139 ] } },
{ "type": "Feature", "properties": { "vote_count": 5, "source_tile": "K-35-053-3_Elenovo_x3360_y1680.png", "mound_probability": 0.99 }, "geometry": { "type": "Point", "coordinates": [ 26.210116860423291, 42.410880548665226 ] } },
{ "type": "Feature", "properties": { "vote_count": 5, "source_tile": "K-35-053-3_Elenovo_x3360_y2016.png", "mound_probability": 0.99 }, "geometry": { "type": "Point", "coordinates": [ 26.214900984135927, 42.408735969729797 ] } },
{ "type": "Feature", "properties": { "vote_count": 5, "source_tile": "K-35-053-3_Elenovo_x3360_y336.png", "mound_probability": 0.98 }, "geometry": { "type": "Point", "coordinates": [ 26.209686862675468, 42.481583219337253 ] } },
{ "type": "Feature", "properties": { "vote_count": 5, "source_tile": "K-35-053-3_Elenovo_x3360_y336.png", "mound_probability": 0.98 }, "geometry": { "type": "Point", "coordinates": [ 26.216402734383376, 42.481081034549305 ] } },
{ "type": "Feature", "properties": { "vote_count": 5, "source_tile": "K-35-053-3_Elenovo_x3360_y2352.png", "mound_probability": 0.99 }, "geometry": { "type": "Point", "coordinates": [ 26.217562981312621, 42.384118280329574 ] } },
{ "type": "Feature", "properties": { "vote_count": 5, "source_tile": "K-35-053-3_Elenovo_x3360_y0.png", "mound_probability": 0.98 }, "geometry": { "type": "Point", "coordinates": [ 26.221691087132825, 42.489469762871934 ] } },
{ "type": "Feature", "properties": { "vote_count": 5, "source_tile": "K-35-053-3_Elenovo_x3360_y1680.png", "mound_probability": 0.99 }, "geometry": { "type": "Point", "coordinates": [ 26.219644685425568, 42.417228639562801 ] } },
{ "type": "Feature", "properties": { "vote_count": 5, "source_tile": "K-35-053-3_Elenovo_x3696_y2016.png", "mound_probability": 1.0 }, "geometry": { "type": "Point", "coordinates": [ 26.230017350243969, 42.408200471420983 ] } },
{ "type": "Feature", "properties": { "vote_count": 5, "source_tile": "K-35-053-3_Elenovo_x3360_y2016.png", "mound_probability": 0.98 }, "geometry": { "type": "Point", "coordinates": [ 26.221612970927669, 42.400870684974308 ] } },
{ "type": "Feature", "properties": { "vote_count": 5, "source_tile": "K-35-053-3_Elenovo_x3696_y2352.png", "mound_probability": 0.98 }, "geometry": { "type": "Point", "coordinates": [ 26.227353492800937, 42.392540609978433 ] } },
{ "type": "Feature", "properties": { "vote_count": 5, "source_tile": "K-35-053-3_Elenovo_x3696_y2688.png", "mound_probability": 1.0 }, "geometry": { "type": "Point", "coordinates": [ 26.228884645587723, 42.372489013814914 ] } },
{ "type": "Feature", "properties": { "vote_count": 5, "source_tile": "K-35-053-3_Elenovo_x3696_y3024.png", "mound_probability": 0.98 }, "geometry": { "type": "Point", "coordinates": [ 26.227134295909948, 42.363740565865783 ] } },
{ "type": "Feature", "properties": { "vote_count": 5, "source_tile": "K-35-053-3_Elenovo_x3360_y1008.png", "mound_probability": 1.0 }, "geometry": { "type": "Point", "coordinates": [ 26.221519267545045, 42.452956607843433 ] } },
{ "type": "Feature", "properties": { "vote_count": 5, "source_tile": "K-35-053-3_Elenovo_x3360_y336.png", "mound_probability": 0.99 }, "geometry": { "type": "Point", "coordinates": [ 26.221872468054102, 42.480769413755098 ] } },
{ "type": "Feature", "properties": { "vote_count": 5, "source_tile": "K-35-053-3_Elenovo_x3696_y336.png", "mound_probability": 0.99 }, "geometry": { "type": "Point", "coordinates": [ 26.225675916578915, 42.48177682400064 ] } },
{ "type": "Feature", "properties": { "vote_count": 5, "source_tile": "K-35-053-3_Elenovo_x3696_y2352.png", "mound_probability": 0.98 }, "geometry": { "type": "Point", "coordinates": [ 26.231145389809736, 42.390172653661054 ] } },
{ "type": "Feature", "properties": { "vote_count": 5, "source_tile": "K-35-053-3_Elenovo_x3696_y2352.png", "mound_probability": 0.98 }, "geometry": { "type": "Point", "coordinates": [ 26.24176623186905, 42.391890522922971 ] } },
{ "type": "Feature", "properties": { "vote_count": 5, "source_tile": "K-35-053-3_Elenovo_x3696_y2352.png", "mound_probability": 0.95 }, "geometry": { "type": "Point", "coordinates": [ 26.231917729410238, 42.384528522021611 ] } },
{ "type": "Feature", "properties": { "vote_count": 5, "source_tile": "K-35-053-3_Elenovo_x3696_y2352.png", "mound_probability": 0.98 }, "geometry": { "type": "Point", "coordinates": [ 26.236206113036566, 42.38176319805536 ] } },
{ "type": "Feature", "properties": { "vote_count": 5, "source_tile": "K-35-053-3_Elenovo_x3696_y2688.png", "mound_probability": 0.98 }, "geometry": { "type": "Point", "coordinates": [ 26.237585994277751, 42.372709244322408 ] } },
{ "type": "Feature", "properties": { "vote_count": 5, "source_tile": "K-35-053-3_Elenovo_x3696_y2688.png", "mound_probability": 0.98 }, "geometry": { "type": "Point", "coordinates": [ 26.232970297241746, 42.370087768952054 ] } },
{ "type": "Feature", "properties": { "vote_count": 5, "source_tile": "K-35-053-3_Elenovo_x3696_y2688.png", "mound_probability": 0.98 }, "geometry": { "type": "Point", "coordinates": [ 26.233394998208158, 42.368788118339857 ] } },
{ "type": "Feature", "properties": { "vote_count": 5, "source_tile": "K-35-053-3_Elenovo_x3696_y2688.png", "mound_probability": 0.95 }, "geometry": { "type": "Point", "coordinates": [ 26.241291678047837, 42.369040765072214 ] } },
{ "type": "Feature", "properties": { "vote_count": 5, "source_tile": "K-35-053-3_Elenovo_x3696_y2688.png", "mound_probability": 0.95 }, "geometry": { "type": "Point", "coordinates": [ 26.241130011683687, 42.368247554183839 ] } },
{ "type": "Feature", "properties": { "vote_count": 5, "source_tile": "K-35-053-3_Elenovo_x3696_y3024.png", "mound_probability": 0.98 }, "geometry": { "type": "Point", "coordinates": [ 26.242983787592724, 42.362871717813235 ] } },
{ "type": "Feature", "properties": { "vote_count": 5, "source_tile": "K-35-053-3_Elenovo_x3696_y3024.png", "mound_probability": 0.99 }, "geometry": { "type": "Point", "coordinates": [ 26.239624882429446, 42.359086250633283 ] } },
{ "type": "Feature", "properties": { "vote_count": 5, "source_tile": "K-35-053-3_Elenovo_x3696_y3024.png", "mound_probability": 0.98 }, "geometry": { "type": "Point", "coordinates": [ 26.242871509387985, 42.350185625443331 ] } },
{ "type": "Feature", "properties": { "vote_count": 5, "source_tile": "K-35-053-3_Elenovo_x3696_y3024.png", "mound_probability": 0.98 }, "geometry": { "type": "Point", "coordinates": [ 26.243302829094613, 42.350788337784522 ] } },
{ "type": "Feature", "properties": { "vote_count": 5, "source_tile": "K-35-053-3_Elenovo_x3696_y3360.png", "mound_probability": 0.99 }, "geometry": { "type": "Point", "coordinates": [ 26.240460173569915, 42.347145823993962 ] } },
{ "type": "Feature", "properties": { "vote_count": 5, "source_tile": "K-35-053-3_Elenovo_x3696_y3024.png", "mound_probability": 0.98 }, "geometry": { "type": "Point", "coordinates": [ 26.242311459740737, 42.350885657500584 ] } },
{ "type": "Feature", "properties": { "vote_count": 5, "source_tile": "K-35-053-3_Elenovo_x3696_y3024.png", "mound_probability": 0.98 }, "geometry": { "type": "Point", "coordinates": [ 26.243312041434628, 42.35145763518787 ] } },
{ "type": "Feature", "properties": { "vote_count": 5, "source_tile": "K-35-053-3_Elenovo_x3696_y672.png", "mound_probability": 0.98 }, "geometry": { "type": "Point", "coordinates": [ 26.232074529322567, 42.468225181618571 ] } },
{ "type": "Feature", "properties": { "vote_count": 5, "source_tile": "K-35-053-3_Elenovo_x3696_y672.png", "mound_probability": 0.98 }, "geometry": { "type": "Point", "coordinates": [ 26.233874165672866, 42.464960910357718 ] } },
{ "type": "Feature", "properties": { "vote_count": 5, "source_tile": "K-35-053-3_Elenovo_x4032_y1680.png", "mound_probability": 0.95 }, "geometry": { "type": "Point", "coordinates": [ 26.247767848303656, 42.409710902960356 ] } },
{ "type": "Feature", "properties": { "vote_count": 5, "source_tile": "K-35-053-3_Elenovo_x4032_y2016.png", "mound_probability": 0.95 }, "geometry": { "type": "Point", "coordinates": [ 26.248217276625311, 42.405963058195205 ] } },
{ "type": "Feature", "properties": { "vote_count": 5, "source_tile": "K-35-053-3_Elenovo_x4032_y2016.png", "mound_probability": 0.98 }, "geometry": { "type": "Point", "coordinates": [ 26.24736486209467, 42.402398843976819 ] } },
{ "type": "Feature", "properties": { "vote_count": 5, "source_tile": "K-35-053-3_Elenovo_x4032_y2352.png", "mound_probability": 0.98 }, "geometry": { "type": "Point", "coordinates": [ 26.245174523340857, 42.390579557859567 ] } },
{ "type": "Feature", "properties": { "vote_count": 5, "source_tile": "K-35-053-3_Elenovo_x4032_y3024.png", "mound_probability": 0.98 }, "geometry": { "type": "Point", "coordinates": [ 26.245593061768584, 42.358702918329399 ] } },
{ "type": "Feature", "properties": { "vote_count": 5, "source_tile": "K-35-053-3_Elenovo_x4032_y3024.png", "mound_probability": 0.98 }, "geometry": { "type": "Point", "coordinates": [ 26.246499131042476, 42.351790537328348 ] } },
{ "type": "Feature", "properties": { "vote_count": 5, "source_tile": "K-35-053-3_Elenovo_x4032_y3024.png", "mound_probability": 0.95 }, "geometry": { "type": "Point", "coordinates": [ 26.247086746234125, 42.351240392973892 ] } },
{ "type": "Feature", "properties": { "vote_count": 5, "source_tile": "K-35-053-3_Elenovo_x4032_y3024.png", "mound_probability": 0.95 }, "geometry": { "type": "Point", "coordinates": [ 26.248060522598365, 42.351508408774002 ] } },
{ "type": "Feature", "properties": { "vote_count": 5, "source_tile": "K-35-053-3_Elenovo_x672_y0.png", "mound_probability": 0.99 }, "geometry": { "type": "Point", "coordinates": [ 26.041813623988581, 42.496155213174454 ] } },
{ "type": "Feature", "properties": { "vote_count": 5, "source_tile": "K-35-053-3_Elenovo_x336_y0.png", "mound_probability": 0.98 }, "geometry": { "type": "Point", "coordinates": [ 26.03689640998024, 42.484943694458131 ] } },
{ "type": "Feature", "properties": { "vote_count": 5, "source_tile": "K-35-053-3_Elenovo_x336_y1680.png", "mound_probability": 0.99 }, "geometry": { "type": "Point", "coordinates": [ 26.035244128634769, 42.415703846092008 ] } },
{ "type": "Feature", "properties": { "vote_count": 5, "source_tile": "K-35-053-3_Elenovo_x672_y2016.png", "mound_probability": 0.95 }, "geometry": { "type": "Point", "coordinates": [ 26.043250562563724, 42.405542884403772 ] } },
{ "type": "Feature", "properties": { "vote_count": 5, "source_tile": "K-35-053-3_Elenovo_x672_y2016.png", "mound_probability": 1.0 }, "geometry": { "type": "Point", "coordinates": [ 26.04005995328005, 42.403742467435215 ] } },
{ "type": "Feature", "properties": { "vote_count": 5, "source_tile": "K-35-053-3_Elenovo_x672_y2016.png", "mound_probability": 0.98 }, "geometry": { "type": "Point", "coordinates": [ 26.040381305551776, 42.399376854160259 ] } },
{ "type": "Feature", "properties": { "vote_count": 5, "source_tile": "K-35-053-3_Elenovo_x336_y2352.png", "mound_probability": 0.98 }, "geometry": { "type": "Point", "coordinates": [ 26.03414056300441, 42.390247803361341 ] } },
{ "type": "Feature", "properties": { "vote_count": 5, "source_tile": "K-35-053-3_Elenovo_x336_y2352.png", "mound_probability": 0.98 }, "geometry": { "type": "Point", "coordinates": [ 26.039625636046662, 42.389951264966655 ] } },
{ "type": "Feature", "properties": { "vote_count": 5, "source_tile": "K-35-053-3_Elenovo_x672_y2352.png", "mound_probability": 0.98 }, "geometry": { "type": "Point", "coordinates": [ 26.041145582757089, 42.384299256606944 ] } },
{ "type": "Feature", "properties": { "vote_count": 5, "source_tile": "K-35-053-3_Elenovo_x672_y2688.png", "mound_probability": 0.99 }, "geometry": { "type": "Point", "coordinates": [ 26.04052322982934, 42.371490124528165 ] } },
{ "type": "Feature", "properties": { "vote_count": 5, "source_tile": "K-35-053-3_Elenovo_x336_y2688.png", "mound_probability": 0.98 }, "geometry": { "type": "Point", "coordinates": [ 26.036537467945166, 42.365688425388377 ] } },
{ "type": "Feature", "properties": { "vote_count": 5, "source_tile": "K-35-053-3_Elenovo_x672_y3024.png", "mound_probability": 0.98 }, "geometry": { "type": "Point", "coordinates": [ 26.042138684117845, 42.358284287326178 ] } },
{ "type": "Feature", "properties": { "vote_count": 5, "source_tile": "K-35-053-3_Elenovo_x336_y3024.png", "mound_probability": 0.98 }, "geometry": { "type": "Point", "coordinates": [ 26.038661241262378, 42.356991677261853 ] } },
{ "type": "Feature", "properties": { "vote_count": 5, "source_tile": "K-35-053-3_Elenovo_x336_y336.png", "mound_probability": 0.95 }, "geometry": { "type": "Point", "coordinates": [ 26.03399944377421, 42.47133941598269 ] } },
{ "type": "Feature", "properties": { "vote_count": 5, "source_tile": "K-35-053-3_Elenovo_x3696_y3024.png", "mound_probability": 0.98 }, "geometry": { "type": "Point", "coordinates": [ 26.243729669894165, 42.351132100809295 ] } },
{ "type": "Feature", "properties": { "vote_count": 5, "source_tile": "K-35-053-3_Elenovo_x672_y0.png", "mound_probability": 0.98 }, "geometry": { "type": "Point", "coordinates": [ 26.049647837065791, 42.486157278051706 ] } },
{ "type": "Feature", "properties": { "vote_count": 5, "source_tile": "K-35-053-3_Elenovo_x672_y0.png", "mound_probability": 0.98 }, "geometry": { "type": "Point", "coordinates": [ 26.054087899528554, 42.484297547996519 ] } },
{ "type": "Feature", "properties": { "vote_count": 5, "source_tile": "K-35-053-3_Elenovo_x672_y336.png", "mound_probability": 0.98 }, "geometry": { "type": "Point", "coordinates": [ 26.052816236586771, 42.477342608908245 ] } },
{ "type": "Feature", "properties": { "vote_count": 5, "source_tile": "K-35-053-3_Elenovo_x672_y2016.png", "mound_probability": 0.98 }, "geometry": { "type": "Point", "coordinates": [ 26.050709527132405, 42.401005291541672 ] } },
{ "type": "Feature", "properties": { "vote_count": 5, "source_tile": "K-35-053-3_Elenovo_x672_y2352.png", "mound_probability": 0.98 }, "geometry": { "type": "Point", "coordinates": [ 26.044978221123294, 42.392596177641281 ] } },
{ "type": "Feature", "properties": { "vote_count": 5, "source_tile": "K-35-053-3_Elenovo_x672_y2352.png", "mound_probability": 0.98 }, "geometry": { "type": "Point", "coordinates": [ 26.050501381405201, 42.390623147917616 ] } },
{ "type": "Feature", "properties": { "vote_count": 5, "source_tile": "K-35-053-3_Elenovo_x672_y2352.png", "mound_probability": 0.99 }, "geometry": { "type": "Point", "coordinates": [ 26.052035802207172, 42.391012686888693 ] } },
{ "type": "Feature", "properties": { "vote_count": 5, "source_tile": "K-35-053-3_Elenovo_x672_y2352.png", "mound_probability": 0.98 }, "geometry": { "type": "Point", "coordinates": [ 26.047342694013164, 42.388576443530162 ] } },
{ "type": "Feature", "properties": { "vote_count": 5, "source_tile": "K-35-053-3_Elenovo_x672_y2352.png", "mound_probability": 0.98 }, "geometry": { "type": "Point", "coordinates": [ 26.048237635323574, 42.388552112862776 ] } },
{ "type": "Feature", "properties": { "vote_count": 5, "source_tile": "K-35-053-3_Elenovo_x672_y2352.png", "mound_probability": 0.98 }, "geometry": { "type": "Point", "coordinates": [ 26.047356888405851, 42.387721499924822 ] } },
{ "type": "Feature", "properties": { "vote_count": 5, "source_tile": "K-35-053-3_Elenovo_x672_y2352.png", "mound_probability": 0.95 }, "geometry": { "type": "Point", "coordinates": [ 26.045855016687472, 42.387138286560365 ] } },
{ "type": "Feature", "properties": { "vote_count": 5, "source_tile": "K-35-053-3_Elenovo_x672_y2352.png", "mound_probability": 0.98 }, "geometry": { "type": "Point", "coordinates": [ 26.046836730157963, 42.387015786446355 ] } },
{ "type": "Feature", "properties": { "vote_count": 5, "source_tile": "K-35-053-3_Elenovo_x672_y336.png", "mound_probability": 1.0 }, "geometry": { "type": "Point", "coordinates": [ 26.048238529413066, 42.473483061233019 ] } },
{ "type": "Feature", "properties": { "vote_count": 5, "source_tile": "K-35-053-3_Elenovo_x672_y672.png", "mound_probability": 0.98 }, "geometry": { "type": "Point", "coordinates": [ 26.043940321704934, 42.454304772682185 ] } },
{ "type": "Feature", "properties": { "vote_count": 5, "source_tile": "K-35-053-3_Elenovo_x1008_y0.png", "mound_probability": 0.98 }, "geometry": { "type": "Point", "coordinates": [ 26.058947989505914, 42.499038982138487 ] } },
{ "type": "Feature", "properties": { "vote_count": 5, "source_tile": "K-35-053-3_Elenovo_x672_y2688.png", "mound_probability": 0.99 }, "geometry": { "type": "Point", "coordinates": [ 26.058869704632752, 42.372844509430514 ] } },
{ "type": "Feature", "properties": { "vote_count": 5, "source_tile": "K-35-053-3_Elenovo_x1008_y3024.png", "mound_probability": 0.98 }, "geometry": { "type": "Point", "coordinates": [ 26.063208968814763, 42.36040167751019 ] } },
{ "type": "Feature", "properties": { "vote_count": 5, "source_tile": "K-35-053-3_Elenovo_x672_y672.png", "mound_probability": 0.99 }, "geometry": { "type": "Point", "coordinates": [ 26.058309548727092, 42.461061820018521 ] } },
{ "type": "Feature", "properties": { "vote_count": 5, "source_tile": "K-35-053-3_Elenovo_x1008_y3360.png", "mound_probability": 0.98 }, "geometry": { "type": "Point", "coordinates": [ 26.079768231589675, 42.346905606471637 ] } },
{ "type": "Feature", "properties": { "vote_count": 5, "source_tile": "K-35-062-2_Rakovski_x0_y0.png", "mound_probability": 0.98 }, "geometry": { "type": "Point", "coordinates": [ 24.748956716900953, 42.322599681984869 ] } },
{ "type": "Feature", "properties": { "vote_count": 5, "source_tile": "K-35-062-2_Rakovski_x0_y1008.png", "mound_probability": 0.99 }, "geometry": { "type": "Point", "coordinates": [ 24.759762460844023, 42.271802317474389 ] } },
{ "type": "Feature", "properties": { "vote_count": 5, "source_tile": "K-35-062-2_Rakovski_x0_y1344.png", "mound_probability": 0.95 }, "geometry": { "type": "Point", "coordinates": [ 24.765854248253806, 42.26993049024238 ] } },
{ "type": "Feature", "properties": { "vote_count": 5, "source_tile": "K-35-062-2_Rakovski_x0_y1344.png", "mound_probability": 0.98 }, "geometry": { "type": "Point", "coordinates": [ 24.764305698655907, 42.261861493496887 ] } },
{ "type": "Feature", "properties": { "vote_count": 5, "source_tile": "K-35-062-2_Rakovski_x0_y1344.png", "mound_probability": 0.99 }, "geometry": { "type": "Point", "coordinates": [ 24.763416704140447, 42.261232357433499 ] } },
{ "type": "Feature", "properties": { "vote_count": 5, "source_tile": "K-35-062-2_Rakovski_x0_y1344.png", "mound_probability": 0.98 }, "geometry": { "type": "Point", "coordinates": [ 24.751253857258472, 42.258314662522835 ] } },
{ "type": "Feature", "properties": { "vote_count": 5, "source_tile": "K-35-062-2_Rakovski_x0_y2352.png", "mound_probability": 0.95 }, "geometry": { "type": "Point", "coordinates": [ 24.748794139287192, 42.213243365696528 ] } },
{ "type": "Feature", "properties": { "vote_count": 5, "source_tile": "K-35-062-2_Rakovski_x0_y2352.png", "mound_probability": 0.98 }, "geometry": { "type": "Point", "coordinates": [ 24.764906603356188, 42.226660638125693 ] } },
{ "type": "Feature", "properties": { "vote_count": 5, "source_tile": "K-35-062-2_Rakovski_x0_y2352.png", "mound_probability": 0.98 }, "geometry": { "type": "Point", "coordinates": [ 24.767661208985945, 42.223772468168072 ] } },
{ "type": "Feature", "properties": { "vote_count": 5, "source_tile": "K-35-062-2_Rakovski_x0_y2352.png", "mound_probability": 0.98 }, "geometry": { "type": "Point", "coordinates": [ 24.7685709886428, 42.220749409743227 ] } },
{ "type": "Feature", "properties": { "vote_count": 5, "source_tile": "K-35-062-2_Rakovski_x0_y2352.png", "mound_probability": 0.98 }, "geometry": { "type": "Point", "coordinates": [ 24.761185506624479, 42.225833049352993 ] } },
{ "type": "Feature", "properties": { "vote_count": 5, "source_tile": "K-35-062-2_Rakovski_x0_y2352.png", "mound_probability": 0.98 }, "geometry": { "type": "Point", "coordinates": [ 24.750700431075696, 42.215972693573519 ] } },
{ "type": "Feature", "properties": { "vote_count": 5, "source_tile": "K-35-062-2_Rakovski_x0_y336.png", "mound_probability": 0.98 }, "geometry": { "type": "Point", "coordinates": [ 24.760085247234191, 42.301789199928884 ] } },
{ "type": "Feature", "properties": { "vote_count": 5, "source_tile": "K-35-062-2_Rakovski_x0_y672.png", "mound_probability": 0.99 }, "geometry": { "type": "Point", "coordinates": [ 24.761858455341123, 42.289910244959287 ] } },
{ "type": "Feature", "properties": { "vote_count": 5, "source_tile": "K-35-062-2_Rakovski_x0_y1008.png", "mound_probability": 0.98 }, "geometry": { "type": "Point", "coordinates": [ 24.762028311229425, 42.283067849356577 ] } },
{ "type": "Feature", "properties": { "vote_count": 5, "source_tile": "K-35-062-2_Rakovski_x1008_y0.png", "mound_probability": 0.99 }, "geometry": { "type": "Point", "coordinates": [ 24.813843463761945, 42.320793282675538 ] } },
{ "type": "Feature", "properties": { "vote_count": 5, "source_tile": "K-35-062-2_Rakovski_x1344_y336.png", "mound_probability": 1.0 }, "geometry": { "type": "Point", "coordinates": [ 24.829066441659386, 42.318114209031563 ] } },
{ "type": "Feature", "properties": { "vote_count": 5, "source_tile": "K-35-062-2_Rakovski_x1008_y1008.png", "mound_probability": 0.98 }, "geometry": { "type": "Point", "coordinates": [ 24.823688589815113, 42.273855589268649 ] } },
{ "type": "Feature", "properties": { "vote_count": 5, "source_tile": "K-35-062-2_Rakovski_x1008_y1008.png", "mound_probability": 0.99 }, "geometry": { "type": "Point", "coordinates": [ 24.824183843847855, 42.272723404979658 ] } },
{ "type": "Feature", "properties": { "vote_count": 5, "source_tile": "K-35-062-2_Rakovski_x1008_y1344.png", "mound_probability": 0.99 }, "geometry": { "type": "Point", "coordinates": [ 24.825718394702974, 42.271540643909326 ] } },
{ "type": "Feature", "properties": { "vote_count": 5, "source_tile": "K-35-062-2_Rakovski_x1344_y1344.png", "mound_probability": 0.98 }, "geometry": { "type": "Point", "coordinates": [ 24.834523437307041, 42.265869206136713 ] } },
{ "type": "Feature", "properties": { "vote_count": 5, "source_tile": "K-35-062-2_Rakovski_x1008_y1680.png", "mound_probability": 0.98 }, "geometry": { "type": "Point", "coordinates": [ 24.823249118021504, 42.250944338217231 ] } },
{ "type": "Feature", "properties": { "vote_count": 5, "source_tile": "K-35-062-2_Rakovski_x1344_y2016.png", "mound_probability": 0.98 }, "geometry": { "type": "Point", "coordinates": [ 24.831842137040876, 42.241767912353737 ] } },
{ "type": "Feature", "properties": { "vote_count": 5, "source_tile": "K-35-062-2_Rakovski_x1344_y336.png", "mound_probability": 0.98 }, "geometry": { "type": "Point", "coordinates": [ 24.833526673086091, 42.315254332188736 ] } },
{ "type": "Feature", "properties": { "vote_count": 5, "source_tile": "K-35-062-2_Rakovski_x1008_y336.png", "mound_probability": 0.99 }, "geometry": { "type": "Point", "coordinates": [ 24.824664688668708, 42.309054983822513 ] } },
{ "type": "Feature", "properties": { "vote_count": 5, "source_tile": "K-35-062-2_Rakovski_x1008_y336.png", "mound_probability": 0.99 }, "geometry": { "type": "Point", "coordinates": [ 24.823636715248295, 42.307894677701022 ] } },
{ "type": "Feature", "properties": { "vote_count": 5, "source_tile": "K-35-062-2_Rakovski_x1008_y336.png", "mound_probability": 0.98 }, "geometry": { "type": "Point", "coordinates": [ 24.81972176823453, 42.306671103343078 ] } },
{ "type": "Feature", "properties": { "vote_count": 5, "source_tile": "K-35-062-2_Rakovski_x1008_y336.png", "mound_probability": 0.98 }, "geometry": { "type": "Point", "coordinates": [ 24.816207454924751, 42.313375066701468 ] } },
{ "type": "Feature", "properties": { "vote_count": 5, "source_tile": "K-35-062-2_Rakovski_x1344_y336.png", "mound_probability": 0.98 }, "geometry": { "type": "Point", "coordinates": [ 24.833611893701214, 42.312060735683652 ] } },
{ "type": "Feature", "properties": { "vote_count": 5, "source_tile": "K-35-062-2_Rakovski_x1008_y672.png", "mound_probability": 0.98 }, "geometry": { "type": "Point", "coordinates": [ 24.815625567048382, 42.288985825182394 ] } },
{ "type": "Feature", "properties": { "vote_count": 5, "source_tile": "K-35-062-2_Rakovski_x1344_y0.png", "mound_probability": 0.99 }, "geometry": { "type": "Point", "coordinates": [ 24.844497970527701, 42.320419306118069 ] } },
{ "type": "Feature", "properties": { "vote_count": 5, "source_tile": "K-35-062-2_Rakovski_x1344_y0.png", "mound_probability": 0.99 }, "geometry": { "type": "Point", "coordinates": [ 24.846227711866295, 42.327556423856372 ] } },
{ "type": "Feature", "properties": { "vote_count": 5, "source_tile": "K-35-062-2_Rakovski_x1344_y1008.png", "mound_probability": 0.98 }, "geometry": { "type": "Point", "coordinates": [ 24.847132778891499, 42.280761191751793 ] } },
{ "type": "Feature", "properties": { "vote_count": 5, "source_tile": "K-35-062-2_Rakovski_x1680_y1008.png", "mound_probability": 0.98 }, "geometry": { "type": "Point", "coordinates": [ 24.848129464191917, 42.280044448390569 ] } },
{ "type": "Feature", "properties": { "vote_count": 5, "source_tile": "K-35-062-2_Rakovski_x1344_y1344.png", "mound_probability": 0.99 }, "geometry": { "type": "Point", "coordinates": [ 24.84241044769464, 42.271789206375558 ] } },
{ "type": "Feature", "properties": { "vote_count": 5, "source_tile": "K-35-062-2_Rakovski_x1344_y336.png", "mound_probability": 0.99 }, "geometry": { "type": "Point", "coordinates": [ 24.84182239403281, 42.312709398123367 ] } },
{ "type": "Feature", "properties": { "vote_count": 5, "source_tile": "K-35-062-2_Rakovski_x1344_y336.png", "mound_probability": 0.99 }, "geometry": { "type": "Point", "coordinates": [ 24.84115065587682, 42.312197333878444 ] } },
{ "type": "Feature", "properties": { "vote_count": 5, "source_tile": "K-35-062-2_Rakovski_x1344_y336.png", "mound_probability": 0.98 }, "geometry": { "type": "Point", "coordinates": [ 24.84307170419034, 42.305931592332549 ] } },
{ "type": "Feature", "properties": { "vote_count": 5, "source_tile": "K-35-062-2_Rakovski_x1680_y336.png", "mound_probability": 0.98 }, "geometry": { "type": "Point", "coordinates": [ 24.847889153330332, 42.308601386834233 ] } },
{ "type": "Feature", "properties": { "vote_count": 5, "source_tile": "K-35-062-2_Rakovski_x1680_y0.png", "mound_probability": 0.98 }, "geometry": { "type": "Point", "coordinates": [ 24.848517218695612, 42.321425527538175 ] } },
{ "type": "Feature", "properties": { "vote_count": 5, "source_tile": "K-35-062-2_Rakovski_x1680_y0.png", "mound_probability": 0.95 }, "geometry": { "type": "Point", "coordinates": [ 24.849148500226821, 42.326612445454671 ] } },
{ "type": "Feature", "properties": { "vote_count": 5, "source_tile": "K-35-062-2_Rakovski_x1680_y0.png", "mound_probability": 0.99 }, "geometry": { "type": "Point", "coordinates": [ 24.852229020289865, 42.326195530899589 ] } },
{ "type": "Feature", "properties": { "vote_count": 5, "source_tile": "K-35-062-2_Rakovski_x1680_y1008.png", "mound_probability": 0.99 }, "geometry": { "type": "Point", "coordinates": [ 24.859702817036609, 42.280610405611633 ] } },
{ "type": "Feature", "properties": { "vote_count": 5, "source_tile": "K-35-062-2_Rakovski_x1680_y336.png", "mound_probability": 0.98 }, "geometry": { "type": "Point", "coordinates": [ 24.849927381043273, 42.314802102545315 ] } },
{ "type": "Feature", "properties": { "vote_count": 5, "source_tile": "K-35-062-2_Rakovski_x1680_y336.png", "mound_probability": 0.98 }, "geometry": { "type": "Point", "coordinates": [ 24.855990345022043, 42.311294374613823 ] } },
{ "type": "Feature", "properties": { "vote_count": 5, "source_tile": "K-35-062-2_Rakovski_x1680_y2016.png", "mound_probability": 0.99 }, "geometry": { "type": "Point", "coordinates": [ 24.860038420139542, 42.237332552765977 ] } },
{ "type": "Feature", "properties": { "vote_count": 5, "source_tile": "K-35-062-2_Rakovski_x1680_y672.png", "mound_probability": 0.98 }, "geometry": { "type": "Point", "coordinates": [ 24.854767769099627, 42.303349849495937 ] } },
{ "type": "Feature", "properties": { "vote_count": 5, "source_tile": "K-35-062-2_Rakovski_x1680_y672.png", "mound_probability": 0.98 }, "geometry": { "type": "Point", "coordinates": [ 24.855722050554618, 42.300102485734996 ] } },
{ "type": "Feature", "properties": { "vote_count": 5, "source_tile": "K-35-062-2_Rakovski_x2016_y0.png", "mound_probability": 0.99 }, "geometry": { "type": "Point", "coordinates": [ 24.868968432104641, 42.325646701572879 ] } },
{ "type": "Feature", "properties": { "vote_count": 5, "source_tile": "K-35-062-2_Rakovski_x1680_y1680.png", "mound_probability": 0.98 }, "geometry": { "type": "Point", "coordinates": [ 24.866257841584897, 42.246576016639843 ] } },
{ "type": "Feature", "properties": { "vote_count": 5, "source_tile": "K-35-062-2_Rakovski_x2016_y2016.png", "mound_probability": 0.98 }, "geometry": { "type": "Point", "coordinates": [ 24.87112794062141, 42.239711984353583 ] } },
{ "type": "Feature", "properties": { "vote_count": 5, "source_tile": "K-35-062-2_Rakovski_x1680_y672.png", "mound_probability": 0.98 }, "geometry": { "type": "Point", "coordinates": [ 24.866403826497397, 42.302776036294311 ] } },
{ "type": "Feature", "properties": { "vote_count": 5, "source_tile": "K-35-062-2_Rakovski_x2016_y336.png", "mound_probability": 1.0 }, "geometry": { "type": "Point", "coordinates": [ 24.868877680993954, 42.304658310083916 ] } },
{ "type": "Feature", "properties": { "vote_count": 5, "source_tile": "K-35-062-2_Rakovski_x2016_y336.png", "mound_probability": 0.98 }, "geometry": { "type": "Point", "coordinates": [ 24.871027815662067, 42.306454681245306 ] } },
{ "type": "Feature", "properties": { "vote_count": 5, "source_tile": "K-35-062-2_Rakovski_x1680_y672.png", "mound_probability": 0.98 }, "geometry": { "type": "Point", "coordinates": [ 24.865566712058186, 42.299855509170271 ] } },
{ "type": "Feature", "properties": { "vote_count": 5, "source_tile": "K-35-062-2_Rakovski_x1680_y672.png", "mound_probability": 0.98 }, "geometry": { "type": "Point", "coordinates": [ 24.86692503039632, 42.298765677658444 ] } },
{ "type": "Feature", "properties": { "vote_count": 5, "source_tile": "K-35-062-2_Rakovski_x2016_y0.png", "mound_probability": 0.99 }, "geometry": { "type": "Point", "coordinates": [ 24.873148141371836, 42.323266316405572 ] } },
{ "type": "Feature", "properties": { "vote_count": 5, "source_tile": "K-35-062-2_Rakovski_x2016_y0.png", "mound_probability": 0.98 }, "geometry": { "type": "Point", "coordinates": [ 24.872595913817108, 42.32141808410222 ] } },
{ "type": "Feature", "properties": { "vote_count": 5, "source_tile": "K-35-062-2_Rakovski_x2016_y336.png", "mound_probability": 0.98 }, "geometry": { "type": "Point", "coordinates": [ 24.880958638111281, 42.318962675715234 ] } },
{ "type": "Feature", "properties": { "vote_count": 5, "source_tile": "K-35-062-2_Rakovski_x2016_y1008.png", "mound_probability": 1.0 }, "geometry": { "type": "Point", "coordinates": [ 24.875073646602978, 42.27846999797049 ] } },
{ "type": "Feature", "properties": { "vote_count": 5, "source_tile": "K-35-062-2_Rakovski_x2016_y2352.png", "mound_probability": 0.99 }, "geometry": { "type": "Point", "coordinates": [ 24.882946221644357, 42.226679884734395 ] } },
{ "type": "Feature", "properties": { "vote_count": 5, "source_tile": "K-35-062-2_Rakovski_x2016_y2016.png", "mound_probability": 0.95 }, "geometry": { "type": "Point", "coordinates": [ 24.877660877002853, 42.230899643722573 ] } },
{ "type": "Feature", "properties": { "vote_count": 5, "source_tile": "K-35-062-2_Rakovski_x336_y0.png", "mound_probability": 0.99 }, "geometry": { "type": "Point", "coordinates": [ 24.776792404721387, 42.329114245897891 ] } },
{ "type": "Feature", "properties": { "vote_count": 5, "source_tile": "K-35-062-2_Rakovski_x336_y1008.png", "mound_probability": 0.98 }, "geometry": { "type": "Point", "coordinates": [ 24.777986017698566, 42.279732843975765 ] } },
{ "type": "Feature", "properties": { "vote_count": 5, "source_tile": "K-35-062-2_Rakovski_x336_y1008.png", "mound_probability": 0.98 }, "geometry": { "type": "Point", "coordinates": [ 24.771336857375911, 42.278254778101029 ] } },
{ "type": "Feature", "properties": { "vote_count": 5, "source_tile": "K-35-062-2_Rakovski_x336_y1008.png", "mound_probability": 0.98 }, "geometry": { "type": "Point", "coordinates": [ 24.769097417556825, 42.274940361911739 ] } },
{ "type": "Feature", "properties": { "vote_count": 5, "source_tile": "K-35-062-2_Rakovski_x336_y1344.png", "mound_probability": 0.98 }, "geometry": { "type": "Point", "coordinates": [ 24.776153183326855, 42.268396319827161 ] } },
{ "type": "Feature", "properties": { "vote_count": 5, "source_tile": "K-35-062-2_Rakovski_x336_y1344.png", "mound_probability": 0.98 }, "geometry": { "type": "Point", "coordinates": [ 24.779738357706258, 42.268007294192401 ] } },
{ "type": "Feature", "properties": { "vote_count": 5, "source_tile": "K-35-062-2_Rakovski_x336_y1344.png", "mound_probability": 0.98 }, "geometry": { "type": "Point", "coordinates": [ 24.778141506988803, 42.267433730298833 ] } },
{ "type": "Feature", "properties": { "vote_count": 5, "source_tile": "K-35-062-2_Rakovski_x336_y1344.png", "mound_probability": 0.98 }, "geometry": { "type": "Point", "coordinates": [ 24.773486804006616, 42.26669676601194 ] } },
{ "type": "Feature", "properties": { "vote_count": 5, "source_tile": "K-35-062-2_Rakovski_x336_y1344.png", "mound_probability": 0.98 }, "geometry": { "type": "Point", "coordinates": [ 24.777854987874857, 42.263240634740811 ] } },
{ "type": "Feature", "properties": { "vote_count": 5, "source_tile": "K-35-062-2_Rakovski_x336_y1344.png", "mound_probability": 0.98 }, "geometry": { "type": "Point", "coordinates": [ 24.77506025748448, 42.256736395842992 ] } },
{ "type": "Feature", "properties": { "vote_count": 5, "source_tile": "K-35-062-2_Rakovski_x336_y1344.png", "mound_probability": 0.98 }, "geometry": { "type": "Point", "coordinates": [ 24.771097141806191, 42.255828061440241 ] } },
{ "type": "Feature", "properties": { "vote_count": 5, "source_tile": "K-35-062-2_Rakovski_x336_y336.png", "mound_probability": 0.98 }, "geometry": { "type": "Point", "coordinates": [ 24.775025139709637, 42.305922897202457 ] } },
{ "type": "Feature", "properties": { "vote_count": 5, "source_tile": "K-35-062-2_Rakovski_x336_y672.png", "mound_probability": 0.98 }, "geometry": { "type": "Point", "coordinates": [ 24.7707225236773, 42.301877693160286 ] } },
{ "type": "Feature", "properties": { "vote_count": 5, "source_tile": "K-35-062-2_Rakovski_x336_y672.png", "mound_probability": 0.98 }, "geometry": { "type": "Point", "coordinates": [ 24.770368885524828, 42.300663864319816 ] } },
{ "type": "Feature", "properties": { "vote_count": 5, "source_tile": "K-35-062-2_Rakovski_x336_y672.png", "mound_probability": 0.98 }, "geometry": { "type": "Point", "coordinates": [ 24.776666560625003, 42.30042830376243 ] } },
{ "type": "Feature", "properties": { "vote_count": 5, "source_tile": "K-35-062-2_Rakovski_x2352_y2016.png", "mound_probability": 0.98 }, "geometry": { "type": "Point", "coordinates": [ 24.897076434627735, 42.234600042595922 ] } },
{ "type": "Feature", "properties": { "vote_count": 5, "source_tile": "K-35-062-2_Rakovski_x2352_y2352.png", "mound_probability": 0.99 }, "geometry": { "type": "Point", "coordinates": [ 24.891193231601108, 42.227429784460014 ] } },
{ "type": "Feature", "properties": { "vote_count": 5, "source_tile": "K-35-062-2_Rakovski_x2352_y2352.png", "mound_probability": 0.98 }, "geometry": { "type": "Point", "coordinates": [ 24.892529063208578, 42.227585818834093 ] } },
{ "type": "Feature", "properties": { "vote_count": 5, "source_tile": "K-35-062-2_Rakovski_x2352_y2352.png", "mound_probability": 0.99 }, "geometry": { "type": "Point", "coordinates": [ 24.89240442290269, 42.220997747128401 ] } },
{ "type": "Feature", "properties": { "vote_count": 5, "source_tile": "K-35-062-2_Rakovski_x2352_y2688.png", "mound_probability": 0.98 }, "geometry": { "type": "Point", "coordinates": [ 24.898298012383645, 42.203224311781106 ] } },
{ "type": "Feature", "properties": { "vote_count": 5, "source_tile": "K-35-062-2_Rakovski_x2352_y1344.png", "mound_probability": 1.0 }, "geometry": { "type": "Point", "coordinates": [ 24.902597862750152, 42.259809779432167 ] } },
{ "type": "Feature", "properties": { "vote_count": 5, "source_tile": "K-35-062-2_Rakovski_x2352_y1680.png", "mound_probability": 0.98 }, "geometry": { "type": "Point", "coordinates": [ 24.904328456152911, 42.258050717893937 ] } },
{ "type": "Feature", "properties": { "vote_count": 5, "source_tile": "K-35-062-2_Rakovski_x2352_y1680.png", "mound_probability": 0.98 }, "geometry": { "type": "Point", "coordinates": [ 24.907976923893283, 42.256790917112866 ] } },
{ "type": "Feature", "properties": { "vote_count": 5, "source_tile": "K-35-062-2_Rakovski_x2352_y2016.png", "mound_probability": 0.98 }, "geometry": { "type": "Point", "coordinates": [ 24.901923511291528, 42.231572699385062 ] } },
{ "type": "Feature", "properties": { "vote_count": 5, "source_tile": "K-35-062-2_Rakovski_x2352_y2688.png", "mound_probability": 0.98 }, "geometry": { "type": "Point", "coordinates": [ 24.901590661042309, 42.205880643407376 ] } },
{ "type": "Feature", "properties": { "vote_count": 5, "source_tile": "K-35-062-2_Rakovski_x2352_y2688.png", "mound_probability": 0.99 }, "geometry": { "type": "Point", "coordinates": [ 24.907236727128886, 42.202840649053151 ] } },
{ "type": "Feature", "properties": { "vote_count": 5, "source_tile": "K-35-062-2_Rakovski_x2352_y3360.png", "mound_probability": 1.0 }, "geometry": { "type": "Point", "coordinates": [ 24.902964578437764, 42.182823486520441 ] } },
{ "type": "Feature", "properties": { "vote_count": 5, "source_tile": "K-35-062-2_Rakovski_x2352_y3360.png", "mound_probability": 0.98 }, "geometry": { "type": "Point", "coordinates": [ 24.900181967858988, 42.174885307634511 ] } },
{ "type": "Feature", "properties": { "vote_count": 5, "source_tile": "K-35-062-2_Rakovski_x2688_y0.png", "mound_probability": 0.98 }, "geometry": { "type": "Point", "coordinates": [ 24.912035556265014, 42.321850439897609 ] } },
{ "type": "Feature", "properties": { "vote_count": 5, "source_tile": "K-35-062-2_Rakovski_x2688_y1344.png", "mound_probability": 0.98 }, "geometry": { "type": "Point", "coordinates": [ 24.914544454946114, 42.268022347318954 ] } },
{ "type": "Feature", "properties": { "vote_count": 5, "source_tile": "K-35-062-2_Rakovski_x2688_y1344.png", "mound_probability": 0.98 }, "geometry": { "type": "Point", "coordinates": [ 24.915601077400847, 42.267584666202964 ] } },
{ "type": "Feature", "properties": { "vote_count": 5, "source_tile": "K-35-062-2_Rakovski_x2688_y1344.png", "mound_probability": 0.98 }, "geometry": { "type": "Point", "coordinates": [ 24.917915626314297, 42.263627460272112 ] } },
{ "type": "Feature", "properties": { "vote_count": 5, "source_tile": "K-35-062-2_Rakovski_x2688_y336.png", "mound_probability": 0.98 }, "geometry": { "type": "Point", "coordinates": [ 24.917060359791169, 42.31646419678173 ] } },
{ "type": "Feature", "properties": { "vote_count": 5, "source_tile": "K-35-062-2_Rakovski_x2688_y336.png", "mound_probability": 0.99 }, "geometry": { "type": "Point", "coordinates": [ 24.916542022090223, 42.312529737100967 ] } },
{ "type": "Feature", "properties": { "vote_count": 5, "source_tile": "K-35-062-2_Rakovski_x2352_y2016.png", "mound_probability": 0.98 }, "geometry": { "type": "Point", "coordinates": [ 24.901644747543045, 42.23190372791187 ] } },
{ "type": "Feature", "properties": { "vote_count": 5, "source_tile": "K-35-062-2_Rakovski_x2688_y3024.png", "mound_probability": 0.95 }, "geometry": { "type": "Point", "coordinates": [ 24.915087378021418, 42.185096288471442 ] } },
{ "type": "Feature", "properties": { "vote_count": 5, "source_tile": "K-35-062-2_Rakovski_x2688_y0.png", "mound_probability": 0.98 }, "geometry": { "type": "Point", "coordinates": [ 24.928086415516425, 42.331879658534795 ] } },
{ "type": "Feature", "properties": { "vote_count": 5, "source_tile": "K-35-062-2_Rakovski_x2688_y0.png", "mound_probability": 0.98 }, "geometry": { "type": "Point", "coordinates": [ 24.926753561259861, 42.328555336577153 ] } },
{ "type": "Feature", "properties": { "vote_count": 5, "source_tile": "K-35-062-2_Rakovski_x2688_y0.png", "mound_probability": 0.98 }, "geometry": { "type": "Point", "coordinates": [ 24.918737237050355, 42.327147415208572 ] } },
{ "type": "Feature", "properties": { "vote_count": 5, "source_tile": "K-35-062-2_Rakovski_x2688_y336.png", "mound_probability": 1.0 }, "geometry": { "type": "Point", "coordinates": [ 24.928554657780538, 42.31964527462133 ] } },
{ "type": "Feature", "properties": { "vote_count": 5, "source_tile": "K-35-062-2_Rakovski_x3024_y1008.png", "mound_probability": 0.98 }, "geometry": { "type": "Point", "coordinates": [ 24.930902702308771, 42.276381813820478 ] } },
{ "type": "Feature", "properties": { "vote_count": 5, "source_tile": "K-35-062-2_Rakovski_x2688_y1344.png", "mound_probability": 0.98 }, "geometry": { "type": "Point", "coordinates": [ 24.92044112265166, 42.268435797563626 ] } },
{ "type": "Feature", "properties": { "vote_count": 5, "source_tile": "K-35-062-2_Rakovski_x2688_y1344.png", "mound_probability": 0.98 }, "geometry": { "type": "Point", "coordinates": [ 24.928772239531018, 42.261624238601286 ] } },
{ "type": "Feature", "properties": { "vote_count": 5, "source_tile": "K-35-062-2_Rakovski_x3024_y1680.png", "mound_probability": 1.0 }, "geometry": { "type": "Point", "coordinates": [ 24.931311791379553, 42.247805184041923 ] } },
{ "type": "Feature", "properties": { "vote_count": 5, "source_tile": "K-35-062-2_Rakovski_x2688_y336.png", "mound_probability": 0.99 }, "geometry": { "type": "Point", "coordinates": [ 24.921724424745761, 42.317067944150814 ] } },
{ "type": "Feature", "properties": { "vote_count": 5, "source_tile": "K-35-062-2_Rakovski_x2688_y336.png", "mound_probability": 0.98 }, "geometry": { "type": "Point", "coordinates": [ 24.921605552846113, 42.311390404013899 ] } },
{ "type": "Feature", "properties": { "vote_count": 5, "source_tile": "K-35-062-2_Rakovski_x3024_y336.png", "mound_probability": 1.0 }, "geometry": { "type": "Point", "coordinates": [ 24.929684309666118, 42.311697291332862 ] } },
{ "type": "Feature", "properties": { "vote_count": 5, "source_tile": "K-35-062-2_Rakovski_x2688_y2688.png", "mound_probability": 0.98 }, "geometry": { "type": "Point", "coordinates": [ 24.926466905849619, 42.204650534568714 ] } },
{ "type": "Feature", "properties": { "vote_count": 5, "source_tile": "K-35-062-2_Rakovski_x2688_y2688.png", "mound_probability": 0.98 }, "geometry": { "type": "Point", "coordinates": [ 24.931052502123652, 42.200868786691146 ] } },
{ "type": "Feature", "properties": { "vote_count": 5, "source_tile": "K-35-062-2_Rakovski_x2688_y3024.png", "mound_probability": 0.98 }, "geometry": { "type": "Point", "coordinates": [ 24.92737472316173, 42.197590815984512 ] } },
{ "type": "Feature", "properties": { "vote_count": 5, "source_tile": "K-35-062-2_Rakovski_x2688_y3024.png", "mound_probability": 0.98 }, "geometry": { "type": "Point", "coordinates": [ 24.927471552575945, 42.197153370841342 ] } },
{ "type": "Feature", "properties": { "vote_count": 5, "source_tile": "K-35-062-2_Rakovski_x2688_y3360.png", "mound_probability": 0.98 }, "geometry": { "type": "Point", "coordinates": [ 24.926060605612754, 42.174787399013233 ] } },
{ "type": "Feature", "properties": { "vote_count": 5, "source_tile": "K-35-062-2_Rakovski_x3024_y0.png", "mound_probability": 0.98 }, "geometry": { "type": "Point", "coordinates": [ 24.936781445169945, 42.332258661504774 ] } },
{ "type": "Feature", "properties": { "vote_count": 5, "source_tile": "K-35-062-2_Rakovski_x3024_y0.png", "mound_probability": 1.0 }, "geometry": { "type": "Point", "coordinates": [ 24.934350300521874, 42.330281427510528 ] } },
{ "type": "Feature", "properties": { "vote_count": 5, "source_tile": "K-35-062-2_Rakovski_x3024_y0.png", "mound_probability": 0.98 }, "geometry": { "type": "Point", "coordinates": [ 24.937313117945873, 42.326459068798812 ] } },
{ "type": "Feature", "properties": { "vote_count": 5, "source_tile": "K-35-062-2_Rakovski_x3024_y0.png", "mound_probability": 0.98 }, "geometry": { "type": "Point", "coordinates": [ 24.930907475916321, 42.323060891075947 ] } },
{ "type": "Feature", "properties": { "vote_count": 5, "source_tile": "K-35-062-2_Rakovski_x3024_y1680.png", "mound_probability": 0.98 }, "geometry": { "type": "Point", "coordinates": [ 24.943470311990392, 42.249688615990927 ] } },
{ "type": "Feature", "properties": { "vote_count": 5, "source_tile": "K-35-062-2_Rakovski_x3024_y3360.png", "mound_probability": 0.99 }, "geometry": { "type": "Point", "coordinates": [ 24.938709592642336, 42.172919252694975 ] } },
{ "type": "Feature", "properties": { "vote_count": 5, "source_tile": "K-35-062-2_Rakovski_x3024_y3360.png", "mound_probability": 1.0 }, "geometry": { "type": "Point", "coordinates": [ 24.93866325090697, 42.174585203626805 ] } },
{ "type": "Feature", "properties": { "vote_count": 5, "source_tile": "K-35-062-2_Rakovski_x3024_y3360.png", "mound_probability": 0.98 }, "geometry": { "type": "Point", "coordinates": [ 24.942438512796063, 42.171684494708693 ] } },
{ "type": "Feature", "properties": { "vote_count": 5, "source_tile": "K-35-062-2_Rakovski_x3024_y3360.png", "mound_probability": 0.98 }, "geometry": { "type": "Point", "coordinates": [ 24.942840861181576, 42.171508603833914 ] } },
{ "type": "Feature", "properties": { "vote_count": 5, "source_tile": "K-35-062-2_Rakovski_x3024_y672.png", "mound_probability": 0.99 }, "geometry": { "type": "Point", "coordinates": [ 24.937792975480669, 42.29666075551863 ] } },
{ "type": "Feature", "properties": { "vote_count": 5, "source_tile": "K-35-062-2_Rakovski_x3024_y1008.png", "mound_probability": 0.99 }, "geometry": { "type": "Point", "coordinates": [ 24.940224130609181, 42.286339465220642 ] } },
{ "type": "Feature", "properties": { "vote_count": 5, "source_tile": "K-35-062-2_Rakovski_x3024_y2016.png", "mound_probability": 0.98 }, "geometry": { "type": "Point", "coordinates": [ 24.950700972162696, 42.244438027936575 ] } },
{ "type": "Feature", "properties": { "vote_count": 5, "source_tile": "K-35-062-2_Rakovski_x3024_y3024.png", "mound_probability": 0.98 }, "geometry": { "type": "Point", "coordinates": [ 24.949456886506873, 42.187872159437084 ] } },
{ "type": "Feature", "properties": { "vote_count": 5, "source_tile": "K-35-062-2_Rakovski_x3024_y336.png", "mound_probability": 0.98 }, "geometry": { "type": "Point", "coordinates": [ 24.943675380917707, 42.31671377755751 ] } },
{ "type": "Feature", "properties": { "vote_count": 5, "source_tile": "K-35-062-2_Rakovski_x3024_y336.png", "mound_probability": 0.95 }, "geometry": { "type": "Point", "coordinates": [ 24.945657074712308, 42.316859087783897 ] } },
{ "type": "Feature", "properties": { "vote_count": 5, "source_tile": "K-35-062-2_Rakovski_x3024_y336.png", "mound_probability": 0.98 }, "geometry": { "type": "Point", "coordinates": [ 24.945452180225072, 42.316076857047825 ] } },
{ "type": "Feature", "properties": { "vote_count": 5, "source_tile": "K-35-062-2_Rakovski_x3024_y1008.png", "mound_probability": 0.95 }, "geometry": { "type": "Point", "coordinates": [ 24.935360552802361, 42.276319123331014 ] } },
{ "type": "Feature", "properties": { "vote_count": 5, "source_tile": "K-35-062-2_Rakovski_x3360_y1344.png", "mound_probability": 0.98 }, "geometry": { "type": "Point", "coordinates": [ 24.965130717929672, 42.261306875994279 ] } },
{ "type": "Feature", "properties": { "vote_count": 5, "source_tile": "K-35-062-2_Rakovski_x3360_y1680.png", "mound_probability": 0.99 }, "geometry": { "type": "Point", "coordinates": [ 24.955972604997545, 42.249558530538096 ] } },
{ "type": "Feature", "properties": { "vote_count": 5, "source_tile": "K-35-062-2_Rakovski_x3696_y1344.png", "mound_probability": 0.98 }, "geometry": { "type": "Point", "coordinates": [ 24.972288966327778, 42.270426333928341 ] } },
{ "type": "Feature", "properties": { "vote_count": 5, "source_tile": "K-35-062-2_Rakovski_x3360_y1680.png", "mound_probability": 1.0 }, "geometry": { "type": "Point", "coordinates": [ 24.970681743791133, 42.253311676173183 ] } },
{ "type": "Feature", "properties": { "vote_count": 5, "source_tile": "K-35-062-2_Rakovski_x3696_y2352.png", "mound_probability": 0.95 }, "geometry": { "type": "Point", "coordinates": [ 24.976182943676587, 42.222058455838322 ] } },
{ "type": "Feature", "properties": { "vote_count": 5, "source_tile": "K-35-062-2_Rakovski_x3360_y2352.png", "mound_probability": 1.0 }, "geometry": { "type": "Point", "coordinates": [ 24.969700927128013, 42.216188539222287 ] } },
{ "type": "Feature", "properties": { "vote_count": 5, "source_tile": "K-35-062-2_Rakovski_x3360_y2352.png", "mound_probability": 0.99 }, "geometry": { "type": "Point", "coordinates": [ 24.970993467626968, 42.215908986354265 ] } },
{ "type": "Feature", "properties": { "vote_count": 5, "source_tile": "K-35-062-2_Rakovski_x3696_y3360.png", "mound_probability": 1.0 }, "geometry": { "type": "Point", "coordinates": [ 24.975757979523461, 42.179017806370076 ] } },
{ "type": "Feature", "properties": { "vote_count": 5, "source_tile": "K-35-062-2_Rakovski_x3696_y672.png", "mound_probability": 0.98 }, "geometry": { "type": "Point", "coordinates": [ 24.976024643798922, 42.290549880577252 ] } },
{ "type": "Feature", "properties": { "vote_count": 5, "source_tile": "K-35-062-2_Rakovski_x3696_y0.png", "mound_probability": 0.98 }, "geometry": { "type": "Point", "coordinates": [ 24.984276167614897, 42.327809329218361 ] } },
{ "type": "Feature", "properties": { "vote_count": 5, "source_tile": "K-35-062-2_Rakovski_x3696_y1008.png", "mound_probability": 0.98 }, "geometry": { "type": "Point", "coordinates": [ 24.984954442014104, 42.282187541512762 ] } },
{ "type": "Feature", "properties": { "vote_count": 5, "source_tile": "K-35-062-2_Rakovski_x3696_y1344.png", "mound_probability": 0.98 }, "geometry": { "type": "Point", "coordinates": [ 24.983015542096396, 42.274920300101861 ] } },
{ "type": "Feature", "properties": { "vote_count": 5, "source_tile": "K-35-062-2_Rakovski_x3360_y1680.png", "mound_probability": 1.0 }, "geometry": { "type": "Point", "coordinates": [ 24.970734063565672, 42.251607362315355 ] } },
{ "type": "Feature", "properties": { "vote_count": 5, "source_tile": "K-35-062-2_Rakovski_x3696_y1680.png", "mound_probability": 0.98 }, "geometry": { "type": "Point", "coordinates": [ 24.982380718607853, 42.252532759758843 ] } },
{ "type": "Feature", "properties": { "vote_count": 5, "source_tile": "K-35-062-2_Rakovski_x3696_y2016.png", "mound_probability": 0.99 }, "geometry": { "type": "Point", "coordinates": [ 24.983785906497388, 42.242047891800155 ] } },
{ "type": "Feature", "properties": { "vote_count": 5, "source_tile": "K-35-062-2_Rakovski_x3696_y2016.png", "mound_probability": 0.98 }, "geometry": { "type": "Point", "coordinates": [ 24.987002705872847, 42.242035858150167 ] } },
{ "type": "Feature", "properties": { "vote_count": 5, "source_tile": "K-35-062-2_Rakovski_x3696_y336.png", "mound_probability": 0.98 }, "geometry": { "type": "Point", "coordinates": [ 24.978465478815849, 42.31789741157403 ] } },
{ "type": "Feature", "properties": { "vote_count": 5, "source_tile": "K-35-062-2_Rakovski_x3696_y336.png", "mound_probability": 0.98 }, "geometry": { "type": "Point", "coordinates": [ 24.983995612219655, 42.316766004879788 ] } },
{ "type": "Feature", "properties": { "vote_count": 5, "source_tile": "K-35-062-2_Rakovski_x3696_y2016.png", "mound_probability": 0.98 }, "geometry": { "type": "Point", "coordinates": [ 24.987020014668108, 42.241785365293318 ] } },
{ "type": "Feature", "properties": { "vote_count": 5, "source_tile": "K-35-062-2_Rakovski_x3696_y2688.png", "mound_probability": 0.98 }, "geometry": { "type": "Point", "coordinates": [ 24.990642735321046, 42.209161067826997 ] } },
{ "type": "Feature", "properties": { "vote_count": 5, "source_tile": "K-35-062-2_Rakovski_x3696_y1008.png", "mound_probability": 0.99 }, "geometry": { "type": "Point", "coordinates": [ 24.983748053299845, 42.287345811932298 ] } },
{ "type": "Feature", "properties": { "vote_count": 5, "source_tile": "K-35-062-2_Rakovski_x3696_y1008.png", "mound_probability": 0.98 }, "geometry": { "type": "Point", "coordinates": [ 24.990077575834949, 42.276920090471172 ] } },
{ "type": "Feature", "properties": { "vote_count": 5, "source_tile": "K-35-062-2_Rakovski_x4032_y3024.png", "mound_probability": 0.98 }, "geometry": { "type": "Point", "coordinates": [ 24.997285284641858, 42.187601857292151 ] } },
{ "type": "Feature", "properties": { "vote_count": 5, "source_tile": "K-35-062-2_Rakovski_x4032_y3360.png", "mound_probability": 0.98 }, "geometry": { "type": "Point", "coordinates": [ 24.994964586984629, 42.17092480717249 ] } },
{ "type": "Feature", "properties": { "vote_count": 5, "source_tile": "K-35-062-2_Rakovski_x4032_y3360.png", "mound_probability": 0.95 }, "geometry": { "type": "Point", "coordinates": [ 24.997839396063579, 42.17069299206721 ] } },
{ "type": "Feature", "properties": { "vote_count": 5, "source_tile": "K-35-062-2_Rakovski_x4032_y672.png", "mound_probability": 0.98 }, "geometry": { "type": "Point", "coordinates": [ 24.994982469200366, 42.303042234114891 ] } },
{ "type": "Feature", "properties": { "vote_count": 5, "source_tile": "K-35-062-2_Rakovski_x336_y0.png", "mound_probability": 0.95 }, "geometry": { "type": "Point", "coordinates": [ 24.780586069469592, 42.332478416772815 ] } },
{ "type": "Feature", "properties": { "vote_count": 5, "source_tile": "K-35-062-2_Rakovski_x672_y1344.png", "mound_probability": 0.98 }, "geometry": { "type": "Point", "coordinates": [ 24.789140175321634, 42.260467834639876 ] } },
{ "type": "Feature", "properties": { "vote_count": 5, "source_tile": "K-35-062-2_Rakovski_x672_y1680.png", "mound_probability": 1.0 }, "geometry": { "type": "Point", "coordinates": [ 24.791222031264546, 42.250115814276242 ] } },
{ "type": "Feature", "properties": { "vote_count": 5, "source_tile": "K-35-062-2_Rakovski_x672_y672.png", "mound_probability": 0.98 }, "geometry": { "type": "Point", "coordinates": [ 24.790614918961236, 42.291345755649964 ] } },
{ "type": "Feature", "properties": { "vote_count": 5, "source_tile": "K-35-062-2_Rakovski_x672_y1008.png", "mound_probability": 0.98 }, "geometry": { "type": "Point", "coordinates": [ 24.788559095536357, 42.285336714922593 ] } },
{ "type": "Feature", "properties": { "vote_count": 5, "source_tile": "K-35-062-2_Rakovski_x672_y1008.png", "mound_probability": 0.99 }, "geometry": { "type": "Point", "coordinates": [ 24.795465676958333, 42.272581280407373 ] } },
{ "type": "Feature", "properties": { "vote_count": 5, "source_tile": "K-35-062-2_Rakovski_x672_y672.png", "mound_probability": 0.98 }, "geometry": { "type": "Point", "coordinates": [ 24.790973436615324, 42.291326631692222 ] } },
{ "type": "Feature", "properties": { "vote_count": 5, "source_tile": "K-35-062-2_Rakovski_x672_y1008.png", "mound_probability": 0.98 }, "geometry": { "type": "Point", "coordinates": [ 24.798723659981693, 42.284334374303448 ] } },
{ "type": "Feature", "properties": { "vote_count": 5, "source_tile": "K-35-062-2_Rakovski_x1008_y336.png", "mound_probability": 0.99 }, "geometry": { "type": "Point", "coordinates": [ 24.806400169730374, 42.317203343427359 ] } },
{ "type": "Feature", "properties": { "vote_count": 5, "source_tile": "K-35-062-2_Rakovski_x1008_y336.png", "mound_probability": 1.0 }, "geometry": { "type": "Point", "coordinates": [ 24.810815900853566, 42.316193920138929 ] } },
{ "type": "Feature", "properties": { "vote_count": 5, "source_tile": "K-35-062-2_Rakovski_x672_y336.png", "mound_probability": 0.98 }, "geometry": { "type": "Point", "coordinates": [ 24.80592305881067, 42.312561516738185 ] } },
{ "type": "Feature", "properties": { "vote_count": 5, "source_tile": "K-35-062-2_Rakovski_x1008_y336.png", "mound_probability": 0.98 }, "geometry": { "type": "Point", "coordinates": [ 24.810535253713109, 42.311103310295842 ] } },
{ "type": "Feature", "properties": { "vote_count": 5, "source_tile": "K-35-062-2_Rakovski_x1008_y336.png", "mound_probability": 1.0 }, "geometry": { "type": "Point", "coordinates": [ 24.811092651471064, 42.304618976578091 ] } },
{ "type": "Feature", "properties": { "vote_count": 5, "source_tile": "K-35-078-1_Lesovo_x0_y336.png", "mound_probability": 0.95 }, "geometry": { "type": "Point", "coordinates": [ 26.513237412717562, 41.980562868145824 ] } },
{ "type": "Feature", "properties": { "vote_count": 5, "source_tile": "K-35-078-1_Lesovo_x336_y3024.png", "mound_probability": 0.98 }, "geometry": { "type": "Point", "coordinates": [ 26.520516980490505, 41.852918276358473 ] } },
{ "type": "Feature", "properties": { "vote_count": 5, "source_tile": "K-35-078-1_Lesovo_x0_y3360.png", "mound_probability": 0.98 }, "geometry": { "type": "Point", "coordinates": [ 26.506925099882601, 41.842192967434713 ] } },
{ "type": "Feature", "properties": { "vote_count": 5, "source_tile": "K-35-078-1_Lesovo_x0_y3360.png", "mound_probability": 0.98 }, "geometry": { "type": "Point", "coordinates": [ 26.509479999115779, 41.838125732945947 ] } },
{ "type": "Feature", "properties": { "vote_count": 5, "source_tile": "K-35-078-1_Lesovo_x2016_y2016.png", "mound_probability": 0.95 }, "geometry": { "type": "Point", "coordinates": [ 26.631168212339389, 41.900482497983603 ] } },
{ "type": "Feature", "properties": { "vote_count": 5, "source_tile": "K-35-078-1_Lesovo_x336_y3024.png", "mound_probability": 0.98 }, "geometry": { "type": "Point", "coordinates": [ 26.529530444848515, 41.857890454688025 ] } },
{ "type": "Feature", "properties": { "vote_count": 5, "source_tile": "K-35-078-1_Lesovo_x2352_y0.png", "mound_probability": 0.98 }, "geometry": { "type": "Point", "coordinates": [ 26.641830720238836, 41.993956815398889 ] } },
{ "type": "Feature", "properties": { "vote_count": 5, "source_tile": "K-35-078-1_Lesovo_x2352_y0.png", "mound_probability": 0.98 }, "geometry": { "type": "Point", "coordinates": [ 26.650045584998921, 41.985720430385719 ] } },
{ "type": "Feature", "properties": { "vote_count": 5, "source_tile": "K-35-078-1_Lesovo_x2352_y0.png", "mound_probability": 0.98 }, "geometry": { "type": "Point", "coordinates": [ 26.659519820370903, 41.984193936933245 ] } },
{ "type": "Feature", "properties": { "vote_count": 5, "source_tile": "K-35-078-1_Lesovo_x2352_y336.png", "mound_probability": 0.95 }, "geometry": { "type": "Point", "coordinates": [ 26.653472471731725, 41.97572167230075 ] } },
{ "type": "Feature", "properties": { "vote_count": 5, "source_tile": "K-35-078-1_Lesovo_x2352_y336.png", "mound_probability": 0.98 }, "geometry": { "type": "Point", "coordinates": [ 26.659747441614897, 41.975610508714382 ] } },
{ "type": "Feature", "properties": { "vote_count": 5, "source_tile": "K-35-078-1_Lesovo_x2688_y1680.png", "mound_probability": 0.98 }, "geometry": { "type": "Point", "coordinates": [ 26.678378563475935, 41.916280913648514 ] } },
{ "type": "Feature", "properties": { "vote_count": 5, "source_tile": "K-35-078-1_Lesovo_x3696_y0.png", "mound_probability": 0.99 }, "geometry": { "type": "Point", "coordinates": [ 26.727804123124965, 41.995870380031548 ] } },
{ "type": "Feature", "properties": { "vote_count": 5, "source_tile": "K-35-078-1_Lesovo_x4032_y336.png", "mound_probability": 1.0 }, "geometry": { "type": "Point", "coordinates": [ 26.744229984238874, 41.97762813098916 ] } },
{ "type": "Feature", "properties": { "vote_count": 5, "source_tile": "K-35-078-1_Lesovo_x336_y3360.png", "mound_probability": 0.99 }, "geometry": { "type": "Point", "coordinates": [ 26.53907234539901, 41.841621688997051 ] } },
{ "type": "Feature", "properties": { "vote_count": 5, "source_tile": "K-35-078-1_Lesovo_x336_y3360.png", "mound_probability": 0.98 }, "geometry": { "type": "Point", "coordinates": [ 26.536939589345931, 41.837089441028503 ] } },
{ "type": "Feature", "properties": { "vote_count": 5, "source_tile": "K-35-078-1_Lesovo_x672_y0.png", "mound_probability": 0.95 }, "geometry": { "type": "Point", "coordinates": [ 26.545187844619974, 41.983599292019306 ] } },
{ "type": "Feature", "properties": { "vote_count": 5, "source_tile": "K-35-078-1_Lesovo_x672_y0.png", "mound_probability": 0.95 }, "geometry": { "type": "Point", "coordinates": [ 26.545613718869649, 41.983567866993369 ] } }
]
}
