{
"type": "FeatureCollection",
"name": "image-3of5-n1-pt0.15",
"crs": { "type": "name", "properties": { "name": "urn:ogc:def:crs:OGC:1.3:CRS84" } },
"features": [
{ "type": "Feature", "properties": { "source_tile": "K-35-052-4_32635_x0_y0.png" }, "geometry": { "type": "Point", "coordinates": [ 25.764290310491166, 42.483857099006933 ] } },
{ "type": "Feature", "properties": { "source_tile": "K-35-052-4_32635_x0_y1008.png" }, "geometry": { "type": "Point", "coordinates": [ 25.763040203512823, 42.446541960873049 ] } },
{ "type": "Feature", "properties": { "source_tile": "K-35-052-4_32635_x0_y1680.png" }, "geometry": { "type": "Point", "coordinates": [ 25.765796117193002, 42.420795144264083 ] } },
{ "type": "Feature", "properties": { "source_tile": "K-35-052-4_32635_x0_y1680.png" }, "geometry": { "type": "Point", "coordinates": [ 25.764933867235047, 42.420285121523108 ] } },
{ "type": "Feature", "properties": { "source_tile": "K-35-052-4_32635_x0_y2016.png" }, "geometry": { "type": "Point", "coordinates": [ 25.751899842544439, 42.401148905814978 ] } },
{ "type": "Feature", "properties": { "source_tile": "K-35-052-4_32635_x0_y2016.png" }, "geometry": { "type": "Point", "coordinates": [ 25.764892630804294, 42.393667700028772 ] } },
{ "type": "Feature", "properties": { "source_tile": "K-35-052-4_32635_x0_y2016.png" }, "geometry": { "type": "Point", "coordinates": [ 25.764320274618029, 42.392578622462807 ] } },
{ "type": "Feature", "properties": { "source_tile": "K-35-052-4_32635_x0_y2016.png" }, "geometry": { "type": "Point", "coordinates": [ 25.768727277977113, 42.393488906694699 ] } },
{ "type": "Feature", "properties": { "source_tile": "K-35-052-4_32635_x0_y2352.png" }, "geometry": { "type": "Point", "coordinates": [ 25.767778238203935, 42.393430194392572 ] } },
{ "type": "Feature", "properties": { "source_tile": "K-35-052-4_32635_x0_y2352.png" }, "geometry": { "type": "Point", "coordinates": [ 25.766169429143464, 42.390538414332894 ] } },
{ "type": "Feature", "properties": { "source_tile": "K-35-052-4_32635_x0_y2352.png" }, "geometry": { "type": "Point", "coordinates": [ 25.763927097768455, 42.389566061054616 ] } },
{ "type": "Feature", "properties": { "source_tile": "K-35-052-4_32635_x0_y2352.png" }, "geometry": { "type": "Point", "coordinates": [ 25.769138375410076, 42.385848844459318 ] } },
{ "type": "Feature", "properties": { "source_tile": "K-35-052-4_32635_x0_y2352.png" }, "geometry": { "type": "Point", "coordinates": [ 25.769424899360978, 42.384820700966991 ] } },
{ "type": "Feature", "properties": { "source_tile": "K-35-052-4_32635_x0_y2352.png" }, "geometry": { "type": "Point", "coordinates": [ 25.769843133413069, 42.383749498515215 ] } },
{ "type": "Feature", "properties": { "source_tile": "K-35-052-4_32635_x0_y2688.png" }, "geometry": { "type": "Point", "coordinates": [ 25.750646268367372, 42.372655591704493 ] } },
{ "type": "Feature", "properties": { "source_tile": "K-35-052-4_32635_x0_y2688.png" }, "geometry": { "type": "Point", "coordinates": [ 25.769276369298534, 42.36693747998109 ] } },
{ "type": "Feature", "properties": { "source_tile": "K-35-052-4_32635_x0_y2688.png" }, "geometry": { "type": "Point", "coordinates": [ 25.751795069213269, 42.365147059154665 ] } },
{ "type": "Feature", "properties": { "source_tile": "K-35-052-4_32635_x0_y336.png" }, "geometry": { "type": "Point", "coordinates": [ 25.767800926374875, 42.471067588798327 ] } },
{ "type": "Feature", "properties": { "source_tile": "K-35-052-4_32635_x0_y336.png" }, "geometry": { "type": "Point", "coordinates": [ 25.764132086870859, 42.469893641682013 ] } },
{ "type": "Feature", "properties": { "source_tile": "K-35-052-4_32635_x1008_y336.png" }, "geometry": { "type": "Point", "coordinates": [ 25.827022487181232, 42.479112507137977 ] } },
{ "type": "Feature", "properties": { "source_tile": "K-35-052-4_32635_x1008_y3360.png" }, "geometry": { "type": "Point", "coordinates": [ 25.824382658014663, 42.338287723349879 ] } },
{ "type": "Feature", "properties": { "source_tile": "K-35-052-4_32635_x1008_y3360.png" }, "geometry": { "type": "Point", "coordinates": [ 25.826606145128601, 42.336982117829059 ] } },
{ "type": "Feature", "properties": { "source_tile": "K-35-052-4_32635_x1344_y336.png" }, "geometry": { "type": "Point", "coordinates": [ 25.835972865723267, 42.472692527188855 ] } },
{ "type": "Feature", "properties": { "source_tile": "K-35-052-4_32635_x1344_y672.png" }, "geometry": { "type": "Point", "coordinates": [ 25.834358354695091, 42.46302316401755 ] } },
{ "type": "Feature", "properties": { "source_tile": "K-35-052-4_32635_x1680_y0.png" }, "geometry": { "type": "Point", "coordinates": [ 25.863686521289537, 42.494975113509618 ] } },
{ "type": "Feature", "properties": { "source_tile": "K-35-052-4_32635_x1680_y0.png" }, "geometry": { "type": "Point", "coordinates": [ 25.864836213443503, 42.485841676451471 ] } },
{ "type": "Feature", "properties": { "source_tile": "K-35-052-4_32635_x1680_y336.png" }, "geometry": { "type": "Point", "coordinates": [ 25.870698791708442, 42.483666810789309 ] } },
{ "type": "Feature", "properties": { "source_tile": "K-35-052-4_32635_x2016_y0.png" }, "geometry": { "type": "Point", "coordinates": [ 25.870913739278311, 42.496747992694601 ] } },
{ "type": "Feature", "properties": { "source_tile": "K-35-052-4_32635_x2016_y0.png" }, "geometry": { "type": "Point", "coordinates": [ 25.871142226962654, 42.496150753548399 ] } },
{ "type": "Feature", "properties": { "source_tile": "K-35-052-4_32635_x2016_y0.png" }, "geometry": { "type": "Point", "coordinates": [ 25.869674566711502, 42.494701668289828 ] } },
{ "type": "Feature", "properties": { "source_tile": "K-35-052-4_32635_x2016_y0.png" }, "geometry": { "type": "Point", "coordinates": [ 25.870539342352149, 42.493418518227571 ] } },
{ "type": "Feature", "properties": { "source_tile": "K-35-052-4_32635_x2016_y1008.png" }, "geometry": { "type": "Point", "coordinates": [ 25.872917193045264, 42.451402076421729 ] } },
{ "type": "Feature", "properties": { "source_tile": "K-35-052-4_32635_x2016_y1008.png" }, "geometry": { "type": "Point", "coordinates": [ 25.880086991227, 42.450288963698462 ] } },
{ "type": "Feature", "properties": { "source_tile": "K-35-052-4_32635_x2016_y1344.png" }, "geometry": { "type": "Point", "coordinates": [ 25.869662064210122, 42.431009689551765 ] } },
{ "type": "Feature", "properties": { "source_tile": "K-35-052-4_32635_x2016_y3024.png" }, "geometry": { "type": "Point", "coordinates": [ 25.890818012776926, 42.35969558891523 ] } },
{ "type": "Feature", "properties": { "source_tile": "K-35-052-4_32635_x2016_y336.png" }, "geometry": { "type": "Point", "coordinates": [ 25.885704078589711, 42.481707965166095 ] } },
{ "type": "Feature", "properties": { "source_tile": "K-35-052-4_32635_x2352_y1008.png" }, "geometry": { "type": "Point", "coordinates": [ 25.904532247301127, 42.453720217699924 ] } },
{ "type": "Feature", "properties": { "source_tile": "K-35-052-4_32635_x2352_y3024.png" }, "geometry": { "type": "Point", "coordinates": [ 25.902487823191773, 42.351222504256761 ] } },
{ "type": "Feature", "properties": { "source_tile": "K-35-052-4_32635_x2352_y3024.png" }, "geometry": { "type": "Point", "coordinates": [ 25.90634884593609, 42.352720045386263 ] } },
{ "type": "Feature", "properties": { "source_tile": "K-35-052-4_32635_x2352_y672.png" }, "geometry": { "type": "Point", "coordinates": [ 25.903560459625492, 42.453855312158126 ] } },
{ "type": "Feature", "properties": { "source_tile": "K-35-052-4_32635_x2688_y1008.png" }, "geometry": { "type": "Point", "coordinates": [ 25.91828852977865, 42.43965962680565 ] } },
{ "type": "Feature", "properties": { "source_tile": "K-35-052-4_32635_x2688_y1344.png" }, "geometry": { "type": "Point", "coordinates": [ 25.926842497213656, 42.424954449757251 ] } },
{ "type": "Feature", "properties": { "source_tile": "K-35-052-4_32635_x2688_y1680.png" }, "geometry": { "type": "Point", "coordinates": [ 25.921041166330255, 42.41419564086042 ] } },
{ "type": "Feature", "properties": { "source_tile": "K-35-052-4_32635_x2688_y336.png" }, "geometry": { "type": "Point", "coordinates": [ 25.916314996776936, 42.469197311946253 ] } },
{ "type": "Feature", "properties": { "source_tile": "K-35-052-4_32635_x2688_y672.png" }, "geometry": { "type": "Point", "coordinates": [ 25.915946953582285, 42.468961657361739 ] } },
{ "type": "Feature", "properties": { "source_tile": "K-35-052-4_32635_x3024_y2016.png" }, "geometry": { "type": "Point", "coordinates": [ 25.948765327562747, 42.394493859121994 ] } },
{ "type": "Feature", "properties": { "source_tile": "K-35-052-4_32635_x3024_y2352.png" }, "geometry": { "type": "Point", "coordinates": [ 25.939987469704391, 42.38194692880009 ] } },
{ "type": "Feature", "properties": { "source_tile": "K-35-052-4_32635_x3024_y3024.png" }, "geometry": { "type": "Point", "coordinates": [ 25.946143128129226, 42.35728928918271 ] } },
{ "type": "Feature", "properties": { "source_tile": "K-35-052-4_32635_x3024_y3024.png" }, "geometry": { "type": "Point", "coordinates": [ 25.945976712034067, 42.354246913621715 ] } },
{ "type": "Feature", "properties": { "source_tile": "K-35-052-4_32635_x3024_y3024.png" }, "geometry": { "type": "Point", "coordinates": [ 25.946364095929933, 42.351753687695528 ] } },
{ "type": "Feature", "properties": { "source_tile": "K-35-052-4_32635_x3024_y3024.png" }, "geometry": { "type": "Point", "coordinates": [ 25.946240456710299, 42.350764925501196 ] } },
{ "type": "Feature", "properties": { "source_tile": "K-35-052-4_32635_x3024_y3360.png" }, "geometry": { "type": "Point", "coordinates": [ 25.946403309637255, 42.346329034506361 ] } },
{ "type": "Feature", "properties": { "source_tile": "K-35-052-4_32635_x3360_y2016.png" }, "geometry": { "type": "Point", "coordinates": [ 25.967376809441081, 42.399626241384901 ] } },
{ "type": "Feature", "properties": { "source_tile": "K-35-052-4_32635_x3360_y2352.png" }, "geometry": { "type": "Point", "coordinates": [ 25.970240863273464, 42.385165184279373 ] } },
{ "type": "Feature", "properties": { "source_tile": "K-35-052-4_32635_x3360_y2688.png" }, "geometry": { "type": "Point", "coordinates": [ 25.959136218585378, 42.370772102255131 ] } },
{ "type": "Feature", "properties": { "source_tile": "K-35-052-4_32635_x3360_y3360.png" }, "geometry": { "type": "Point", "coordinates": [ 25.95903409928863, 42.333739384741918 ] } },
{ "type": "Feature", "properties": { "source_tile": "K-35-052-4_32635_x336_y1008.png" }, "geometry": { "type": "Point", "coordinates": [ 25.772173302983092, 42.446789175600244 ] } },
{ "type": "Feature", "properties": { "source_tile": "K-35-052-4_32635_x336_y1680.png" }, "geometry": { "type": "Point", "coordinates": [ 25.775135997321605, 42.421520820192001 ] } },
{ "type": "Feature", "properties": { "source_tile": "K-35-052-4_32635_x336_y1680.png" }, "geometry": { "type": "Point", "coordinates": [ 25.786216279266956, 42.413744745701543 ] } },
{ "type": "Feature", "properties": { "source_tile": "K-35-052-4_32635_x336_y1680.png" }, "geometry": { "type": "Point", "coordinates": [ 25.788258435278312, 42.413831038462767 ] } },
{ "type": "Feature", "properties": { "source_tile": "K-35-052-4_32635_x336_y2016.png" }, "geometry": { "type": "Point", "coordinates": [ 25.772741159497606, 42.405222162263307 ] } },
{ "type": "Feature", "properties": { "source_tile": "K-35-052-4_32635_x336_y2016.png" }, "geometry": { "type": "Point", "coordinates": [ 25.773744753894341, 42.393200708969559 ] } },
{ "type": "Feature", "properties": { "source_tile": "K-35-052-4_32635_x336_y2352.png" }, "geometry": { "type": "Point", "coordinates": [ 25.772362889547864, 42.387770285879093 ] } },
{ "type": "Feature", "properties": { "source_tile": "K-35-052-4_32635_x336_y336.png" }, "geometry": { "type": "Point", "coordinates": [ 25.779503352476869, 42.474953061199066 ] } },
{ "type": "Feature", "properties": { "source_tile": "K-35-052-4_32635_x336_y336.png" }, "geometry": { "type": "Point", "coordinates": [ 25.768649761085108, 42.471044658656929 ] } },
{ "type": "Feature", "properties": { "source_tile": "K-35-052-4_32635_x336_y336.png" }, "geometry": { "type": "Point", "coordinates": [ 25.780106895264872, 42.469787579404823 ] } },
{ "type": "Feature", "properties": { "source_tile": "K-35-052-4_32635_x336_y3360.png" }, "geometry": { "type": "Point", "coordinates": [ 25.78925782775665, 42.341155913657801 ] } },
{ "type": "Feature", "properties": { "source_tile": "K-35-052-4_32635_x3696_y1344.png" }, "geometry": { "type": "Point", "coordinates": [ 25.972447718377492, 42.433438303181852 ] } },
{ "type": "Feature", "properties": { "source_tile": "K-35-052-4_32635_x3696_y1344.png" }, "geometry": { "type": "Point", "coordinates": [ 25.984047152461198, 42.427005693312267 ] } },
{ "type": "Feature", "properties": { "source_tile": "K-35-052-4_32635_x3696_y2016.png" }, "geometry": { "type": "Point", "coordinates": [ 25.986822698662458, 42.397115865884743 ] } },
{ "type": "Feature", "properties": { "source_tile": "K-35-052-4_32635_x3696_y2352.png" }, "geometry": { "type": "Point", "coordinates": [ 25.989289406691082, 42.384702286640518 ] } },
{ "type": "Feature", "properties": { "source_tile": "K-35-052-4_32635_x3696_y2688.png" }, "geometry": { "type": "Point", "coordinates": [ 25.984782514689496, 42.376049358131354 ] } },
{ "type": "Feature", "properties": { "source_tile": "K-35-052-4_32635_x3696_y672.png" }, "geometry": { "type": "Point", "coordinates": [ 25.975430090143799, 42.463931482486515 ] } },
{ "type": "Feature", "properties": { "source_tile": "K-35-052-4_32635_x672_y1008.png" }, "geometry": { "type": "Point", "coordinates": [ 25.803675434328014, 42.448817719575544 ] } },
{ "type": "Feature", "properties": { "source_tile": "K-35-052-4_32635_x672_y1008.png" }, "geometry": { "type": "Point", "coordinates": [ 25.800410992979039, 42.440398478614711 ] } },
{ "type": "Feature", "properties": { "source_tile": "K-35-052-4_32635_x672_y1008.png" }, "geometry": { "type": "Point", "coordinates": [ 25.805782419785896, 42.438953236914593 ] } },
{ "type": "Feature", "properties": { "source_tile": "K-35-052-4_32635_x672_y1344.png" }, "geometry": { "type": "Point", "coordinates": [ 25.799491102676377, 42.432954071776329 ] } },
{ "type": "Feature", "properties": { "source_tile": "K-35-052-4_32635_x672_y1344.png" }, "geometry": { "type": "Point", "coordinates": [ 25.795361861062844, 42.422787183366054 ] } },
{ "type": "Feature", "properties": { "source_tile": "K-35-052-4_32635_x672_y1680.png" }, "geometry": { "type": "Point", "coordinates": [ 25.79311471818211, 42.410785450267518 ] } },
{ "type": "Feature", "properties": { "source_tile": "K-35-052-4_32635_x672_y2352.png" }, "geometry": { "type": "Point", "coordinates": [ 25.798205312902319, 42.388222595890596 ] } },
{ "type": "Feature", "properties": { "source_tile": "K-35-052-4_32635_x672_y2352.png" }, "geometry": { "type": "Point", "coordinates": [ 25.800604011516626, 42.387575447438444 ] } },
{ "type": "Feature", "properties": { "source_tile": "K-35-052-4_32635_x672_y2352.png" }, "geometry": { "type": "Point", "coordinates": [ 25.794533004576085, 42.386534546093138 ] } },
{ "type": "Feature", "properties": { "source_tile": "K-35-052-4_32635_x672_y2352.png" }, "geometry": { "type": "Point", "coordinates": [ 25.802691122705529, 42.385365601644757 ] } },
{ "type": "Feature", "properties": { "source_tile": "K-35-053-3_Elenovo_x0_y1008.png" }, "geometry": { "type": "Point", "coordinates": [ 26.004109675071145, 42.452516011597176 ] } },
{ "type": "Feature", "properties": { "source_tile": "K-35-053-3_Elenovo_x0_y1344.png" }, "geometry": { "type": "Point", "coordinates": [ 26.014700545223906, 42.428886770561753 ] } },
{ "type": "Feature", "properties": { "source_tile": "K-35-053-3_Elenovo_x0_y1680.png" }, "geometry": { "type": "Point", "coordinates": [ 26.010577462050463, 42.417728047665399 ] } },
{ "type": "Feature", "properties": { "source_tile": "K-35-053-3_Elenovo_x0_y1680.png" }, "geometry": { "type": "Point", "coordinates": [ 26.00742759851299, 42.415218016205806 ] } },
{ "type": "Feature", "properties": { "source_tile": "K-35-053-3_Elenovo_x0_y1680.png" }, "geometry": { "type": "Point", "coordinates": [ 26.003766644307269, 42.413155662615395 ] } },
{ "type": "Feature", "properties": { "source_tile": "K-35-053-3_Elenovo_x0_y1680.png" }, "geometry": { "type": "Point", "coordinates": [ 26.005473090067003, 42.410467640601141 ] } },
{ "type": "Feature", "properties": { "source_tile": "K-35-053-3_Elenovo_x0_y2016.png" }, "geometry": { "type": "Point", "coordinates": [ 26.001952462805953, 42.405277385840996 ] } },
{ "type": "Feature", "properties": { "source_tile": "K-35-053-3_Elenovo_x0_y2016.png" }, "geometry": { "type": "Point", "coordinates": [ 26.002828652606691, 42.396415001781058 ] } },
{ "type": "Feature", "properties": { "source_tile": "K-35-053-3_Elenovo_x0_y672.png" }, "geometry": { "type": "Point", "coordinates": [ 25.999678159251935, 42.460105954196038 ] } },
{ "type": "Feature", "properties": { "source_tile": "K-35-053-3_Elenovo_x0_y672.png" }, "geometry": { "type": "Point", "coordinates": [ 26.003518200551824, 42.46185812021173 ] } },
{ "type": "Feature", "properties": { "source_tile": "K-35-053-3_Elenovo_x1008_y0.png" }, "geometry": { "type": "Point", "coordinates": [ 26.059025596428441, 42.499094195239543 ] } },
{ "type": "Feature", "properties": { "source_tile": "K-35-053-3_Elenovo_x1008_y0.png" }, "geometry": { "type": "Point", "coordinates": [ 26.077425240195804, 42.497566671841355 ] } },
{ "type": "Feature", "properties": { "source_tile": "K-35-053-3_Elenovo_x1008_y0.png" }, "geometry": { "type": "Point", "coordinates": [ 26.071008597016707, 42.492608202432791 ] } },
{ "type": "Feature", "properties": { "source_tile": "K-35-053-3_Elenovo_x1008_y0.png" }, "geometry": { "type": "Point", "coordinates": [ 26.07665824210876, 42.483961554288847 ] } },
{ "type": "Feature", "properties": { "source_tile": "K-35-053-3_Elenovo_x1008_y2016.png" }, "geometry": { "type": "Point", "coordinates": [ 26.07543659951363, 42.405690916606268 ] } },
{ "type": "Feature", "properties": { "source_tile": "K-35-053-3_Elenovo_x1008_y2016.png" }, "geometry": { "type": "Point", "coordinates": [ 26.07503653156482, 42.397475183731551 ] } },
{ "type": "Feature", "properties": { "source_tile": "K-35-053-3_Elenovo_x1008_y3024.png" }, "geometry": { "type": "Point", "coordinates": [ 26.063105980226641, 42.360473870171262 ] } },
{ "type": "Feature", "properties": { "source_tile": "K-35-053-3_Elenovo_x1008_y3024.png" }, "geometry": { "type": "Point", "coordinates": [ 26.075481169257131, 42.346979405515455 ] } },
{ "type": "Feature", "properties": { "source_tile": "K-35-053-3_Elenovo_x1008_y3024.png" }, "geometry": { "type": "Point", "coordinates": [ 26.08015682531159, 42.346988328677398 ] } },
{ "type": "Feature", "properties": { "source_tile": "K-35-053-3_Elenovo_x1008_y672.png" }, "geometry": { "type": "Point", "coordinates": [ 26.058162311610531, 42.461284112707254 ] } },
{ "type": "Feature", "properties": { "source_tile": "K-35-053-3_Elenovo_x1344_y0.png" }, "geometry": { "type": "Point", "coordinates": [ 26.090883220962358, 42.494153643273812 ] } },
{ "type": "Feature", "properties": { "source_tile": "K-35-053-3_Elenovo_x1344_y0.png" }, "geometry": { "type": "Point", "coordinates": [ 26.09436657792104, 42.493037727210393 ] } },
{ "type": "Feature", "properties": { "source_tile": "K-35-053-3_Elenovo_x1344_y0.png" }, "geometry": { "type": "Point", "coordinates": [ 26.097647034975264, 42.490393712759854 ] } },
{ "type": "Feature", "properties": { "source_tile": "K-35-053-3_Elenovo_x1344_y2016.png" }, "geometry": { "type": "Point", "coordinates": [ 26.083065936491042, 42.404506461060741 ] } },
{ "type": "Feature", "properties": { "source_tile": "K-35-053-3_Elenovo_x1344_y2016.png" }, "geometry": { "type": "Point", "coordinates": [ 26.089383474845896, 42.402191826575745 ] } },
{ "type": "Feature", "properties": { "source_tile": "K-35-053-3_Elenovo_x1344_y2016.png" }, "geometry": { "type": "Point", "coordinates": [ 26.096713648234552, 42.396066179698614 ] } },
{ "type": "Feature", "properties": { "source_tile": "K-35-053-3_Elenovo_x1344_y2352.png" }, "geometry": { "type": "Point", "coordinates": [ 26.100076814547826, 42.38819428505505 ] } },
{ "type": "Feature", "properties": { "source_tile": "K-35-053-3_Elenovo_x1344_y2352.png" }, "geometry": { "type": "Point", "coordinates": [ 26.098938821352718, 42.37781427538112 ] } },
{ "type": "Feature", "properties": { "source_tile": "K-35-053-3_Elenovo_x1344_y2688.png" }, "geometry": { "type": "Point", "coordinates": [ 26.099572943634797, 42.377591853380409 ] } },
{ "type": "Feature", "properties": { "source_tile": "K-35-053-3_Elenovo_x1008_y3360.png" }, "geometry": { "type": "Point", "coordinates": [ 26.081459999730882, 42.335463777073358 ] } },
{ "type": "Feature", "properties": { "source_tile": "K-35-053-3_Elenovo_x1344_y672.png" }, "geometry": { "type": "Point", "coordinates": [ 26.090481992677756, 42.466742880296025 ] } },
{ "type": "Feature", "properties": { "source_tile": "K-35-053-3_Elenovo_x1344_y672.png" }, "geometry": { "type": "Point", "coordinates": [ 26.091114103432766, 42.465753395204601 ] } },
{ "type": "Feature", "properties": { "source_tile": "K-35-053-3_Elenovo_x1680_y0.png" }, "geometry": { "type": "Point", "coordinates": [ 26.120885290093533, 42.496234637048254 ] } },
{ "type": "Feature", "properties": { "source_tile": "K-35-053-3_Elenovo_x1680_y1344.png" }, "geometry": { "type": "Point", "coordinates": [ 26.100092873415115, 42.42823179934323 ] } },
{ "type": "Feature", "properties": { "source_tile": "K-35-053-3_Elenovo_x1680_y1680.png" }, "geometry": { "type": "Point", "coordinates": [ 26.109414035467879, 42.413701160748595 ] } },
{ "type": "Feature", "properties": { "source_tile": "K-35-053-3_Elenovo_x1680_y3024.png" }, "geometry": { "type": "Point", "coordinates": [ 26.115114043951209, 42.348995588260991 ] } },
{ "type": "Feature", "properties": { "source_tile": "K-35-053-3_Elenovo_x1680_y3024.png" }, "geometry": { "type": "Point", "coordinates": [ 26.114569144530648, 42.347462061161878 ] } },
{ "type": "Feature", "properties": { "source_tile": "K-35-053-3_Elenovo_x1680_y336.png" }, "geometry": { "type": "Point", "coordinates": [ 26.118025855598809, 42.48082222742034 ] } },
{ "type": "Feature", "properties": { "source_tile": "K-35-053-3_Elenovo_x1680_y3024.png" }, "geometry": { "type": "Point", "coordinates": [ 26.115012097243859, 42.348770139183991 ] } },
{ "type": "Feature", "properties": { "source_tile": "K-35-053-3_Elenovo_x1680_y3360.png" }, "geometry": { "type": "Point", "coordinates": [ 26.113384712228452, 42.34191027385917 ] } },
{ "type": "Feature", "properties": { "source_tile": "K-35-053-3_Elenovo_x1680_y3360.png" }, "geometry": { "type": "Point", "coordinates": [ 26.114213555141479, 42.341928808517387 ] } },
{ "type": "Feature", "properties": { "source_tile": "K-35-053-3_Elenovo_x1680_y3360.png" }, "geometry": { "type": "Point", "coordinates": [ 26.113463142455295, 42.341314860585136 ] } },
{ "type": "Feature", "properties": { "source_tile": "K-35-053-3_Elenovo_x1680_y3360.png" }, "geometry": { "type": "Point", "coordinates": [ 26.118096737720791, 42.33864078299198 ] } },
{ "type": "Feature", "properties": { "source_tile": "K-35-053-3_Elenovo_x1680_y672.png" }, "geometry": { "type": "Point", "coordinates": [ 26.107709041825188, 42.465168239098944 ] } },
{ "type": "Feature", "properties": { "source_tile": "K-35-053-3_Elenovo_x1680_y672.png" }, "geometry": { "type": "Point", "coordinates": [ 26.103217156949494, 42.45804346465416 ] } },
{ "type": "Feature", "properties": { "source_tile": "K-35-053-3_Elenovo_x2016_y0.png" }, "geometry": { "type": "Point", "coordinates": [ 26.122222853980869, 42.49153792801242 ] } },
{ "type": "Feature", "properties": { "source_tile": "K-35-053-3_Elenovo_x2016_y1008.png" }, "geometry": { "type": "Point", "coordinates": [ 26.137199208170593, 42.450689178112611 ] } },
{ "type": "Feature", "properties": { "source_tile": "K-35-053-3_Elenovo_x2016_y336.png" }, "geometry": { "type": "Point", "coordinates": [ 26.129158879050671, 42.479299532726991 ] } },
{ "type": "Feature", "properties": { "source_tile": "K-35-053-3_Elenovo_x2352_y0.png" }, "geometry": { "type": "Point", "coordinates": [ 26.145529759948932, 42.498512248615278 ] } },
{ "type": "Feature", "properties": { "source_tile": "K-35-053-3_Elenovo_x2352_y0.png" }, "geometry": { "type": "Point", "coordinates": [ 26.155554293134248, 42.499109789602343 ] } },
{ "type": "Feature", "properties": { "source_tile": "K-35-053-3_Elenovo_x2352_y0.png" }, "geometry": { "type": "Point", "coordinates": [ 26.156690265910527, 42.499731917559359 ] } },
{ "type": "Feature", "properties": { "source_tile": "K-35-053-3_Elenovo_x2352_y0.png" }, "geometry": { "type": "Point", "coordinates": [ 26.142493899098845, 42.490911305665165 ] } },
{ "type": "Feature", "properties": { "source_tile": "K-35-053-3_Elenovo_x2688_y1008.png" }, "geometry": { "type": "Point", "coordinates": [ 26.17023869345833, 42.4534742502385 ] } },
{ "type": "Feature", "properties": { "source_tile": "K-35-053-3_Elenovo_x2688_y1680.png" }, "geometry": { "type": "Point", "coordinates": [ 26.173311596157326, 42.418138766717327 ] } },
{ "type": "Feature", "properties": { "source_tile": "K-35-053-3_Elenovo_x2688_y1680.png" }, "geometry": { "type": "Point", "coordinates": [ 26.166544306638723, 42.410793222295815 ] } },
{ "type": "Feature", "properties": { "source_tile": "K-35-053-3_Elenovo_x2688_y336.png" }, "geometry": { "type": "Point", "coordinates": [ 26.175858465017726, 42.473787015733919 ] } },
{ "type": "Feature", "properties": { "source_tile": "K-35-053-3_Elenovo_x3024_y2016.png" }, "geometry": { "type": "Point", "coordinates": [ 26.197235015155691, 42.407373076995611 ] } },
{ "type": "Feature", "properties": { "source_tile": "K-35-053-3_Elenovo_x3024_y2016.png" }, "geometry": { "type": "Point", "coordinates": [ 26.199468944762003, 42.405209954755676 ] } },
{ "type": "Feature", "properties": { "source_tile": "K-35-053-3_Elenovo_x3024_y2016.png" }, "geometry": { "type": "Point", "coordinates": [ 26.186281398262299, 42.398434317579934 ] } },
{ "type": "Feature", "properties": { "source_tile": "K-35-053-3_Elenovo_x3024_y2352.png" }, "geometry": { "type": "Point", "coordinates": [ 26.186362136748119, 42.389771875518214 ] } },
{ "type": "Feature", "properties": { "source_tile": "K-35-053-3_Elenovo_x3024_y2352.png" }, "geometry": { "type": "Point", "coordinates": [ 26.189341754668856, 42.387684981749914 ] } },
{ "type": "Feature", "properties": { "source_tile": "K-35-053-3_Elenovo_x3024_y336.png" }, "geometry": { "type": "Point", "coordinates": [ 26.202919758605702, 42.468839578971469 ] } },
{ "type": "Feature", "properties": { "source_tile": "K-35-053-3_Elenovo_x3360_y0.png" }, "geometry": { "type": "Point", "coordinates": [ 26.203976118276142, 42.492801542947866 ] } },
{ "type": "Feature", "properties": { "source_tile": "K-35-053-3_Elenovo_x3360_y0.png" }, "geometry": { "type": "Point", "coordinates": [ 26.215402527258764, 42.493221656470176 ] } },
{ "type": "Feature", "properties": { "source_tile": "K-35-053-3_Elenovo_x3360_y0.png" }, "geometry": { "type": "Point", "coordinates": [ 26.2216944170973, 42.48957206934616 ] } },
{ "type": "Feature", "properties": { "source_tile": "K-35-053-3_Elenovo_x3360_y1008.png" }, "geometry": { "type": "Point", "coordinates": [ 26.221536619942324, 42.452909368322516 ] } },
{ "type": "Feature", "properties": { "source_tile": "K-35-053-3_Elenovo_x3360_y1680.png" }, "geometry": { "type": "Point", "coordinates": [ 26.204304129607717, 42.42311103291744 ] } },
{ "type": "Feature", "properties": { "source_tile": "K-35-053-3_Elenovo_x3360_y1680.png" }, "geometry": { "type": "Point", "coordinates": [ 26.219412907755245, 42.417298819893055 ] } },
{ "type": "Feature", "properties": { "source_tile": "K-35-053-3_Elenovo_x3360_y1680.png" }, "geometry": { "type": "Point", "coordinates": [ 26.210137270789019, 42.410930934668762 ] } },
{ "type": "Feature", "properties": { "source_tile": "K-35-053-3_Elenovo_x3360_y1680.png" }, "geometry": { "type": "Point", "coordinates": [ 26.214877321080788, 42.408805544803563 ] } },
{ "type": "Feature", "properties": { "source_tile": "K-35-053-3_Elenovo_x3360_y2016.png" }, "geometry": { "type": "Point", "coordinates": [ 26.205543375774809, 42.401820364211709 ] } },
{ "type": "Feature", "properties": { "source_tile": "K-35-053-3_Elenovo_x3360_y2016.png" }, "geometry": { "type": "Point", "coordinates": [ 26.221525910616446, 42.400916440910457 ] } },
{ "type": "Feature", "properties": { "source_tile": "K-35-053-3_Elenovo_x3360_y2352.png" }, "geometry": { "type": "Point", "coordinates": [ 26.206167830840382, 42.383436561294033 ] } },
{ "type": "Feature", "properties": { "source_tile": "K-35-053-3_Elenovo_x3360_y2352.png" }, "geometry": { "type": "Point", "coordinates": [ 26.217495869424429, 42.384158971683881 ] } },
{ "type": "Feature", "properties": { "source_tile": "K-35-053-3_Elenovo_x3360_y336.png" }, "geometry": { "type": "Point", "coordinates": [ 26.209691134828983, 42.48161573463635 ] } },
{ "type": "Feature", "properties": { "source_tile": "K-35-053-3_Elenovo_x3360_y336.png" }, "geometry": { "type": "Point", "coordinates": [ 26.216220650769838, 42.481135603244745 ] } },
{ "type": "Feature", "properties": { "source_tile": "K-35-053-3_Elenovo_x3360_y336.png" }, "geometry": { "type": "Point", "coordinates": [ 26.221871593161268, 42.480808535212027 ] } },
{ "type": "Feature", "properties": { "source_tile": "K-35-053-3_Elenovo_x336_y0.png" }, "geometry": { "type": "Point", "coordinates": [ 26.036920101252434, 42.484963384958881 ] } },
{ "type": "Feature", "properties": { "source_tile": "K-35-053-3_Elenovo_x336_y1008.png" }, "geometry": { "type": "Point", "coordinates": [ 26.025596743431368, 42.439977494409604 ] } },
{ "type": "Feature", "properties": { "source_tile": "K-35-053-3_Elenovo_x336_y1680.png" }, "geometry": { "type": "Point", "coordinates": [ 26.035159396799205, 42.415790917484529 ] } },
{ "type": "Feature", "properties": { "source_tile": "K-35-053-3_Elenovo_x336_y2016.png" }, "geometry": { "type": "Point", "coordinates": [ 26.040037564421752, 42.403728707964426 ] } },
{ "type": "Feature", "properties": { "source_tile": "K-35-053-3_Elenovo_x336_y2016.png" }, "geometry": { "type": "Point", "coordinates": [ 26.040256505329506, 42.399461861585856 ] } },
{ "type": "Feature", "properties": { "source_tile": "K-35-053-3_Elenovo_x336_y2352.png" }, "geometry": { "type": "Point", "coordinates": [ 26.039676497998602, 42.391750993681043 ] } },
{ "type": "Feature", "properties": { "source_tile": "K-35-053-3_Elenovo_x336_y2352.png" }, "geometry": { "type": "Point", "coordinates": [ 26.041073480721828, 42.384353230394936 ] } },
{ "type": "Feature", "properties": { "source_tile": "K-35-053-3_Elenovo_x336_y2352.png" }, "geometry": { "type": "Point", "coordinates": [ 26.02624617021625, 42.380507486722294 ] } },
{ "type": "Feature", "properties": { "source_tile": "K-35-053-3_Elenovo_x336_y2688.png" }, "geometry": { "type": "Point", "coordinates": [ 26.040545824123434, 42.371502441843269 ] } },
{ "type": "Feature", "properties": { "source_tile": "K-35-053-3_Elenovo_x336_y2688.png" }, "geometry": { "type": "Point", "coordinates": [ 26.036562069562883, 42.365683867470565 ] } },
{ "type": "Feature", "properties": { "source_tile": "K-35-053-3_Elenovo_x336_y3024.png" }, "geometry": { "type": "Point", "coordinates": [ 26.038673885649938, 42.357119996239604 ] } },
{ "type": "Feature", "properties": { "source_tile": "K-35-053-3_Elenovo_x336_y336.png" }, "geometry": { "type": "Point", "coordinates": [ 26.02521551336363, 42.479871160154907 ] } },
{ "type": "Feature", "properties": { "source_tile": "K-35-053-3_Elenovo_x336_y336.png" }, "geometry": { "type": "Point", "coordinates": [ 26.027796786710219, 42.47445627659522 ] } },
{ "type": "Feature", "properties": { "source_tile": "K-35-053-3_Elenovo_x336_y336.png" }, "geometry": { "type": "Point", "coordinates": [ 26.033975716275339, 42.471398556633183 ] } },
{ "type": "Feature", "properties": { "source_tile": "K-35-053-3_Elenovo_x3696_y2016.png" }, "geometry": { "type": "Point", "coordinates": [ 26.230085933210926, 42.408232118871382 ] } },
{ "type": "Feature", "properties": { "source_tile": "K-35-053-3_Elenovo_x3696_y2352.png" }, "geometry": { "type": "Point", "coordinates": [ 26.227673797836694, 42.392549698747509 ] } },
{ "type": "Feature", "properties": { "source_tile": "K-35-053-3_Elenovo_x3696_y2352.png" }, "geometry": { "type": "Point", "coordinates": [ 26.231185223168421, 42.390260273017219 ] } },
{ "type": "Feature", "properties": { "source_tile": "K-35-053-3_Elenovo_x3696_y2352.png" }, "geometry": { "type": "Point", "coordinates": [ 26.241760777108315, 42.391939144188605 ] } },
{ "type": "Feature", "properties": { "source_tile": "K-35-053-3_Elenovo_x3696_y2352.png" }, "geometry": { "type": "Point", "coordinates": [ 26.245174879782418, 42.390509173067862 ] } },
{ "type": "Feature", "properties": { "source_tile": "K-35-053-3_Elenovo_x3696_y2352.png" }, "geometry": { "type": "Point", "coordinates": [ 26.236238847175834, 42.381810052184285 ] } },
{ "type": "Feature", "properties": { "source_tile": "K-35-053-3_Elenovo_x3696_y2352.png" }, "geometry": { "type": "Point", "coordinates": [ 26.231948583022572, 42.38452179830346 ] } },
{ "type": "Feature", "properties": { "source_tile": "K-35-053-3_Elenovo_x3696_y2688.png" }, "geometry": { "type": "Point", "coordinates": [ 26.228800175803652, 42.372519668733773 ] } },
{ "type": "Feature", "properties": { "source_tile": "K-35-053-3_Elenovo_x3696_y2688.png" }, "geometry": { "type": "Point", "coordinates": [ 26.237518310237455, 42.372702730051607 ] } },
{ "type": "Feature", "properties": { "source_tile": "K-35-053-3_Elenovo_x3696_y2688.png" }, "geometry": { "type": "Point", "coordinates": [ 26.232914165374162, 42.370156264726084 ] } },
{ "type": "Feature", "properties": { "source_tile": "K-35-053-3_Elenovo_x3696_y2688.png" }, "geometry": { "type": "Point", "coordinates": [ 26.233238138575196, 42.368813924864128 ] } },
{ "type": "Feature", "properties": { "source_tile": "K-35-053-3_Elenovo_x3696_y2688.png" }, "geometry": { "type": "Point", "coordinates": [ 26.227265756417822, 42.363880061067611 ] } },
{ "type": "Feature", "properties": { "source_tile": "K-35-053-3_Elenovo_x3696_y2688.png" }, "geometry": { "type": "Point", "coordinates": [ 26.241012814477394, 42.368332446457181 ] } },
{ "type": "Feature", "properties": { "source_tile": "K-35-053-3_Elenovo_x3696_y3024.png" }, "geometry": { "type": "Point", "coordinates": [ 26.242943344804111, 42.362899750139952 ] } },
{ "type": "Feature", "properties": { "source_tile": "K-35-053-3_Elenovo_x3696_y3024.png" }, "geometry": { "type": "Point", "coordinates": [ 26.239744932836444, 42.359156351369883 ] } },
{ "type": "Feature", "properties": { "source_tile": "K-35-053-3_Elenovo_x3696_y3024.png" }, "geometry": { "type": "Point", "coordinates": [ 26.245586551061869, 42.3587264101863 ] } },
{ "type": "Feature", "properties": { "source_tile": "K-35-053-3_Elenovo_x3696_y3024.png" }, "geometry": { "type": "Point", "coordinates": [ 26.24312555315214, 42.351449081889555 ] } },
{ "type": "Feature", "properties": { "source_tile": "K-35-053-3_Elenovo_x3696_y336.png" }, "geometry": { "type": "Point", "coordinates": [ 26.22563780890637, 42.481845869665641 ] } },
{ "type": "Feature", "properties": { "source_tile": "K-35-053-3_Elenovo_x3696_y3360.png" }, "geometry": { "type": "Point", "coordinates": [ 26.240551388947651, 42.347232626014666 ] } },
{ "type": "Feature", "properties": { "source_tile": "K-35-053-3_Elenovo_x3696_y672.png" }, "geometry": { "type": "Point", "coordinates": [ 26.233797354798643, 42.464975123861898 ] } },
{ "type": "Feature", "properties": { "source_tile": "K-35-053-3_Elenovo_x3696_y672.png" }, "geometry": { "type": "Point", "coordinates": [ 26.232043582405687, 42.46831593485642 ] } },
{ "type": "Feature", "properties": { "source_tile": "K-35-053-3_Elenovo_x4032_y1680.png" }, "geometry": { "type": "Point", "coordinates": [ 26.247644409467281, 42.409768856921005 ] } },
{ "type": "Feature", "properties": { "source_tile": "K-35-053-3_Elenovo_x4032_y2016.png" }, "geometry": { "type": "Point", "coordinates": [ 26.248082089761535, 42.406075512585893 ] } },
{ "type": "Feature", "properties": { "source_tile": "K-35-053-3_Elenovo_x3696_y2352.png" }, "geometry": { "type": "Point", "coordinates": [ 26.245052207761066, 42.390668631386319 ] } },
{ "type": "Feature", "properties": { "source_tile": "K-35-053-3_Elenovo_x4032_y3024.png" }, "geometry": { "type": "Point", "coordinates": [ 26.247994631472093, 42.353998470206776 ] } },
{ "type": "Feature", "properties": { "source_tile": "K-35-053-3_Elenovo_x672_y0.png" }, "geometry": { "type": "Point", "coordinates": [ 26.04180232276968, 42.496205363113191 ] } },
{ "type": "Feature", "properties": { "source_tile": "K-35-053-3_Elenovo_x672_y0.png" }, "geometry": { "type": "Point", "coordinates": [ 26.049600680265794, 42.486328823932219 ] } },
{ "type": "Feature", "properties": { "source_tile": "K-35-053-3_Elenovo_x672_y0.png" }, "geometry": { "type": "Point", "coordinates": [ 26.05417766757002, 42.48419144701915 ] } },
{ "type": "Feature", "properties": { "source_tile": "K-35-053-3_Elenovo_x672_y2016.png" }, "geometry": { "type": "Point", "coordinates": [ 26.04321996887813, 42.405594606856305 ] } },
{ "type": "Feature", "properties": { "source_tile": "K-35-053-3_Elenovo_x672_y2016.png" }, "geometry": { "type": "Point", "coordinates": [ 26.050709905811583, 42.401057705677957 ] } },
{ "type": "Feature", "properties": { "source_tile": "K-35-053-3_Elenovo_x672_y2016.png" }, "geometry": { "type": "Point", "coordinates": [ 26.045016349457992, 42.392663633424434 ] } },
{ "type": "Feature", "properties": { "source_tile": "K-35-053-3_Elenovo_x672_y2352.png" }, "geometry": { "type": "Point", "coordinates": [ 26.039603953176158, 42.389878747355105 ] } },
{ "type": "Feature", "properties": { "source_tile": "K-35-053-3_Elenovo_x672_y2352.png" }, "geometry": { "type": "Point", "coordinates": [ 26.052132139956122, 42.391082498652409 ] } },
{ "type": "Feature", "properties": { "source_tile": "K-35-053-3_Elenovo_x672_y2352.png" }, "geometry": { "type": "Point", "coordinates": [ 26.04758980698492, 42.388515256962542 ] } },
{ "type": "Feature", "properties": { "source_tile": "K-35-053-3_Elenovo_x672_y2352.png" }, "geometry": { "type": "Point", "coordinates": [ 26.045932702613818, 42.387139943806623 ] } },
{ "type": "Feature", "properties": { "source_tile": "K-35-053-3_Elenovo_x672_y2688.png" }, "geometry": { "type": "Point", "coordinates": [ 26.05883407141113, 42.372929234809554 ] } },
{ "type": "Feature", "properties": { "source_tile": "K-35-053-3_Elenovo_x672_y3024.png" }, "geometry": { "type": "Point", "coordinates": [ 26.042036262301398, 42.358298591874032 ] } },
{ "type": "Feature", "properties": { "source_tile": "K-35-053-3_Elenovo_x672_y336.png" }, "geometry": { "type": "Point", "coordinates": [ 26.048196498700122, 42.473528192239208 ] } },
{ "type": "Feature", "properties": { "source_tile": "K-35-062-2_Rakovski_x0_y0.png" }, "geometry": { "type": "Point", "coordinates": [ 24.748960109189838, 42.322602930491939 ] } },
{ "type": "Feature", "properties": { "source_tile": "K-35-062-2_Rakovski_x0_y1008.png" }, "geometry": { "type": "Point", "coordinates": [ 24.759632741724886, 42.271786455485206 ] } },
{ "type": "Feature", "properties": { "source_tile": "K-35-062-2_Rakovski_x0_y1344.png" }, "geometry": { "type": "Point", "coordinates": [ 24.765584042328435, 42.270104422966156 ] } },
{ "type": "Feature", "properties": { "source_tile": "K-35-062-2_Rakovski_x0_y1344.png" }, "geometry": { "type": "Point", "coordinates": [ 24.7644013419124, 42.261915426408613 ] } },
{ "type": "Feature", "properties": { "source_tile": "K-35-062-2_Rakovski_x0_y1344.png" }, "geometry": { "type": "Point", "coordinates": [ 24.751174167378238, 42.25832177719505 ] } },
{ "type": "Feature", "properties": { "source_tile": "K-35-062-2_Rakovski_x0_y2352.png" }, "geometry": { "type": "Point", "coordinates": [ 24.765109810909493, 42.226659392735399 ] } },
{ "type": "Feature", "properties": { "source_tile": "K-35-062-2_Rakovski_x0_y2352.png" }, "geometry": { "type": "Point", "coordinates": [ 24.761361754571801, 42.2258677316741 ] } },
{ "type": "Feature", "properties": { "source_tile": "K-35-062-2_Rakovski_x0_y2352.png" }, "geometry": { "type": "Point", "coordinates": [ 24.767634990236377, 42.223787578042035 ] } },
{ "type": "Feature", "properties": { "source_tile": "K-35-062-2_Rakovski_x0_y2352.png" }, "geometry": { "type": "Point", "coordinates": [ 24.768386689484995, 42.22079441937985 ] } },
{ "type": "Feature", "properties": { "source_tile": "K-35-062-2_Rakovski_x0_y2352.png" }, "geometry": { "type": "Point", "coordinates": [ 24.750652535653547, 42.216006465891802 ] } },
{ "type": "Feature", "properties": { "source_tile": "K-35-062-2_Rakovski_x0_y2352.png" }, "geometry": { "type": "Point", "coordinates": [ 24.748777244414178, 42.213324607106692 ] } },
{ "type": "Feature", "properties": { "source_tile": "K-35-062-2_Rakovski_x0_y336.png" }, "geometry": { "type": "Point", "coordinates": [ 24.760090790551889, 42.301825176858785 ] } },
{ "type": "Feature", "properties": { "source_tile": "K-35-062-2_Rakovski_x0_y672.png" }, "geometry": { "type": "Point", "coordinates": [ 24.760402346819845, 42.302005979657842 ] } },
{ "type": "Feature", "properties": { "source_tile": "K-35-062-2_Rakovski_x0_y672.png" }, "geometry": { "type": "Point", "coordinates": [ 24.761899948535937, 42.289893699337604 ] } },
{ "type": "Feature", "properties": { "source_tile": "K-35-062-2_Rakovski_x1008_y0.png" }, "geometry": { "type": "Point", "coordinates": [ 24.813789169834049, 42.320790945389376 ] } },
{ "type": "Feature", "properties": { "source_tile": "K-35-062-2_Rakovski_x1008_y1008.png" }, "geometry": { "type": "Point", "coordinates": [ 24.823796589042878, 42.27385807347369 ] } },
{ "type": "Feature", "properties": { "source_tile": "K-35-062-2_Rakovski_x1008_y1008.png" }, "geometry": { "type": "Point", "coordinates": [ 24.824196266085682, 42.272826474591618 ] } },
{ "type": "Feature", "properties": { "source_tile": "K-35-062-2_Rakovski_x1008_y1008.png" }, "geometry": { "type": "Point", "coordinates": [ 24.825730411247036, 42.271615936204967 ] } },
{ "type": "Feature", "properties": { "source_tile": "K-35-062-2_Rakovski_x1008_y1680.png" }, "geometry": { "type": "Point", "coordinates": [ 24.823300484883152, 42.250996079758572 ] } },
{ "type": "Feature", "properties": { "source_tile": "K-35-062-2_Rakovski_x1008_y336.png" }, "geometry": { "type": "Point", "coordinates": [ 24.810860724650599, 42.316300646593135 ] } },
{ "type": "Feature", "properties": { "source_tile": "K-35-062-2_Rakovski_x1008_y336.png" }, "geometry": { "type": "Point", "coordinates": [ 24.816206154705473, 42.313423927451147 ] } },
{ "type": "Feature", "properties": { "source_tile": "K-35-062-2_Rakovski_x1008_y336.png" }, "geometry": { "type": "Point", "coordinates": [ 24.810499389856382, 42.311126055552457 ] } },
{ "type": "Feature", "properties": { "source_tile": "K-35-062-2_Rakovski_x1008_y336.png" }, "geometry": { "type": "Point", "coordinates": [ 24.824688969572968, 42.30904147962638 ] } },
{ "type": "Feature", "properties": { "source_tile": "K-35-062-2_Rakovski_x1008_y336.png" }, "geometry": { "type": "Point", "coordinates": [ 24.823578870656036, 42.307939138413062 ] } },
{ "type": "Feature", "properties": { "source_tile": "K-35-062-2_Rakovski_x1008_y336.png" }, "geometry": { "type": "Point", "coordinates": [ 24.819748641903914, 42.306658380700114 ] } },
{ "type": "Feature", "properties": { "source_tile": "K-35-062-2_Rakovski_x1008_y336.png" }, "geometry": { "type": "Point", "coordinates": [ 24.811353215946021, 42.302964156759209 ] } },
{ "type": "Feature", "properties": { "source_tile": "K-35-062-2_Rakovski_x1008_y672.png" }, "geometry": { "type": "Point", "coordinates": [ 24.815577948549247, 42.288994029571882 ] } },
{ "type": "Feature", "properties": { "source_tile": "K-35-062-2_Rakovski_x1344_y0.png" }, "geometry": { "type": "Point", "coordinates": [ 24.846233837045496, 42.327514017244134 ] } },
{ "type": "Feature", "properties": { "source_tile": "K-35-062-2_Rakovski_x1344_y0.png" }, "geometry": { "type": "Point", "coordinates": [ 24.844429149750336, 42.32039718487561 ] } },
{ "type": "Feature", "properties": { "source_tile": "K-35-062-2_Rakovski_x1344_y1008.png" }, "geometry": { "type": "Point", "coordinates": [ 24.847103325539297, 42.280819648744028 ] } },
{ "type": "Feature", "properties": { "source_tile": "K-35-062-2_Rakovski_x1344_y1008.png" }, "geometry": { "type": "Point", "coordinates": [ 24.848063305027097, 42.280082691171621 ] } },
{ "type": "Feature", "properties": { "source_tile": "K-35-062-2_Rakovski_x1344_y1680.png" }, "geometry": { "type": "Point", "coordinates": [ 24.831955282951409, 42.241823132552469 ] } },
{ "type": "Feature", "properties": { "source_tile": "K-35-062-2_Rakovski_x1344_y336.png" }, "geometry": { "type": "Point", "coordinates": [ 24.833499764037555, 42.315237769427746 ] } },
{ "type": "Feature", "properties": { "source_tile": "K-35-062-2_Rakovski_x1344_y336.png" }, "geometry": { "type": "Point", "coordinates": [ 24.833609923414272, 42.312027288471896 ] } },
{ "type": "Feature", "properties": { "source_tile": "K-35-062-2_Rakovski_x1344_y336.png" }, "geometry": { "type": "Point", "coordinates": [ 24.841733552118274, 42.312640471428878 ] } },
{ "type": "Feature", "properties": { "source_tile": "K-35-062-2_Rakovski_x1344_y336.png" }, "geometry": { "type": "Point", "coordinates": [ 24.841134662302892, 42.312169263301577 ] } },
{ "type": "Feature", "properties": { "source_tile": "K-35-062-2_Rakovski_x1344_y336.png" }, "geometry": { "type": "Point", "coordinates": [ 24.847895397361508, 42.308656880091078 ] } },
{ "type": "Feature", "properties": { "source_tile": "K-35-062-2_Rakovski_x1344_y336.png" }, "geometry": { "type": "Point", "coordinates": [ 24.843146948162619, 42.304156202332059 ] } },
{ "type": "Feature", "properties": { "source_tile": "K-35-062-2_Rakovski_x1680_y0.png" }, "geometry": { "type": "Point", "coordinates": [ 24.84913827735139, 42.326603575711907 ] } },
{ "type": "Feature", "properties": { "source_tile": "K-35-062-2_Rakovski_x1680_y0.png" }, "geometry": { "type": "Point", "coordinates": [ 24.852262234090109, 42.326216112468828 ] } },
{ "type": "Feature", "properties": { "source_tile": "K-35-062-2_Rakovski_x1680_y0.png" }, "geometry": { "type": "Point", "coordinates": [ 24.848433270285721, 42.321418311069451 ] } },
{ "type": "Feature", "properties": { "source_tile": "K-35-062-2_Rakovski_x1680_y1008.png" }, "geometry": { "type": "Point", "coordinates": [ 24.859666727088499, 42.280623616520472 ] } },
{ "type": "Feature", "properties": { "source_tile": "K-35-062-2_Rakovski_x1680_y2016.png" }, "geometry": { "type": "Point", "coordinates": [ 24.870831286889668, 42.239781974359616 ] } },
{ "type": "Feature", "properties": { "source_tile": "K-35-062-2_Rakovski_x1680_y2016.png" }, "geometry": { "type": "Point", "coordinates": [ 24.859912144326334, 42.237319782088846 ] } },
{ "type": "Feature", "properties": { "source_tile": "K-35-062-2_Rakovski_x1680_y336.png" }, "geometry": { "type": "Point", "coordinates": [ 24.849871856215586, 42.314818850719718 ] } },
{ "type": "Feature", "properties": { "source_tile": "K-35-062-2_Rakovski_x1680_y336.png" }, "geometry": { "type": "Point", "coordinates": [ 24.856037451223298, 42.31133604199001 ] } },
{ "type": "Feature", "properties": { "source_tile": "K-35-062-2_Rakovski_x1680_y336.png" }, "geometry": { "type": "Point", "coordinates": [ 24.868746968255323, 42.304680611916446 ] } },
{ "type": "Feature", "properties": { "source_tile": "K-35-062-2_Rakovski_x1680_y336.png" }, "geometry": { "type": "Point", "coordinates": [ 24.854725533956266, 42.303354265802668 ] } },
{ "type": "Feature", "properties": { "source_tile": "K-35-062-2_Rakovski_x1680_y336.png" }, "geometry": { "type": "Point", "coordinates": [ 24.866712994716149, 42.302829085427057 ] } },
{ "type": "Feature", "properties": { "source_tile": "K-35-062-2_Rakovski_x1680_y672.png" }, "geometry": { "type": "Point", "coordinates": [ 24.86868481535825, 42.304501558438105 ] } },
{ "type": "Feature", "properties": { "source_tile": "K-35-062-2_Rakovski_x1680_y672.png" }, "geometry": { "type": "Point", "coordinates": [ 24.855664719438735, 42.300138439122748 ] } },
{ "type": "Feature", "properties": { "source_tile": "K-35-062-2_Rakovski_x2016_y0.png" }, "geometry": { "type": "Point", "coordinates": [ 24.87262279247059, 42.321418582988947 ] } },
{ "type": "Feature", "properties": { "source_tile": "K-35-062-2_Rakovski_x2016_y1008.png" }, "geometry": { "type": "Point", "coordinates": [ 24.875104888743238, 42.278513966990843 ] } },
{ "type": "Feature", "properties": { "source_tile": "K-35-062-2_Rakovski_x2016_y2352.png" }, "geometry": { "type": "Point", "coordinates": [ 24.883001337774949, 42.226795018813782 ] } },
{ "type": "Feature", "properties": { "source_tile": "K-35-062-2_Rakovski_x2016_y2016.png" }, "geometry": { "type": "Point", "coordinates": [ 24.891161791734309, 42.227497328931342 ] } },
{ "type": "Feature", "properties": { "source_tile": "K-35-062-2_Rakovski_x2016_y2352.png" }, "geometry": { "type": "Point", "coordinates": [ 24.892009797744823, 42.221114878141506 ] } },
{ "type": "Feature", "properties": { "source_tile": "K-35-062-2_Rakovski_x2016_y0.png" }, "geometry": { "type": "Point", "coordinates": [ 24.88089442754913, 42.318994464738132 ] } },
{ "type": "Feature", "properties": { "source_tile": "K-35-062-2_Rakovski_x2016_y336.png" }, "geometry": { "type": "Point", "coordinates": [ 24.871012288167982, 42.30655115189461 ] } },
{ "type": "Feature", "properties": { "source_tile": "K-35-062-2_Rakovski_x1680_y672.png" }, "geometry": { "type": "Point", "coordinates": [ 24.868237460455017, 42.304559191874546 ] } },
{ "type": "Feature", "properties": { "source_tile": "K-35-062-2_Rakovski_x2016_y672.png" }, "geometry": { "type": "Point", "coordinates": [ 24.866997306559735, 42.298736939054194 ] } },
{ "type": "Feature", "properties": { "source_tile": "K-35-062-2_Rakovski_x2352_y1344.png" }, "geometry": { "type": "Point", "coordinates": [ 24.902522422487969, 42.259830094266782 ] } },
{ "type": "Feature", "properties": { "source_tile": "K-35-062-2_Rakovski_x2352_y1680.png" }, "geometry": { "type": "Point", "coordinates": [ 24.902804406766663, 42.259658221426804 ] } },
{ "type": "Feature", "properties": { "source_tile": "K-35-062-2_Rakovski_x2352_y1344.png" }, "geometry": { "type": "Point", "coordinates": [ 24.904448030253825, 42.258032221012826 ] } },
{ "type": "Feature", "properties": { "source_tile": "K-35-062-2_Rakovski_x2352_y1680.png" }, "geometry": { "type": "Point", "coordinates": [ 24.907976308710861, 42.256986161484562 ] } },
{ "type": "Feature", "properties": { "source_tile": "K-35-062-2_Rakovski_x2352_y2016.png" }, "geometry": { "type": "Point", "coordinates": [ 24.892459400589431, 42.227591480781889 ] } },
{ "type": "Feature", "properties": { "source_tile": "K-35-062-2_Rakovski_x2352_y2352.png" }, "geometry": { "type": "Point", "coordinates": [ 24.892408916961692, 42.221003036576398 ] } },
{ "type": "Feature", "properties": { "source_tile": "K-35-062-2_Rakovski_x2352_y2688.png" }, "geometry": { "type": "Point", "coordinates": [ 24.901581267493228, 42.205816711638256 ] } },
{ "type": "Feature", "properties": { "source_tile": "K-35-062-2_Rakovski_x2352_y2688.png" }, "geometry": { "type": "Point", "coordinates": [ 24.898341646465919, 42.203210792705242 ] } },
{ "type": "Feature", "properties": { "source_tile": "K-35-062-2_Rakovski_x2352_y2688.png" }, "geometry": { "type": "Point", "coordinates": [ 24.907117835497708, 42.2028888120402 ] } },
{ "type": "Feature", "properties": { "source_tile": "K-35-062-2_Rakovski_x2352_y3024.png" }, "geometry": { "type": "Point", "coordinates": [ 24.902940176446887, 42.182891018890409 ] } },
{ "type": "Feature", "properties": { "source_tile": "K-35-062-2_Rakovski_x2688_y0.png" }, "geometry": { "type": "Point", "coordinates": [ 24.927275019215749, 42.331879957717263 ] } },
{ "type": "Feature", "properties": { "source_tile": "K-35-062-2_Rakovski_x2688_y0.png" }, "geometry": { "type": "Point", "coordinates": [ 24.926652245223636, 42.328542222583806 ] } },
{ "type": "Feature", "properties": { "source_tile": "K-35-062-2_Rakovski_x2688_y0.png" }, "geometry": { "type": "Point", "coordinates": [ 24.918772455069561, 42.327255661147994 ] } },
{ "type": "Feature", "properties": { "source_tile": "K-35-062-2_Rakovski_x2688_y0.png" }, "geometry": { "type": "Point", "coordinates": [ 24.911944749896744, 42.321944243077589 ] } },
{ "type": "Feature", "properties": { "source_tile": "K-35-062-2_Rakovski_x2688_y1008.png" }, "geometry": { "type": "Point", "coordinates": [ 24.930865733360847, 42.27648106768774 ] } },
{ "type": "Feature", "properties": { "source_tile": "K-35-062-2_Rakovski_x2688_y1344.png" }, "geometry": { "type": "Point", "coordinates": [ 24.914500812329383, 42.267999424457422 ] } },
{ "type": "Feature", "properties": { "source_tile": "K-35-062-2_Rakovski_x2688_y1344.png" }, "geometry": { "type": "Point", "coordinates": [ 24.920421698847964, 42.268440218128504 ] } },
{ "type": "Feature", "properties": { "source_tile": "K-35-062-2_Rakovski_x2688_y1344.png" }, "geometry": { "type": "Point", "coordinates": [ 24.918230843924118, 42.26372300223872 ] } },
{ "type": "Feature", "properties": { "source_tile": "K-35-062-2_Rakovski_x2688_y1680.png" }, "geometry": { "type": "Point", "coordinates": [ 24.931306035642901, 42.247874070696206 ] } },
{ "type": "Feature", "properties": { "source_tile": "K-35-062-2_Rakovski_x2688_y2688.png" }, "geometry": { "type": "Point", "coordinates": [ 24.926406930835043, 42.204664202772697 ] } },
{ "type": "Feature", "properties": { "source_tile": "K-35-062-2_Rakovski_x2688_y2688.png" }, "geometry": { "type": "Point", "coordinates": [ 24.931008889644918, 42.200849124873564 ] } },
{ "type": "Feature", "properties": { "source_tile": "K-35-062-2_Rakovski_x2688_y336.png" }, "geometry": { "type": "Point", "coordinates": [ 24.917105073489967, 42.316473398004732 ] } },
{ "type": "Feature", "properties": { "source_tile": "K-35-062-2_Rakovski_x2688_y336.png" }, "geometry": { "type": "Point", "coordinates": [ 24.921690384760055, 42.317131109918108 ] } },
{ "type": "Feature", "properties": { "source_tile": "K-35-062-2_Rakovski_x2688_y0.png" }, "geometry": { "type": "Point", "coordinates": [ 24.928507659751677, 42.319729324589836 ] } },
{ "type": "Feature", "properties": { "source_tile": "K-35-062-2_Rakovski_x2688_y336.png" }, "geometry": { "type": "Point", "coordinates": [ 24.916576658373206, 42.312572599392439 ] } },
{ "type": "Feature", "properties": { "source_tile": "K-35-062-2_Rakovski_x2688_y336.png" }, "geometry": { "type": "Point", "coordinates": [ 24.921578688714323, 42.311359977938004 ] } },
{ "type": "Feature", "properties": { "source_tile": "K-35-062-2_Rakovski_x2688_y336.png" }, "geometry": { "type": "Point", "coordinates": [ 24.929670884940531, 42.311744199141373 ] } },
{ "type": "Feature", "properties": { "source_tile": "K-35-062-2_Rakovski_x2688_y3360.png" }, "geometry": { "type": "Point", "coordinates": [ 24.926033635960415, 42.174827264635951 ] } },
{ "type": "Feature", "properties": { "source_tile": "K-35-062-2_Rakovski_x3024_y0.png" }, "geometry": { "type": "Point", "coordinates": [ 24.927750693250541, 42.33189325927777 ] } },
{ "type": "Feature", "properties": { "source_tile": "K-35-062-2_Rakovski_x3024_y0.png" }, "geometry": { "type": "Point", "coordinates": [ 24.9368357906977, 42.332134677382783 ] } },
{ "type": "Feature", "properties": { "source_tile": "K-35-062-2_Rakovski_x3024_y0.png" }, "geometry": { "type": "Point", "coordinates": [ 24.934368675123316, 42.330184565685805 ] } },
{ "type": "Feature", "properties": { "source_tile": "K-35-062-2_Rakovski_x3024_y0.png" }, "geometry": { "type": "Point", "coordinates": [ 24.930935552316225, 42.323102184264641 ] } },
{ "type": "Feature", "properties": { "source_tile": "K-35-062-2_Rakovski_x3024_y1008.png" }, "geometry": { "type": "Point", "coordinates": [ 24.940220224803156, 42.286309889827805 ] } },
{ "type": "Feature", "properties": { "source_tile": "K-35-062-2_Rakovski_x3024_y1680.png" }, "geometry": { "type": "Point", "coordinates": [ 24.943421851875101, 42.249706163479495 ] } },
{ "type": "Feature", "properties": { "source_tile": "K-35-062-2_Rakovski_x3024_y1680.png" }, "geometry": { "type": "Point", "coordinates": [ 24.950376191968889, 42.244446830351954 ] } },
{ "type": "Feature", "properties": { "source_tile": "K-35-062-2_Rakovski_x3024_y2016.png" }, "geometry": { "type": "Point", "coordinates": [ 24.950727095953148, 42.244539015810062 ] } },
{ "type": "Feature", "properties": { "source_tile": "K-35-062-2_Rakovski_x3024_y3024.png" }, "geometry": { "type": "Point", "coordinates": [ 24.949500129461502, 42.187888119437737 ] } },
{ "type": "Feature", "properties": { "source_tile": "K-35-062-2_Rakovski_x3024_y336.png" }, "geometry": { "type": "Point", "coordinates": [ 24.945342814539455, 42.316898435840635 ] } },
{ "type": "Feature", "properties": { "source_tile": "K-35-062-2_Rakovski_x3024_y336.png" }, "geometry": { "type": "Point", "coordinates": [ 24.945398013145333, 42.316154421745651 ] } },
{ "type": "Feature", "properties": { "source_tile": "K-35-062-2_Rakovski_x3024_y3360.png" }, "geometry": { "type": "Point", "coordinates": [ 24.938703002493043, 42.174630466005873 ] } },
{ "type": "Feature", "properties": { "source_tile": "K-35-062-2_Rakovski_x3024_y3360.png" }, "geometry": { "type": "Point", "coordinates": [ 24.94247604748826, 42.171678225624419 ] } },
{ "type": "Feature", "properties": { "source_tile": "K-35-062-2_Rakovski_x3024_y672.png" }, "geometry": { "type": "Point", "coordinates": [ 24.937746547377298, 42.296668598256247 ] } },
{ "type": "Feature", "properties": { "source_tile": "K-35-062-2_Rakovski_x3360_y1344.png" }, "geometry": { "type": "Point", "coordinates": [ 24.972189209391676, 42.270437462544024 ] } },
{ "type": "Feature", "properties": { "source_tile": "K-35-062-2_Rakovski_x3360_y1344.png" }, "geometry": { "type": "Point", "coordinates": [ 24.965134086838642, 42.261383736537866 ] } },
{ "type": "Feature", "properties": { "source_tile": "K-35-062-2_Rakovski_x3360_y1680.png" }, "geometry": { "type": "Point", "coordinates": [ 24.970711457016943, 42.253368609523051 ] } },
{ "type": "Feature", "properties": { "source_tile": "K-35-062-2_Rakovski_x3360_y1680.png" }, "geometry": { "type": "Point", "coordinates": [ 24.955886413042325, 42.249587160425151 ] } },
{ "type": "Feature", "properties": { "source_tile": "K-35-062-2_Rakovski_x3360_y2352.png" }, "geometry": { "type": "Point", "coordinates": [ 24.969539439154818, 42.216297627341987 ] } },
{ "type": "Feature", "properties": { "source_tile": "K-35-062-2_Rakovski_x3360_y2352.png" }, "geometry": { "type": "Point", "coordinates": [ 24.97100851091216, 42.215967829824031 ] } },
{ "type": "Feature", "properties": { "source_tile": "K-35-062-2_Rakovski_x3360_y3360.png" }, "geometry": { "type": "Point", "coordinates": [ 24.975023853477651, 42.179104644336704 ] } },
{ "type": "Feature", "properties": { "source_tile": "K-35-062-2_Rakovski_x336_y0.png" }, "geometry": { "type": "Point", "coordinates": [ 24.77676080396153, 42.329181320221323 ] } },
{ "type": "Feature", "properties": { "source_tile": "K-35-062-2_Rakovski_x336_y1008.png" }, "geometry": { "type": "Point", "coordinates": [ 24.77795952313652, 42.279771814953456 ] } },
{ "type": "Feature", "properties": { "source_tile": "K-35-062-2_Rakovski_x336_y1008.png" }, "geometry": { "type": "Point", "coordinates": [ 24.769000495986404, 42.274955108302962 ] } },
{ "type": "Feature", "properties": { "source_tile": "K-35-062-2_Rakovski_x336_y336.png" }, "geometry": { "type": "Point", "coordinates": [ 24.77524914101102, 42.306041070250963 ] } },
{ "type": "Feature", "properties": { "source_tile": "K-35-062-2_Rakovski_x336_y336.png" }, "geometry": { "type": "Point", "coordinates": [ 24.770764801595512, 42.301927400883933 ] } },
{ "type": "Feature", "properties": { "source_tile": "K-35-062-2_Rakovski_x336_y672.png" }, "geometry": { "type": "Point", "coordinates": [ 24.770785203579827, 42.300686858914275 ] } },
{ "type": "Feature", "properties": { "source_tile": "K-35-062-2_Rakovski_x336_y672.png" }, "geometry": { "type": "Point", "coordinates": [ 24.776437010493858, 42.300459936500552 ] } },
{ "type": "Feature", "properties": { "source_tile": "K-35-062-2_Rakovski_x3696_y1008.png" }, "geometry": { "type": "Point", "coordinates": [ 24.975979639321288, 42.290586546085244 ] } },
{ "type": "Feature", "properties": { "source_tile": "K-35-062-2_Rakovski_x3696_y1008.png" }, "geometry": { "type": "Point", "coordinates": [ 24.983782683955532, 42.287377661917219 ] } },
{ "type": "Feature", "properties": { "source_tile": "K-35-062-2_Rakovski_x3696_y1008.png" }, "geometry": { "type": "Point", "coordinates": [ 24.984914446648222, 42.282232398169597 ] } },
{ "type": "Feature", "properties": { "source_tile": "K-35-062-2_Rakovski_x3696_y1008.png" }, "geometry": { "type": "Point", "coordinates": [ 24.989857307526758, 42.276956725974522 ] } },
{ "type": "Feature", "properties": { "source_tile": "K-35-062-2_Rakovski_x3696_y1344.png" }, "geometry": { "type": "Point", "coordinates": [ 24.983131556337757, 42.274964863595962 ] } },
{ "type": "Feature", "properties": { "source_tile": "K-35-062-2_Rakovski_x3696_y1680.png" }, "geometry": { "type": "Point", "coordinates": [ 24.982349073126258, 42.252536107981854 ] } },
{ "type": "Feature", "properties": { "source_tile": "K-35-062-2_Rakovski_x3696_y2016.png" }, "geometry": { "type": "Point", "coordinates": [ 24.983535023064817, 42.242004428274264 ] } },
{ "type": "Feature", "properties": { "source_tile": "K-35-062-2_Rakovski_x3696_y2016.png" }, "geometry": { "type": "Point", "coordinates": [ 24.987000152694694, 42.241822332348875 ] } },
{ "type": "Feature", "properties": { "source_tile": "K-35-062-2_Rakovski_x3696_y2352.png" }, "geometry": { "type": "Point", "coordinates": [ 24.976166501119632, 42.222116308951229 ] } },
{ "type": "Feature", "properties": { "source_tile": "K-35-062-2_Rakovski_x3696_y2688.png" }, "geometry": { "type": "Point", "coordinates": [ 24.990455609170034, 42.209190765467255 ] } },
{ "type": "Feature", "properties": { "source_tile": "K-35-062-2_Rakovski_x3696_y336.png" }, "geometry": { "type": "Point", "coordinates": [ 24.978432673296432, 42.317899436406719 ] } },
{ "type": "Feature", "properties": { "source_tile": "K-35-062-2_Rakovski_x3696_y336.png" }, "geometry": { "type": "Point", "coordinates": [ 24.983835780651212, 42.316809620930506 ] } },
{ "type": "Feature", "properties": { "source_tile": "K-35-062-2_Rakovski_x3696_y3360.png" }, "geometry": { "type": "Point", "coordinates": [ 24.975689684121033, 42.179055652568437 ] } },
{ "type": "Feature", "properties": { "source_tile": "K-35-062-2_Rakovski_x3696_y1008.png" }, "geometry": { "type": "Point", "coordinates": [ 24.990139912927976, 42.276999285760631 ] } },
{ "type": "Feature", "properties": { "source_tile": "K-35-062-2_Rakovski_x4032_y3024.png" }, "geometry": { "type": "Point", "coordinates": [ 24.997191573892309, 42.187742542578164 ] } },
{ "type": "Feature", "properties": { "source_tile": "K-35-062-2_Rakovski_x3696_y3360.png" }, "geometry": { "type": "Point", "coordinates": [ 24.995002232716899, 42.169216296188793 ] } },
{ "type": "Feature", "properties": { "source_tile": "K-35-062-2_Rakovski_x4032_y3360.png" }, "geometry": { "type": "Point", "coordinates": [ 24.997887898152765, 42.169007666519235 ] } },
{ "type": "Feature", "properties": { "source_tile": "K-35-062-2_Rakovski_x4032_y672.png" }, "geometry": { "type": "Point", "coordinates": [ 24.994984103952529, 42.303064391635935 ] } },
{ "type": "Feature", "properties": { "source_tile": "K-35-062-2_Rakovski_x672_y1008.png" }, "geometry": { "type": "Point", "coordinates": [ 24.788596938495072, 42.28535740422587 ] } },
{ "type": "Feature", "properties": { "source_tile": "K-35-062-2_Rakovski_x672_y1008.png" }, "geometry": { "type": "Point", "coordinates": [ 24.79860979012653, 42.284432851538945 ] } },
{ "type": "Feature", "properties": { "source_tile": "K-35-062-2_Rakovski_x672_y1008.png" }, "geometry": { "type": "Point", "coordinates": [ 24.795434772701398, 42.272568392320302 ] } },
{ "type": "Feature", "properties": { "source_tile": "K-35-062-2_Rakovski_x672_y1344.png" }, "geometry": { "type": "Point", "coordinates": [ 24.788910334142543, 42.260609625312021 ] } },
{ "type": "Feature", "properties": { "source_tile": "K-35-062-2_Rakovski_x672_y1680.png" }, "geometry": { "type": "Point", "coordinates": [ 24.791024952007838, 42.250067614702139 ] } },
{ "type": "Feature", "properties": { "source_tile": "K-35-062-2_Rakovski_x672_y672.png" }, "geometry": { "type": "Point", "coordinates": [ 24.790801673055189, 42.291358611590262 ] } },
{ "type": "Feature", "properties": { "source_tile": "K-35-078-1_Lesovo_x0_y3024.png" }, "geometry": { "type": "Point", "coordinates": [ 26.520422193142316, 41.852986090350356 ] } },
{ "type": "Feature", "properties": { "source_tile": "K-35-078-1_Lesovo_x0_y3360.png" }, "geometry": { "type": "Point", "coordinates": [ 26.506738012060158, 41.842311803280055 ] } },
{ "type": "Feature", "properties": { "source_tile": "K-35-078-1_Lesovo_x0_y3360.png" }, "geometry": { "type": "Point", "coordinates": [ 26.509413248639824, 41.838182004594941 ] } },
{ "type": "Feature", "properties": { "source_tile": "K-35-078-1_Lesovo_x2016_y0.png" }, "geometry": { "type": "Point", "coordinates": [ 26.641819725618312, 41.994045529417306 ] } },
{ "type": "Feature", "properties": { "source_tile": "K-35-078-1_Lesovo_x2352_y0.png" }, "geometry": { "type": "Point", "coordinates": [ 26.650097521626236, 41.98571304797732 ] } },
{ "type": "Feature", "properties": { "source_tile": "K-35-078-1_Lesovo_x2352_y0.png" }, "geometry": { "type": "Point", "coordinates": [ 26.659446329849143, 41.984270866333254 ] } },
{ "type": "Feature", "properties": { "source_tile": "K-35-078-1_Lesovo_x2352_y336.png" }, "geometry": { "type": "Point", "coordinates": [ 26.65325849557513, 41.975723636483565 ] } },
{ "type": "Feature", "properties": { "source_tile": "K-35-078-1_Lesovo_x2688_y1680.png" }, "geometry": { "type": "Point", "coordinates": [ 26.678223121347433, 41.916381409039211 ] } },
{ "type": "Feature", "properties": { "source_tile": "K-35-078-1_Lesovo_x336_y2352.png" }, "geometry": { "type": "Point", "coordinates": [ 26.534745273799164, 41.88305871997575 ] } },
{ "type": "Feature", "properties": { "source_tile": "K-35-078-1_Lesovo_x336_y3360.png" }, "geometry": { "type": "Point", "coordinates": [ 26.538976509495079, 41.841680471406981 ] } },
{ "type": "Feature", "properties": { "source_tile": "K-35-078-1_Lesovo_x336_y3360.png" }, "geometry": { "type": "Point", "coordinates": [ 26.536955559075007, 41.837079934259009 ] } },
{ "type": "Feature", "properties": { "source_tile": "K-35-078-1_Lesovo_x3696_y0.png" }, "geometry": { "type": "Point", "coordinates": [ 26.727779443730583, 41.995913825611261 ] } },
{ "type": "Feature", "properties": { "source_tile": "K-35-078-1_Lesovo_x3696_y336.png" }, "geometry": { "type": "Point", "coordinates": [ 26.744213313102492, 41.977714667303069 ] } },
{ "type": "Feature", "properties": { "source_tile": "K-35-053-3_Elenovo_x3024_y1680.png" }, "geometry": { "type": "Point", "coordinates": [ 26.203764664318761, 42.423053143334428 ] } },
{ "type": "Feature", "properties": { "source_tile": "K-35-053-3_Elenovo_x3024_y1680.png" }, "geometry": { "type": "Point", "coordinates": [ 26.186233014616281, 42.41928507680278 ] } },
{ "type": "Feature", "properties": { "source_tile": "K-35-053-3_Elenovo_x3024_y1680.png" }, "geometry": { "type": "Point", "coordinates": [ 26.20026901761301, 42.416394698516704 ] } },
{ "type": "Feature", "properties": { "source_tile": "K-35-053-3_Elenovo_x3024_y1680.png" }, "geometry": { "type": "Point", "coordinates": [ 26.196333360775508, 42.411477783238148 ] } },
{ "type": "Feature", "properties": { "source_tile": "K-35-062-2_Rakovski_x2352_y2016.png" }, "geometry": { "type": "Point", "coordinates": [ 24.897023622225582, 42.234625541965563 ] } },
{ "type": "Feature", "properties": { "source_tile": "K-35-062-2_Rakovski_x2352_y2016.png" }, "geometry": { "type": "Point", "coordinates": [ 24.9019030725573, 42.231578689271643 ] } },
{ "type": "Feature", "properties": { "source_tile": "K-35-062-2_Rakovski_x336_y1344.png" }, "geometry": { "type": "Point", "coordinates": [ 24.77467807376501, 42.268502346361998 ] } },
{ "type": "Feature", "properties": { "source_tile": "K-35-062-2_Rakovski_x336_y1344.png" }, "geometry": { "type": "Point", "coordinates": [ 24.775988447377284, 42.268434922628977 ] } },
{ "type": "Feature", "properties": { "source_tile": "K-35-062-2_Rakovski_x336_y1344.png" }, "geometry": { "type": "Point", "coordinates": [ 24.779831714951765, 42.268055565475443 ] } },
{ "type": "Feature", "properties": { "source_tile": "K-35-062-2_Rakovski_x336_y1344.png" }, "geometry": { "type": "Point", "coordinates": [ 24.7778179442385, 42.263269710943135 ] } },
{ "type": "Feature", "properties": { "source_tile": "K-35-062-2_Rakovski_x336_y1344.png" }, "geometry": { "type": "Point", "coordinates": [ 24.775092845956681, 42.256795170617465 ] } },
{ "type": "Feature", "properties": { "source_tile": "K-35-062-2_Rakovski_x336_y1344.png" }, "geometry": { "type": "Point", "coordinates": [ 24.770995254653052, 42.255824344807912 ] } },
{ "type": "Feature", "properties": { "source_tile": "K-35-052-4_32635_x0_y1344.png" }, "geometry": { "type": "Point", "coordinates": [ 25.750403009243051, 42.424932249062088 ] } },
{ "type": "Feature", "properties": { "source_tile": "K-35-052-4_32635_x0_y2352.png" }, "geometry": { "type": "Point", "coordinates": [ 25.769643156217953, 42.384714752679095 ] } },
{ "type": "Feature", "properties": { "source_tile": "K-35-052-4_32635_x0_y672.png" }, "geometry": { "type": "Point", "coordinates": [ 25.762140474773801, 42.466845093252431 ] } },
{ "type": "Feature", "properties": { "source_tile": "K-35-052-4_32635_x2352_y3024.png" }, "geometry": { "type": "Point", "coordinates": [ 25.896079238364671, 42.363298346814176 ] } },
{ "type": "Feature", "properties": { "source_tile": "K-35-052-4_32635_x3024_y2016.png" }, "geometry": { "type": "Point", "coordinates": [ 25.944274010815327, 42.408212520275882 ] } },
{ "type": "Feature", "properties": { "source_tile": "K-35-052-4_32635_x336_y1008.png" }, "geometry": { "type": "Point", "coordinates": [ 25.786403420709767, 42.437421607681372 ] } },
{ "type": "Feature", "properties": { "source_tile": "K-35-052-4_32635_x336_y2352.png" }, "geometry": { "type": "Point", "coordinates": [ 25.777204123730886, 42.392829406956913 ] } },
{ "type": "Feature", "properties": { "source_tile": "K-35-053-3_Elenovo_x1680_y0.png" }, "geometry": { "type": "Point", "coordinates": [ 26.112429233590841, 42.492309291581563 ] } },
{ "type": "Feature", "properties": { "source_tile": "K-35-053-3_Elenovo_x1680_y1680.png" }, "geometry": { "type": "Point", "coordinates": [ 26.117483769202209, 42.417067628859314 ] } },
{ "type": "Feature", "properties": { "source_tile": "K-35-053-3_Elenovo_x3024_y2016.png" }, "geometry": { "type": "Point", "coordinates": [ 26.198478466356555, 42.407414264215944 ] } },
{ "type": "Feature", "properties": { "source_tile": "K-35-053-3_Elenovo_x336_y2352.png" }, "geometry": { "type": "Point", "coordinates": [ 26.034139377259777, 42.392052726581241 ] } },
{ "type": "Feature", "properties": { "source_tile": "K-35-053-3_Elenovo_x4032_y1680.png" }, "geometry": { "type": "Point", "coordinates": [ 26.247980293494525, 42.409704644523153 ] } },
{ "type": "Feature", "properties": { "source_tile": "K-35-053-3_Elenovo_x672_y2352.png" }, "geometry": { "type": "Point", "coordinates": [ 26.050348845482844, 42.390702450229142 ] } },
{ "type": "Feature", "properties": { "source_tile": "K-35-053-3_Elenovo_x672_y336.png" }, "geometry": { "type": "Point", "coordinates": [ 26.052292129598214, 42.47747341681562 ] } },
{ "type": "Feature", "properties": { "source_tile": "K-35-053-3_Elenovo_x672_y672.png" }, "geometry": { "type": "Point", "coordinates": [ 26.043743124144569, 42.454361313367009 ] } },
{ "type": "Feature", "properties": { "source_tile": "K-35-062-2_Rakovski_x0_y1344.png" }, "geometry": { "type": "Point", "coordinates": [ 24.763426271515765, 42.261270148508089 ] } },
{ "type": "Feature", "properties": { "source_tile": "K-35-062-2_Rakovski_x1344_y1344.png" }, "geometry": { "type": "Point", "coordinates": [ 24.834461053846091, 42.265894061632714 ] } },
{ "type": "Feature", "properties": { "source_tile": "K-35-062-2_Rakovski_x1680_y1680.png" }, "geometry": { "type": "Point", "coordinates": [ 24.866542810124713, 42.24651883827466 ] } },
{ "type": "Feature", "properties": { "source_tile": "K-35-062-2_Rakovski_x2016_y0.png" }, "geometry": { "type": "Point", "coordinates": [ 24.868940785467583, 42.32566889475271 ] } },
{ "type": "Feature", "properties": { "source_tile": "K-35-062-2_Rakovski_x2016_y0.png" }, "geometry": { "type": "Point", "coordinates": [ 24.873128361361658, 42.323298057677654 ] } },
{ "type": "Feature", "properties": { "source_tile": "K-35-062-2_Rakovski_x2688_y3024.png" }, "geometry": { "type": "Point", "coordinates": [ 24.927546173315683, 42.197255034421701 ] } },
{ "type": "Feature", "properties": { "source_tile": "K-35-062-2_Rakovski_x3024_y0.png" }, "geometry": { "type": "Point", "coordinates": [ 24.937611888714567, 42.326442027003985 ] } },
{ "type": "Feature", "properties": { "source_tile": "K-35-062-2_Rakovski_x336_y0.png" }, "geometry": { "type": "Point", "coordinates": [ 24.78090984905311, 42.332517083619138 ] } },
{ "type": "Feature", "properties": { "source_tile": "K-35-062-2_Rakovski_x336_y1008.png" }, "geometry": { "type": "Point", "coordinates": [ 24.771289492728823, 42.278261378083577 ] } },
{ "type": "Feature", "properties": { "source_tile": "K-35-062-2_Rakovski_x336_y1344.png" }, "geometry": { "type": "Point", "coordinates": [ 24.778184472258037, 42.267385821947336 ] } },
{ "type": "Feature", "properties": { "source_tile": "K-35-062-2_Rakovski_x3696_y1008.png" }, "geometry": { "type": "Point", "coordinates": [ 24.98222640485281, 42.275011851586989 ] } },
{ "type": "Feature", "properties": { "source_tile": "K-35-078-1_Lesovo_x336_y3360.png" }, "geometry": { "type": "Point", "coordinates": [ 26.536118743431725, 41.833463449332093 ] } },
{ "type": "Feature", "properties": { "source_tile": "K-35-078-1_Lesovo_x672_y0.png" }, "geometry": { "type": "Point", "coordinates": [ 26.545354125283488, 41.98358496592536 ] } },
{ "type": "Feature", "properties": { "source_tile": "K-35-052-4_32635_x0_y3024.png" }, "geometry": { "type": "Point", "coordinates": [ 25.757135748232713, 42.35497442873212 ] } },
{ "type": "Feature", "properties": { "source_tile": "K-35-052-4_32635_x1008_y336.png" }, "geometry": { "type": "Point", "coordinates": [ 25.826034883678034, 42.481941601871462 ] } },
{ "type": "Feature", "properties": { "source_tile": "K-35-052-4_32635_x1008_y672.png" }, "geometry": { "type": "Point", "coordinates": [ 25.826018545460631, 42.466538313431357 ] } },
{ "type": "Feature", "properties": { "source_tile": "K-35-053-3_Elenovo_x3360_y1680.png" }, "geometry": { "type": "Point", "coordinates": [ 26.212429519724573, 42.417271266797798 ] } },
{ "type": "Feature", "properties": { "source_tile": "K-35-053-3_Elenovo_x3696_y3024.png" }, "geometry": { "type": "Point", "coordinates": [ 26.243076228801598, 42.35020632470377 ] } },
{ "type": "Feature", "properties": { "source_tile": "K-35-062-2_Rakovski_x1680_y672.png" }, "geometry": { "type": "Point", "coordinates": [ 24.866973043172088, 42.298993933388019 ] } }
]
}
