{
"type": "FeatureCollection",
"name": "accepted_t0.2",
"crs": { "type": "name", "properties": { "name": "urn:ogc:def:crs:OGC:1.3:CRS84" } },
"features": [
{ "type": "Feature", "properties": { "candidate_id": "3", "mound_probability": 0.2, "source_tile": "K-35-052-4_32635_x0_y1568.png" }, "geometry": { "type": "Point", "coordinates": [ 25.75088187117483, 42.424921297451363 ] } },
{ "type": "Feature", "properties": { "candidate_id": "5", "mound_probability": 1.0, "source_tile": "K-35-052-4_32635_x0_y2016.png" }, "geometry": { "type": "Point", "coordinates": [ 25.75194370121816, 42.401177105782487 ] } },
{ "type": "Feature", "properties": { "candidate_id": "9", "mound_probability": 1.0, "source_tile": "K-35-052-4_32635_x0_y2688.png" }, "geometry": { "type": "Point", "coordinates": [ 25.750706356933822, 42.372649893475 ] } },
{ "type": "Feature", "properties": { "candidate_id": "10", "mound_probability": 1.0, "source_tile": "K-35-052-4_32635_x0_y2912.png" }, "geometry": { "type": "Point", "coordinates": [ 25.751801193857602, 42.365191741876949 ] } },
{ "type": "Feature", "properties": { "candidate_id": "11", "mound_probability": 1.0, "source_tile": "K-35-052-4_32635_x0_y3136.png" }, "geometry": { "type": "Point", "coordinates": [ 25.757069416773355, 42.35490267032516 ] } },
{ "type": "Feature", "properties": { "candidate_id": "16", "mound_probability": 0.3, "source_tile": "K-35-052-4_32635_x1120_y224.png" }, "geometry": { "type": "Point", "coordinates": [ 25.827016461871739, 42.479226221711762 ] } },
{ "type": "Feature", "properties": { "candidate_id": "19", "mound_probability": 0.95, "source_tile": "K-35-052-4_32635_x1120_y3360.png" }, "geometry": { "type": "Point", "coordinates": [ 25.824344110901059, 42.338309275278569 ] } },
{ "type": "Feature", "properties": { "candidate_id": "20", "mound_probability": 1.0, "source_tile": "K-35-052-4_32635_x1120_y672.png" }, "geometry": { "type": "Point", "coordinates": [ 25.826042101938679, 42.466488308266072 ] } },
{ "type": "Feature", "properties": { "candidate_id": "24", "mound_probability": 0.85, "source_tile": "K-35-052-4_32635_x1344_y448.png" }, "geometry": { "type": "Point", "coordinates": [ 25.835973818172075, 42.472641135341981 ] } },
{ "type": "Feature", "properties": { "candidate_id": "31", "mound_probability": 0.95, "source_tile": "K-35-052-4_32635_x1792_y0.png" }, "geometry": { "type": "Point", "coordinates": [ 25.863728080566595, 42.496020301738376 ] } },
{ "type": "Feature", "properties": { "candidate_id": "32", "mound_probability": 0.95, "source_tile": "K-35-052-4_32635_x1792_y0.png" }, "geometry": { "type": "Point", "coordinates": [ 25.863830633763953, 42.494925141039346 ] } },
{ "type": "Feature", "properties": { "candidate_id": "33", "mound_probability": 0.2, "source_tile": "K-35-052-4_32635_x1792_y0.png" }, "geometry": { "type": "Point", "coordinates": [ 25.8696040912195, 42.494628202629315 ] } },
{ "type": "Feature", "properties": { "candidate_id": "34", "mound_probability": 1.0, "source_tile": "K-35-052-4_32635_x1792_y224.png" }, "geometry": { "type": "Point", "coordinates": [ 25.864860610460404, 42.485787051393892 ] } },
{ "type": "Feature", "properties": { "candidate_id": "35", "mound_probability": 0.95, "source_tile": "K-35-052-4_32635_x1792_y2912.png" }, "geometry": { "type": "Point", "coordinates": [ 25.867470379255092, 42.364508812411827 ] } },
{ "type": "Feature", "properties": { "candidate_id": "40", "mound_probability": 0.85, "source_tile": "K-35-052-4_32635_x2016_y0.png" }, "geometry": { "type": "Point", "coordinates": [ 25.870891153019659, 42.496788775742232 ] } },
{ "type": "Feature", "properties": { "candidate_id": "41", "mound_probability": 1.0, "source_tile": "K-35-052-4_32635_x2016_y0.png" }, "geometry": { "type": "Point", "coordinates": [ 25.871051440809627, 42.496121559565317 ] } },
{ "type": "Feature", "properties": { "candidate_id": "42", "mound_probability": 0.2, "source_tile": "K-35-052-4_32635_x2016_y0.png" }, "geometry": { "type": "Point", "coordinates": [ 25.870453388772226, 42.49344625945421 ] } },
{ "type": "Feature", "properties": { "candidate_id": "47", "mound_probability": 1.0, "source_tile": "K-35-052-4_32635_x2016_y224.png" }, "geometry": { "type": "Point", "coordinates": [ 25.870731660488296, 42.483618043373582 ] } },
{ "type": "Feature", "properties": { "candidate_id": "48", "mound_probability": 0.85, "source_tile": "K-35-052-4_32635_x2016_y2912.png" }, "geometry": { "type": "Point", "coordinates": [ 25.883885046298953, 42.363246696282658 ] } },
{ "type": "Feature", "properties": { "candidate_id": "52", "mound_probability": 0.95, "source_tile": "K-35-052-4_32635_x2016_y896.png" }, "geometry": { "type": "Point", "coordinates": [ 25.879976320535953, 42.450284994494055 ] } },
{ "type": "Feature", "properties": { "candidate_id": "53", "mound_probability": 0.4, "source_tile": "K-35-052-4_32635_x2016_y896.png" }, "geometry": { "type": "Point", "coordinates": [ 25.873028875881232, 42.451436672432173 ] } },
{ "type": "Feature", "properties": { "candidate_id": "57", "mound_probability": 0.95, "source_tile": "K-35-052-4_32635_x2240_y224.png" }, "geometry": { "type": "Point", "coordinates": [ 25.885816404946727, 42.481665741395545 ] } },
{ "type": "Feature", "properties": { "candidate_id": "58", "mound_probability": 1.0, "source_tile": "K-35-052-4_32635_x2240_y2912.png" }, "geometry": { "type": "Point", "coordinates": [ 25.896062896595577, 42.363297611903249 ] } },
{ "type": "Feature", "properties": { "candidate_id": "59", "mound_probability": 1.0, "source_tile": "K-35-052-4_32635_x2240_y2912.png" }, "geometry": { "type": "Point", "coordinates": [ 25.890864157670215, 42.359640012309228 ] } },
{ "type": "Feature", "properties": { "candidate_id": "60", "mound_probability": 1.0, "source_tile": "K-35-052-4_32635_x2240_y3136.png" }, "geometry": { "type": "Point", "coordinates": [ 25.891585659735167, 42.359352436147667 ] } },
{ "type": "Feature", "properties": { "candidate_id": "65", "mound_probability": 0.95, "source_tile": "K-35-052-4_32635_x224_y1120.png" }, "geometry": { "type": "Point", "coordinates": [ 25.763052143973031, 42.446569234422967 ] } },
{ "type": "Feature", "properties": { "candidate_id": "66", "mound_probability": 1.0, "source_tile": "K-35-052-4_32635_x224_y1120.png" }, "geometry": { "type": "Point", "coordinates": [ 25.772209220713872, 42.446706971233567 ] } },
{ "type": "Feature", "properties": { "candidate_id": "70", "mound_probability": 1.0, "source_tile": "K-35-052-4_32635_x224_y1568.png" }, "geometry": { "type": "Point", "coordinates": [ 25.764850331659218, 42.420291729490302 ] } },
{ "type": "Feature", "properties": { "candidate_id": "71", "mound_probability": 1.0, "source_tile": "K-35-052-4_32635_x224_y1568.png" }, "geometry": { "type": "Point", "coordinates": [ 25.765759270999357, 42.420845571797294 ] } },
{ "type": "Feature", "properties": { "candidate_id": "73", "mound_probability": 0.85, "source_tile": "K-35-052-4_32635_x224_y2016.png" }, "geometry": { "type": "Point", "coordinates": [ 25.772592345161101, 42.405260419821346 ] } },
{ "type": "Feature", "properties": { "candidate_id": "74", "mound_probability": 0.95, "source_tile": "K-35-052-4_32635_x224_y224.png" }, "geometry": { "type": "Point", "coordinates": [ 25.764249551917935, 42.483707870045755 ] } },
{ "type": "Feature", "properties": { "candidate_id": "75", "mound_probability": 1.0, "source_tile": "K-35-052-4_32635_x224_y2240.png" }, "geometry": { "type": "Point", "coordinates": [ 25.768671562768507, 42.393588802184631 ] } },
{ "type": "Feature", "properties": { "candidate_id": "76", "mound_probability": 1.0, "source_tile": "K-35-052-4_32635_x224_y2240.png" }, "geometry": { "type": "Point", "coordinates": [ 25.764863538385548, 42.393641396744833 ] } },
{ "type": "Feature", "properties": { "candidate_id": "77", "mound_probability": 0.95, "source_tile": "K-35-052-4_32635_x224_y2240.png" }, "geometry": { "type": "Point", "coordinates": [ 25.773853939183194, 42.393220430790919 ] } },
{ "type": "Feature", "properties": { "candidate_id": "78", "mound_probability": 0.75, "source_tile": "K-35-052-4_32635_x224_y2240.png" }, "geometry": { "type": "Point", "coordinates": [ 25.775989552320851, 42.392742517520752 ] } },
{ "type": "Feature", "properties": { "candidate_id": "79", "mound_probability": 1.0, "source_tile": "K-35-052-4_32635_x224_y2240.png" }, "geometry": { "type": "Point", "coordinates": [ 25.766085247816278, 42.390460693813232 ] } },
{ "type": "Feature", "properties": { "candidate_id": "80", "mound_probability": 1.0, "source_tile": "K-35-052-4_32635_x224_y2240.png" }, "geometry": { "type": "Point", "coordinates": [ 25.767124536183111, 42.390623194981046 ] } },
{ "type": "Feature", "properties": { "candidate_id": "81", "mound_probability": 1.0, "source_tile": "K-35-052-4_32635_x224_y2240.png" }, "geometry": { "type": "Point", "coordinates": [ 25.763938843025326, 42.389463816643421 ] } },
{ "type": "Feature", "properties": { "candidate_id": "82", "mound_probability": 1.0, "source_tile": "K-35-052-4_32635_x224_y2240.png" }, "geometry": { "type": "Point", "coordinates": [ 25.772430713796943, 42.387608142502302 ] } },
{ "type": "Feature", "properties": { "candidate_id": "83", "mound_probability": 1.0, "source_tile": "K-35-052-4_32635_x224_y2240.png" }, "geometry": { "type": "Point", "coordinates": [ 25.764838218891548, 42.392628098576658 ] } },
{ "type": "Feature", "properties": { "candidate_id": "84", "mound_probability": 1.0, "source_tile": "K-35-052-4_32635_x224_y2464.png" }, "geometry": { "type": "Point", "coordinates": [ 25.769057447913195, 42.385804081492104 ] } },
{ "type": "Feature", "properties": { "candidate_id": "85", "mound_probability": 1.0, "source_tile": "K-35-052-4_32635_x224_y2464.png" }, "geometry": { "type": "Point", "coordinates": [ 25.769393442867283, 42.384716115064577 ] } },
{ "type": "Feature", "properties": { "candidate_id": "86", "mound_probability": 1.0, "source_tile": "K-35-052-4_32635_x224_y2464.png" }, "geometry": { "type": "Point", "coordinates": [ 25.769806591912101, 42.383665938808235 ] } },
{ "type": "Feature", "properties": { "candidate_id": "87", "mound_probability": 1.0, "source_tile": "K-35-052-4_32635_x224_y2464.png" }, "geometry": { "type": "Point", "coordinates": [ 25.775501570601367, 42.387103285764859 ] } },
{ "type": "Feature", "properties": { "candidate_id": "90", "mound_probability": 1.0, "source_tile": "K-35-052-4_32635_x224_y448.png" }, "geometry": { "type": "Point", "coordinates": [ 25.764297865677474, 42.469913188803403 ] } },
{ "type": "Feature", "properties": { "candidate_id": "91", "mound_probability": 1.0, "source_tile": "K-35-052-4_32635_x224_y672.png" }, "geometry": { "type": "Point", "coordinates": [ 25.762300901519041, 42.466819103834069 ] } },
{ "type": "Feature", "properties": { "candidate_id": "94", "mound_probability": 0.95, "source_tile": "K-35-052-4_32635_x2464_y1344.png" }, "geometry": { "type": "Point", "coordinates": [ 25.911319487703224, 42.439824951991589 ] } },
{ "type": "Feature", "properties": { "candidate_id": "97", "mound_probability": 1.0, "source_tile": "K-35-052-4_32635_x2464_y3136.png" }, "geometry": { "type": "Point", "coordinates": [ 25.902525453078798, 42.351207847971956 ] } },
{ "type": "Feature", "properties": { "candidate_id": "98", "mound_probability": 1.0, "source_tile": "K-35-052-4_32635_x2464_y3136.png" }, "geometry": { "type": "Point", "coordinates": [ 25.906645815187986, 42.352747712880223 ] } },
{ "type": "Feature", "properties": { "candidate_id": "99", "mound_probability": 1.0, "source_tile": "K-35-052-4_32635_x2464_y448.png" }, "geometry": { "type": "Point", "coordinates": [ 25.903235834753133, 42.478843242469843 ] } },
{ "type": "Feature", "properties": { "candidate_id": "101", "mound_probability": 1.0, "source_tile": "K-35-052-4_32635_x2464_y896.png" }, "geometry": { "type": "Point", "coordinates": [ 25.904411497120869, 42.453667661696016 ] } },
{ "type": "Feature", "properties": { "candidate_id": "103", "mound_probability": 1.0, "source_tile": "K-35-052-4_32635_x2688_y1120.png" }, "geometry": { "type": "Point", "coordinates": [ 25.918265091571719, 42.439707631011537 ] } },
{ "type": "Feature", "properties": { "candidate_id": "104", "mound_probability": 0.95, "source_tile": "K-35-052-4_32635_x2688_y1792.png" }, "geometry": { "type": "Point", "coordinates": [ 25.921077558432728, 42.414164218029974 ] } },
{ "type": "Feature", "properties": { "candidate_id": "107", "mound_probability": 1.0, "source_tile": "K-35-052-4_32635_x2688_y672.png" }, "geometry": { "type": "Point", "coordinates": [ 25.915896305068287, 42.46895829053777 ] } },
{ "type": "Feature", "properties": { "candidate_id": "114", "mound_probability": 0.85, "source_tile": "K-35-052-4_32635_x2912_y1568.png" }, "geometry": { "type": "Point", "coordinates": [ 25.926869169593065, 42.424921779039749 ] } },
{ "type": "Feature", "properties": { "candidate_id": "126", "mound_probability": 0.95, "source_tile": "K-35-052-4_32635_x3136_y2016.png" }, "geometry": { "type": "Point", "coordinates": [ 25.94413418112519, 42.408139038184977 ] } },
{ "type": "Feature", "properties": { "candidate_id": "127", "mound_probability": 1.0, "source_tile": "K-35-052-4_32635_x3136_y2240.png" }, "geometry": { "type": "Point", "coordinates": [ 25.948773161526731, 42.394491331966449 ] } },
{ "type": "Feature", "properties": { "candidate_id": "128", "mound_probability": 0.85, "source_tile": "K-35-052-4_32635_x2912_y2464.png" }, "geometry": { "type": "Point", "coordinates": [ 25.939881572992277, 42.382013379202526 ] } },
{ "type": "Feature", "properties": { "candidate_id": "130", "mound_probability": 0.85, "source_tile": "K-35-052-4_32635_x3136_y3136.png" }, "geometry": { "type": "Point", "coordinates": [ 25.946097824583262, 42.357297536105719 ] } },
{ "type": "Feature", "properties": { "candidate_id": "131", "mound_probability": 0.4, "source_tile": "K-35-052-4_32635_x3136_y3136.png" }, "geometry": { "type": "Point", "coordinates": [ 25.945837079188518, 42.354261801446256 ] } },
{ "type": "Feature", "properties": { "candidate_id": "132", "mound_probability": 1.0, "source_tile": "K-35-052-4_32635_x3136_y3136.png" }, "geometry": { "type": "Point", "coordinates": [ 25.946289315480207, 42.351802092930491 ] } },
{ "type": "Feature", "properties": { "candidate_id": "133", "mound_probability": 1.0, "source_tile": "K-35-052-4_32635_x3136_y3136.png" }, "geometry": { "type": "Point", "coordinates": [ 25.94617019411335, 42.350822613148381 ] } },
{ "type": "Feature", "properties": { "candidate_id": "142", "mound_probability": 0.3, "source_tile": "K-35-052-4_32635_x3360_y2688.png" }, "geometry": { "type": "Point", "coordinates": [ 25.959140093357167, 42.37077329254673 ] } },
{ "type": "Feature", "properties": { "candidate_id": "146", "mound_probability": 0.95, "source_tile": "K-35-052-4_32635_x3360_y3584.png" }, "geometry": { "type": "Point", "coordinates": [ 25.959195936047177, 42.333696814945988 ] } },
{ "type": "Feature", "properties": { "candidate_id": "149", "mound_probability": 0.95, "source_tile": "K-35-052-4_32635_x3584_y2016.png" }, "geometry": { "type": "Point", "coordinates": [ 25.967425903989845, 42.3996261060705 ] } },
{ "type": "Feature", "properties": { "candidate_id": "151", "mound_probability": 0.95, "source_tile": "K-35-052-4_32635_x3584_y2464.png" }, "geometry": { "type": "Point", "coordinates": [ 25.970232695690775, 42.385092916395145 ] } },
{ "type": "Feature", "properties": { "candidate_id": "157", "mound_probability": 1.0, "source_tile": "K-35-052-4_32635_x3808_y1568.png" }, "geometry": { "type": "Point", "coordinates": [ 25.984367817091368, 42.426941539014827 ] } },
{ "type": "Feature", "properties": { "candidate_id": "160", "mound_probability": 0.95, "source_tile": "K-35-052-4_32635_x3808_y2240.png" }, "geometry": { "type": "Point", "coordinates": [ 25.98699690979333, 42.397184979467568 ] } },
{ "type": "Feature", "properties": { "candidate_id": "161", "mound_probability": 1.0, "source_tile": "K-35-052-4_32635_x3808_y2464.png" }, "geometry": { "type": "Point", "coordinates": [ 25.989309028632395, 42.384693218732771 ] } },
{ "type": "Feature", "properties": { "candidate_id": "162", "mound_probability": 0.4, "source_tile": "K-35-052-4_32635_x3808_y2688.png" }, "geometry": { "type": "Point", "coordinates": [ 25.984843164460059, 42.376007733527238 ] } },
{ "type": "Feature", "properties": { "candidate_id": "176", "mound_probability": 1.0, "source_tile": "K-35-052-4_32635_x448_y1792.png" }, "geometry": { "type": "Point", "coordinates": [ 25.786238978126462, 42.41369935962549 ] } },
{ "type": "Feature", "properties": { "candidate_id": "177", "mound_probability": 1.0, "source_tile": "K-35-052-4_32635_x448_y1792.png" }, "geometry": { "type": "Point", "coordinates": [ 25.788238569025907, 42.413800218291136 ] } },
{ "type": "Feature", "properties": { "candidate_id": "179", "mound_probability": 1.0, "source_tile": "K-35-052-4_32635_x448_y2464.png" }, "geometry": { "type": "Point", "coordinates": [ 25.78578217266568, 42.384930155271213 ] } },
{ "type": "Feature", "properties": { "candidate_id": "182", "mound_probability": 0.2, "source_tile": "K-35-052-4_32635_x448_y3360.png" }, "geometry": { "type": "Point", "coordinates": [ 25.789239706655756, 42.341207702411694 ] } },
{ "type": "Feature", "properties": { "candidate_id": "184", "mound_probability": 1.0, "source_tile": "K-35-052-4_32635_x448_y448.png" }, "geometry": { "type": "Point", "coordinates": [ 25.779443462590223, 42.474863337204482 ] } },
{ "type": "Feature", "properties": { "candidate_id": "185", "mound_probability": 1.0, "source_tile": "K-35-052-4_32635_x448_y448.png" }, "geometry": { "type": "Point", "coordinates": [ 25.779976573464101, 42.469749662427013 ] } },
{ "type": "Feature", "properties": { "candidate_id": "188", "mound_probability": 1.0, "source_tile": "K-35-052-4_32635_x672_y1120.png" }, "geometry": { "type": "Point", "coordinates": [ 25.800387010437042, 42.440429415177881 ] } },
{ "type": "Feature", "properties": { "candidate_id": "189", "mound_probability": 1.0, "source_tile": "K-35-052-4_32635_x672_y1344.png" }, "geometry": { "type": "Point", "coordinates": [ 25.799473788430195, 42.432962553645567 ] } },
{ "type": "Feature", "properties": { "candidate_id": "190", "mound_probability": 0.85, "source_tile": "K-35-052-4_32635_x672_y1568.png" }, "geometry": { "type": "Point", "coordinates": [ 25.795371196907098, 42.422788147808689 ] } },
{ "type": "Feature", "properties": { "candidate_id": "191", "mound_probability": 1.0, "source_tile": "K-35-052-4_32635_x672_y1792.png" }, "geometry": { "type": "Point", "coordinates": [ 25.793202015503567, 42.410703779704995 ] } },
{ "type": "Feature", "properties": { "candidate_id": "194", "mound_probability": 1.0, "source_tile": "K-35-052-4_32635_x672_y2240.png" }, "geometry": { "type": "Point", "coordinates": [ 25.798246162567043, 42.388164113780832 ] } },
{ "type": "Feature", "properties": { "candidate_id": "195", "mound_probability": 1.0, "source_tile": "K-35-052-4_32635_x672_y2464.png" }, "geometry": { "type": "Point", "coordinates": [ 25.794539832589429, 42.386503430052691 ] } },
{ "type": "Feature", "properties": { "candidate_id": "196", "mound_probability": 1.0, "source_tile": "K-35-052-4_32635_x672_y2464.png" }, "geometry": { "type": "Point", "coordinates": [ 25.802728938277429, 42.385343472040773 ] } },
{ "type": "Feature", "properties": { "candidate_id": "201", "mound_probability": 0.2, "source_tile": "K-35-052-4_32635_x672_y3360.png" }, "geometry": { "type": "Point", "coordinates": [ 25.789525073493522, 42.341185303234028 ] } },
{ "type": "Feature", "properties": { "candidate_id": "204", "mound_probability": 0.95, "source_tile": "K-35-052-4_32635_x896_y1120.png" }, "geometry": { "type": "Point", "coordinates": [ 25.803677184917394, 42.448889642435688 ] } },
{ "type": "Feature", "properties": { "candidate_id": "205", "mound_probability": 1.0, "source_tile": "K-35-052-4_32635_x896_y1120.png" }, "geometry": { "type": "Point", "coordinates": [ 25.812697765393157, 42.442156258491792 ] } },
{ "type": "Feature", "properties": { "candidate_id": "206", "mound_probability": 1.0, "source_tile": "K-35-052-4_32635_x896_y1120.png" }, "geometry": { "type": "Point", "coordinates": [ 25.805790501128001, 42.438958807819176 ] } },
{ "type": "Feature", "properties": { "candidate_id": "219", "mound_probability": 1.0, "source_tile": "K-35-053-3_Elenovo_x0_y1792.png" }, "geometry": { "type": "Point", "coordinates": [ 26.010490431310505, 42.417711125581015 ] } },
{ "type": "Feature", "properties": { "candidate_id": "220", "mound_probability": 1.0, "source_tile": "K-35-053-3_Elenovo_x0_y1792.png" }, "geometry": { "type": "Point", "coordinates": [ 26.007404793309618, 42.415181434361259 ] } },
{ "type": "Feature", "properties": { "candidate_id": "221", "mound_probability": 0.2, "source_tile": "K-35-053-3_Elenovo_x0_y1792.png" }, "geometry": { "type": "Point", "coordinates": [ 26.003074488559594, 42.414685296424501 ] } },
{ "type": "Feature", "properties": { "candidate_id": "222", "mound_probability": 0.2, "source_tile": "K-35-053-3_Elenovo_x0_y1792.png" }, "geometry": { "type": "Point", "coordinates": [ 26.003399865299148, 42.413825296480674 ] } },
{ "type": "Feature", "properties": { "candidate_id": "223", "mound_probability": 0.4, "source_tile": "K-35-053-3_Elenovo_x0_y1792.png" }, "geometry": { "type": "Point", "coordinates": [ 26.002943976486815, 42.413280764130185 ] } },
{ "type": "Feature", "properties": { "candidate_id": "224", "mound_probability": 1.0, "source_tile": "K-35-053-3_Elenovo_x0_y1792.png" }, "geometry": { "type": "Point", "coordinates": [ 26.003806290384059, 42.412866664746112 ] } },
{ "type": "Feature", "properties": { "candidate_id": "227", "mound_probability": 1.0, "source_tile": "K-35-053-3_Elenovo_x0_y1792.png" }, "geometry": { "type": "Point", "coordinates": [ 26.005469737509127, 42.410383869650197 ] } },
{ "type": "Feature", "properties": { "candidate_id": "228", "mound_probability": 0.4, "source_tile": "K-35-053-3_Elenovo_x0_y2016.png" }, "geometry": { "type": "Point", "coordinates": [ 26.002074655823012, 42.405287112627867 ] } },
{ "type": "Feature", "properties": { "candidate_id": "229", "mound_probability": 0.95, "source_tile": "K-35-053-3_Elenovo_x0_y224.png" }, "geometry": { "type": "Point", "coordinates": [ 26.002660227184112, 42.479103035979477 ] } },
{ "type": "Feature", "properties": { "candidate_id": "230", "mound_probability": 1.0, "source_tile": "K-35-053-3_Elenovo_x0_y2240.png" }, "geometry": { "type": "Point", "coordinates": [ 26.002943903085097, 42.396456142687406 ] } },
{ "type": "Feature", "properties": { "candidate_id": "234", "mound_probability": 1.0, "source_tile": "K-35-053-3_Elenovo_x0_y672.png" }, "geometry": { "type": "Point", "coordinates": [ 26.00360290326033, 42.461828825335061 ] } },
{ "type": "Feature", "properties": { "candidate_id": "235", "mound_probability": 1.0, "source_tile": "K-35-053-3_Elenovo_x0_y672.png" }, "geometry": { "type": "Point", "coordinates": [ 25.999801239520256, 42.460066601609654 ] } },
{ "type": "Feature", "properties": { "candidate_id": "236", "mound_probability": 0.95, "source_tile": "K-35-053-3_Elenovo_x0_y896.png" }, "geometry": { "type": "Point", "coordinates": [ 26.00412810006355, 42.452509818906606 ] } },
{ "type": "Feature", "properties": { "candidate_id": "237", "mound_probability": 0.95, "source_tile": "K-35-053-3_Elenovo_x1120_y2016.png" }, "geometry": { "type": "Point", "coordinates": [ 26.07552614009925, 42.405643126102575 ] } },
{ "type": "Feature", "properties": { "candidate_id": "238", "mound_probability": 1.0, "source_tile": "K-35-053-3_Elenovo_x1120_y224.png" }, "geometry": { "type": "Point", "coordinates": [ 26.076637949002365, 42.483975251365699 ] } },
{ "type": "Feature", "properties": { "candidate_id": "242", "mound_probability": 1.0, "source_tile": "K-35-053-3_Elenovo_x1120_y3136.png" }, "geometry": { "type": "Point", "coordinates": [ 26.07436950070252, 42.349651075219178 ] } },
{ "type": "Feature", "properties": { "candidate_id": "243", "mound_probability": 1.0, "source_tile": "K-35-053-3_Elenovo_x1120_y3360.png" }, "geometry": { "type": "Point", "coordinates": [ 26.075498502993089, 42.346885695453842 ] } },
{ "type": "Feature", "properties": { "candidate_id": "244", "mound_probability": 1.0, "source_tile": "K-35-053-3_Elenovo_x1120_y3360.png" }, "geometry": { "type": "Point", "coordinates": [ 26.080084078173712, 42.346896012815414 ] } },
{ "type": "Feature", "properties": { "candidate_id": "247", "mound_probability": 0.95, "source_tile": "K-35-053-3_Elenovo_x1344_y0.png" }, "geometry": { "type": "Point", "coordinates": [ 26.090996751170891, 42.494181687413779 ] } },
{ "type": "Feature", "properties": { "candidate_id": "248", "mound_probability": 1.0, "source_tile": "K-35-053-3_Elenovo_x1344_y2016.png" }, "geometry": { "type": "Point", "coordinates": [ 26.083046992214175, 42.404523057950094 ] } },
{ "type": "Feature", "properties": { "candidate_id": "249", "mound_probability": 1.0, "source_tile": "K-35-053-3_Elenovo_x1344_y2016.png" }, "geometry": { "type": "Point", "coordinates": [ 26.089228233157066, 42.40225758699777 ] } },
{ "type": "Feature", "properties": { "candidate_id": "250", "mound_probability": 1.0, "source_tile": "K-35-053-3_Elenovo_x1344_y224.png" }, "geometry": { "type": "Point", "coordinates": [ 26.078836271300727, 42.486345774144894 ] } },
{ "type": "Feature", "properties": { "candidate_id": "255", "mound_probability": 1.0, "source_tile": "K-35-053-3_Elenovo_x1344_y672.png" }, "geometry": { "type": "Point", "coordinates": [ 26.090521787144368, 42.466742041034159 ] } },
{ "type": "Feature", "properties": { "candidate_id": "256", "mound_probability": 0.95, "source_tile": "K-35-053-3_Elenovo_x1344_y672.png" }, "geometry": { "type": "Point", "coordinates": [ 26.091147317447025, 42.465668184749013 ] } },
{ "type": "Feature", "properties": { "candidate_id": "257", "mound_probability": 0.95, "source_tile": "K-35-053-3_Elenovo_x1568_y0.png" }, "geometry": { "type": "Point", "coordinates": [ 26.094313429961939, 42.492989372765443 ] } },
{ "type": "Feature", "properties": { "candidate_id": "258", "mound_probability": 1.0, "source_tile": "K-35-053-3_Elenovo_x1568_y0.png" }, "geometry": { "type": "Point", "coordinates": [ 26.097652148129399, 42.490363721790672 ] } },
{ "type": "Feature", "properties": { "candidate_id": "262", "mound_probability": 1.0, "source_tile": "K-35-053-3_Elenovo_x1568_y1568.png" }, "geometry": { "type": "Point", "coordinates": [ 26.10011432190386, 42.428312821901919 ] } },
{ "type": "Feature", "properties": { "candidate_id": "273", "mound_probability": 1.0, "source_tile": "K-35-053-3_Elenovo_x1568_y672.png" }, "geometry": { "type": "Point", "coordinates": [ 26.107229157260242, 42.465180095245472 ] } },
{ "type": "Feature", "properties": { "candidate_id": "274", "mound_probability": 1.0, "source_tile": "K-35-053-3_Elenovo_x1792_y0.png" }, "geometry": { "type": "Point", "coordinates": [ 26.112728542040859, 42.492334132684235 ] } },
{ "type": "Feature", "properties": { "candidate_id": "277", "mound_probability": 1.0, "source_tile": "K-35-053-3_Elenovo_x1792_y1792.png" }, "geometry": { "type": "Point", "coordinates": [ 26.117550654270058, 42.417050240325516 ] } },
{ "type": "Feature", "properties": { "candidate_id": "278", "mound_probability": 0.95, "source_tile": "K-35-053-3_Elenovo_x1792_y1792.png" }, "geometry": { "type": "Point", "coordinates": [ 26.109052471936977, 42.413696040978166 ] } },
{ "type": "Feature", "properties": { "candidate_id": "279", "mound_probability": 1.0, "source_tile": "K-35-053-3_Elenovo_x1792_y224.png" }, "geometry": { "type": "Point", "coordinates": [ 26.118140049088719, 42.480857757648351 ] } },
{ "type": "Feature", "properties": { "candidate_id": "280", "mound_probability": 0.4, "source_tile": "K-35-053-3_Elenovo_x1792_y3136.png" }, "geometry": { "type": "Point", "coordinates": [ 26.115138695960884, 42.348958816100605 ] } },
{ "type": "Feature", "properties": { "candidate_id": "281", "mound_probability": 1.0, "source_tile": "K-35-053-3_Elenovo_x1792_y3360.png" }, "geometry": { "type": "Point", "coordinates": [ 26.11444969509542, 42.347346786109945 ] } },
{ "type": "Feature", "properties": { "candidate_id": "282", "mound_probability": 0.85, "source_tile": "K-35-053-3_Elenovo_x1792_y3360.png" }, "geometry": { "type": "Point", "coordinates": [ 26.113382595533796, 42.341950107647548 ] } },
{ "type": "Feature", "properties": { "candidate_id": "283", "mound_probability": 1.0, "source_tile": "K-35-053-3_Elenovo_x1792_y3360.png" }, "geometry": { "type": "Point", "coordinates": [ 26.11432869623625, 42.341989762005007 ] } },
{ "type": "Feature", "properties": { "candidate_id": "284", "mound_probability": 1.0, "source_tile": "K-35-053-3_Elenovo_x1792_y3360.png" }, "geometry": { "type": "Point", "coordinates": [ 26.113497530353278, 42.341305308317992 ] } },
{ "type": "Feature", "properties": { "candidate_id": "285", "mound_probability": 0.3, "source_tile": "K-35-053-3_Elenovo_x1792_y3360.png" }, "geometry": { "type": "Point", "coordinates": [ 26.111177924507217, 42.340509983037805 ] } },
{ "type": "Feature", "properties": { "candidate_id": "286", "mound_probability": 0.2, "source_tile": "K-35-053-3_Elenovo_x1792_y3360.png" }, "geometry": { "type": "Point", "coordinates": [ 26.117950072997477, 42.338551868884679 ] } },
{ "type": "Feature", "properties": { "candidate_id": "288", "mound_probability": 1.0, "source_tile": "K-35-053-3_Elenovo_x1792_y672.png" }, "geometry": { "type": "Point", "coordinates": [ 26.107644413430943, 42.465160228086312 ] } },
{ "type": "Feature", "properties": { "candidate_id": "290", "mound_probability": 1.0, "source_tile": "K-35-053-3_Elenovo_x2016_y0.png" }, "geometry": { "type": "Point", "coordinates": [ 26.120850783874953, 42.496218779213066 ] } },
{ "type": "Feature", "properties": { "candidate_id": "291", "mound_probability": 1.0, "source_tile": "K-35-053-3_Elenovo_x2016_y0.png" }, "geometry": { "type": "Point", "coordinates": [ 26.122184749718134, 42.491458659767417 ] } },
{ "type": "Feature", "properties": { "candidate_id": "298", "mound_probability": 1.0, "source_tile": "K-35-053-3_Elenovo_x2016_y224.png" }, "geometry": { "type": "Point", "coordinates": [ 26.129205949262928, 42.479393449463053 ] } },
{ "type": "Feature", "properties": { "candidate_id": "301", "mound_probability": 0.3, "source_tile": "K-35-053-3_Elenovo_x2016_y672.png" }, "geometry": { "type": "Point", "coordinates": [ 26.122992460633508, 42.461789282700188 ] } },
{ "type": "Feature", "properties": { "candidate_id": "302", "mound_probability": 0.95, "source_tile": "K-35-053-3_Elenovo_x2240_y0.png" }, "geometry": { "type": "Point", "coordinates": [ 26.145024203040453, 42.499702796441746 ] } },
{ "type": "Feature", "properties": { "candidate_id": "303", "mound_probability": 1.0, "source_tile": "K-35-053-3_Elenovo_x2240_y0.png" }, "geometry": { "type": "Point", "coordinates": [ 26.14253031200365, 42.490873461525418 ] } },
{ "type": "Feature", "properties": { "candidate_id": "307", "mound_probability": 1.0, "source_tile": "K-35-053-3_Elenovo_x2240_y1792.png" }, "geometry": { "type": "Point", "coordinates": [ 26.138218212691182, 42.410318683913083 ] } },
{ "type": "Feature", "properties": { "candidate_id": "312", "mound_probability": 1.0, "source_tile": "K-35-053-3_Elenovo_x2240_y896.png" }, "geometry": { "type": "Point", "coordinates": [ 26.137134512117843, 42.450587479284657 ] } },
{ "type": "Feature", "properties": { "candidate_id": "314", "mound_probability": 0.2, "source_tile": "K-35-053-3_Elenovo_x224_y1120.png" }, "geometry": { "type": "Point", "coordinates": [ 26.025571026954676, 42.440052065597001 ] } },
{ "type": "Feature", "properties": { "candidate_id": "315", "mound_probability": 0.95, "source_tile": "K-35-053-3_Elenovo_x224_y1568.png" }, "geometry": { "type": "Point", "coordinates": [ 26.014694751813362, 42.428559839668729 ] } },
{ "type": "Feature", "properties": { "candidate_id": "328", "mound_probability": 1.0, "source_tile": "K-35-053-3_Elenovo_x2464_y2912.png" }, "geometry": { "type": "Point", "coordinates": [ 26.161793847365178, 42.365025927718698 ] } },
{ "type": "Feature", "properties": { "candidate_id": "335", "mound_probability": 0.75, "source_tile": "K-35-053-3_Elenovo_x2688_y1792.png" }, "geometry": { "type": "Point", "coordinates": [ 26.173312322415153, 42.418142814686647 ] } },
{ "type": "Feature", "properties": { "candidate_id": "339", "mound_probability": 1.0, "source_tile": "K-35-053-3_Elenovo_x2688_y896.png" }, "geometry": { "type": "Point", "coordinates": [ 26.170220070358841, 42.453437586753459 ] } },
{ "type": "Feature", "properties": { "candidate_id": "342", "mound_probability": 1.0, "source_tile": "K-35-053-3_Elenovo_x2912_y2016.png" }, "geometry": { "type": "Point", "coordinates": [ 26.180706037287518, 42.402700697447457 ] } },
{ "type": "Feature", "properties": { "candidate_id": "343", "mound_probability": 1.0, "source_tile": "K-35-053-3_Elenovo_x2912_y2240.png" }, "geometry": { "type": "Point", "coordinates": [ 26.186374176743271, 42.389684175689446 ] } },
{ "type": "Feature", "properties": { "candidate_id": "344", "mound_probability": 1.0, "source_tile": "K-35-053-3_Elenovo_x2912_y2240.png" }, "geometry": { "type": "Point", "coordinates": [ 26.18624882408378, 42.398422535686116 ] } },
{ "type": "Feature", "properties": { "candidate_id": "347", "mound_probability": 1.0, "source_tile": "K-35-053-3_Elenovo_x2912_y448.png" }, "geometry": { "type": "Point", "coordinates": [ 26.175850718238966, 42.473663946927005 ] } },
{ "type": "Feature", "properties": { "candidate_id": "350", "mound_probability": 1.0, "source_tile": "K-35-053-3_Elenovo_x3136_y1792.png" }, "geometry": { "type": "Point", "coordinates": [ 26.200309103762709, 42.416429630105661 ] } },
{ "type": "Feature", "properties": { "candidate_id": "351", "mound_probability": 1.0, "source_tile": "K-35-053-3_Elenovo_x3136_y1792.png" }, "geometry": { "type": "Point", "coordinates": [ 26.196347874632849, 42.41143976782822 ] } },
{ "type": "Feature", "properties": { "candidate_id": "352", "mound_probability": 1.0, "source_tile": "K-35-053-3_Elenovo_x3136_y2016.png" }, "geometry": { "type": "Point", "coordinates": [ 26.196927291415161, 42.407319088028295 ] } },
{ "type": "Feature", "properties": { "candidate_id": "353", "mound_probability": 1.0, "source_tile": "K-35-053-3_Elenovo_x3136_y2016.png" }, "geometry": { "type": "Point", "coordinates": [ 26.198624449254776, 42.407333275132345 ] } },
{ "type": "Feature", "properties": { "candidate_id": "354", "mound_probability": 1.0, "source_tile": "K-35-053-3_Elenovo_x3136_y2016.png" }, "geometry": { "type": "Point", "coordinates": [ 26.199376225659513, 42.405086148223262 ] } },
{ "type": "Feature", "properties": { "candidate_id": "356", "mound_probability": 0.2, "source_tile": "K-35-053-3_Elenovo_x3136_y224.png" }, "geometry": { "type": "Point", "coordinates": [ 26.197488770282003, 42.486829160138825 ] } },
{ "type": "Feature", "properties": { "candidate_id": "362", "mound_probability": 1.0, "source_tile": "K-35-053-3_Elenovo_x3136_y672.png" }, "geometry": { "type": "Point", "coordinates": [ 26.202758308068649, 42.468755677144912 ] } },
{ "type": "Feature", "properties": { "candidate_id": "364", "mound_probability": 1.0, "source_tile": "K-35-053-3_Elenovo_x3360_y0.png" }, "geometry": { "type": "Point", "coordinates": [ 26.203915720043923, 42.492825956973149 ] } },
{ "type": "Feature", "properties": { "candidate_id": "368", "mound_probability": 0.75, "source_tile": "K-35-053-3_Elenovo_x3360_y1792.png" }, "geometry": { "type": "Point", "coordinates": [ 26.212471244224101, 42.417300430088261 ] } },
{ "type": "Feature", "properties": { "candidate_id": "369", "mound_probability": 1.0, "source_tile": "K-35-053-3_Elenovo_x3360_y1792.png" }, "geometry": { "type": "Point", "coordinates": [ 26.2100978386758, 42.410905829040395 ] } },
{ "type": "Feature", "properties": { "candidate_id": "370", "mound_probability": 1.0, "source_tile": "K-35-053-3_Elenovo_x3360_y2016.png" }, "geometry": { "type": "Point", "coordinates": [ 26.214883096407128, 42.40877988412764 ] } },
{ "type": "Feature", "properties": { "candidate_id": "371", "mound_probability": 1.0, "source_tile": "K-35-053-3_Elenovo_x3360_y2016.png" }, "geometry": { "type": "Point", "coordinates": [ 26.205581912316774, 42.401792332115065 ] } },
{ "type": "Feature", "properties": { "candidate_id": "372", "mound_probability": 1.0, "source_tile": "K-35-053-3_Elenovo_x3360_y224.png" }, "geometry": { "type": "Point", "coordinates": [ 26.209602840508943, 42.48168789401273 ] } },
{ "type": "Feature", "properties": { "candidate_id": "373", "mound_probability": 1.0, "source_tile": "K-35-053-3_Elenovo_x3360_y224.png" }, "geometry": { "type": "Point", "coordinates": [ 26.216159910352168, 42.481001201779826 ] } },
{ "type": "Feature", "properties": { "candidate_id": "376", "mound_probability": 0.95, "source_tile": "K-35-053-3_Elenovo_x3360_y2464.png" }, "geometry": { "type": "Point", "coordinates": [ 26.206284956035248, 42.383353052058112 ] } },
{ "type": "Feature", "properties": { "candidate_id": "383", "mound_probability": 0.95, "source_tile": "K-35-053-3_Elenovo_x3584_y1792.png" }, "geometry": { "type": "Point", "coordinates": [ 26.219643679673695, 42.417294038273802 ] } },
{ "type": "Feature", "properties": { "candidate_id": "384", "mound_probability": 1.0, "source_tile": "K-35-053-3_Elenovo_x3584_y2016.png" }, "geometry": { "type": "Point", "coordinates": [ 26.221512993190601, 42.40088978661921 ] } },
{ "type": "Feature", "properties": { "candidate_id": "385", "mound_probability": 1.0, "source_tile": "K-35-053-3_Elenovo_x3584_y2016.png" }, "geometry": { "type": "Point", "coordinates": [ 26.230049974319041, 42.408241117892068 ] } },
{ "type": "Feature", "properties": { "candidate_id": "387", "mound_probability": 0.2, "source_tile": "K-35-053-3_Elenovo_x3584_y224.png" }, "geometry": { "type": "Point", "coordinates": [ 26.22166063170997, 42.489487314947056 ] } },
{ "type": "Feature", "properties": { "candidate_id": "388", "mound_probability": 0.95, "source_tile": "K-35-053-3_Elenovo_x3584_y224.png" }, "geometry": { "type": "Point", "coordinates": [ 26.225662282197359, 42.481759406093943 ] } },
{ "type": "Feature", "properties": { "candidate_id": "389", "mound_probability": 1.0, "source_tile": "K-35-053-3_Elenovo_x3584_y224.png" }, "geometry": { "type": "Point", "coordinates": [ 26.221874116020306, 42.480762350252085 ] } },
{ "type": "Feature", "properties": { "candidate_id": "390", "mound_probability": 0.2, "source_tile": "K-35-053-3_Elenovo_x3584_y2240.png" }, "geometry": { "type": "Point", "coordinates": [ 26.227311412691382, 42.392557074880393 ] } },
{ "type": "Feature", "properties": { "candidate_id": "391", "mound_probability": 1.0, "source_tile": "K-35-053-3_Elenovo_x3584_y2240.png" }, "geometry": { "type": "Point", "coordinates": [ 26.228304025270333, 42.3925568305349 ] } },
{ "type": "Feature", "properties": { "candidate_id": "392", "mound_probability": 0.95, "source_tile": "K-35-053-3_Elenovo_x3584_y2240.png" }, "geometry": { "type": "Point", "coordinates": [ 26.230811976809207, 42.390201170837386 ] } },
{ "type": "Feature", "properties": { "candidate_id": "393", "mound_probability": 1.0, "source_tile": "K-35-053-3_Elenovo_x3584_y2464.png" }, "geometry": { "type": "Point", "coordinates": [ 26.217575595678625, 42.384137569478526 ] } },
{ "type": "Feature", "properties": { "candidate_id": "394", "mound_probability": 1.0, "source_tile": "K-35-053-3_Elenovo_x3584_y2688.png" }, "geometry": { "type": "Point", "coordinates": [ 26.228783352719621, 42.372494143937168 ] } },
{ "type": "Feature", "properties": { "candidate_id": "395", "mound_probability": 1.0, "source_tile": "K-35-053-3_Elenovo_x3584_y896.png" }, "geometry": { "type": "Point", "coordinates": [ 26.22144168365805, 42.4530184540018 ] } },
{ "type": "Feature", "properties": { "candidate_id": "398", "mound_probability": 0.95, "source_tile": "K-35-053-3_Elenovo_x3808_y2240.png" }, "geometry": { "type": "Point", "coordinates": [ 26.24184526995899, 42.391910248701421 ] } },
{ "type": "Feature", "properties": { "candidate_id": "399", "mound_probability": 0.95, "source_tile": "K-35-053-3_Elenovo_x3808_y2240.png" }, "geometry": { "type": "Point", "coordinates": [ 26.231262738552939, 42.390164921978446 ] } },
{ "type": "Feature", "properties": { "candidate_id": "400", "mound_probability": 0.95, "source_tile": "K-35-053-3_Elenovo_x3808_y2464.png" }, "geometry": { "type": "Point", "coordinates": [ 26.236207442925252, 42.381765950209548 ] } },
{ "type": "Feature", "properties": { "candidate_id": "401", "mound_probability": 0.95, "source_tile": "K-35-053-3_Elenovo_x3808_y2688.png" }, "geometry": { "type": "Point", "coordinates": [ 26.237564662270415, 42.372734225322219 ] } },
{ "type": "Feature", "properties": { "candidate_id": "402", "mound_probability": 1.0, "source_tile": "K-35-053-3_Elenovo_x3808_y2688.png" }, "geometry": { "type": "Point", "coordinates": [ 26.232935600212372, 42.370122910974871 ] } },
{ "type": "Feature", "properties": { "candidate_id": "403", "mound_probability": 0.95, "source_tile": "K-35-053-3_Elenovo_x3808_y2912.png" }, "geometry": { "type": "Point", "coordinates": [ 26.243110892485824, 42.362955144946916 ] } },
{ "type": "Feature", "properties": { "candidate_id": "404", "mound_probability": 1.0, "source_tile": "K-35-053-3_Elenovo_x3808_y2912.png" }, "geometry": { "type": "Point", "coordinates": [ 26.239616080202893, 42.359121999649105 ] } },
{ "type": "Feature", "properties": { "candidate_id": "405", "mound_probability": 0.85, "source_tile": "K-35-053-3_Elenovo_x3808_y3136.png" }, "geometry": { "type": "Point", "coordinates": [ 26.243398308218325, 42.351461710982619 ] } },
{ "type": "Feature", "properties": { "candidate_id": "406", "mound_probability": 1.0, "source_tile": "K-35-053-3_Elenovo_x3808_y3136.png" }, "geometry": { "type": "Point", "coordinates": [ 26.242308617316986, 42.350911627985319 ] } },
{ "type": "Feature", "properties": { "candidate_id": "407", "mound_probability": 1.0, "source_tile": "K-35-053-3_Elenovo_x3808_y3136.png" }, "geometry": { "type": "Point", "coordinates": [ 26.243409332340498, 42.350802233803726 ] } },
{ "type": "Feature", "properties": { "candidate_id": "408", "mound_probability": 0.85, "source_tile": "K-35-053-3_Elenovo_x3808_y3136.png" }, "geometry": { "type": "Point", "coordinates": [ 26.242851451497646, 42.350186359293595 ] } },
{ "type": "Feature", "properties": { "candidate_id": "409", "mound_probability": 1.0, "source_tile": "K-35-053-3_Elenovo_x3808_y3360.png" }, "geometry": { "type": "Point", "coordinates": [ 26.240452657874208, 42.347139565649279 ] } },
{ "type": "Feature", "properties": { "candidate_id": "412", "mound_probability": 0.4, "source_tile": "K-35-053-3_Elenovo_x3808_y672.png" }, "geometry": { "type": "Point", "coordinates": [ 26.232054827176558, 42.46828944393161 ] } },
{ "type": "Feature", "properties": { "candidate_id": "413", "mound_probability": 1.0, "source_tile": "K-35-053-3_Elenovo_x3808_y672.png" }, "geometry": { "type": "Point", "coordinates": [ 26.233856582654742, 42.46497956248308 ] } },
{ "type": "Feature", "properties": { "candidate_id": "415", "mound_probability": 1.0, "source_tile": "K-35-053-3_Elenovo_x4032_y1792.png" }, "geometry": { "type": "Point", "coordinates": [ 26.247728288841433, 42.409793086278356 ] } },
{ "type": "Feature", "properties": { "candidate_id": "417", "mound_probability": 0.2, "source_tile": "K-35-053-3_Elenovo_x4032_y2016.png" }, "geometry": { "type": "Point", "coordinates": [ 26.248155227565729, 42.405954710165865 ] } },
{ "type": "Feature", "properties": { "candidate_id": "418", "mound_probability": 1.0, "source_tile": "K-35-053-3_Elenovo_x4032_y2016.png" }, "geometry": { "type": "Point", "coordinates": [ 26.247347945389528, 42.402428764690363 ] } },
{ "type": "Feature", "properties": { "candidate_id": "423", "mound_probability": 0.95, "source_tile": "K-35-053-3_Elenovo_x4032_y3136.png" }, "geometry": { "type": "Point", "coordinates": [ 26.245606711320214, 42.358733617688216 ] } },
{ "type": "Feature", "properties": { "candidate_id": "424", "mound_probability": 0.2, "source_tile": "K-35-053-3_Elenovo_x4032_y3136.png" }, "geometry": { "type": "Point", "coordinates": [ 26.248133017110952, 42.354277751626462 ] } },
{ "type": "Feature", "properties": { "candidate_id": "425", "mound_probability": 0.2, "source_tile": "K-35-053-3_Elenovo_x4032_y3136.png" }, "geometry": { "type": "Point", "coordinates": [ 26.247842108494961, 42.353729491560351 ] } },
{ "type": "Feature", "properties": { "candidate_id": "426", "mound_probability": 0.2, "source_tile": "K-35-053-3_Elenovo_x4032_y3136.png" }, "geometry": { "type": "Point", "coordinates": [ 26.246459297150498, 42.351768329043729 ] } },
{ "type": "Feature", "properties": { "candidate_id": "429", "mound_probability": 1.0, "source_tile": "K-35-053-3_Elenovo_x4032_y3136.png" }, "geometry": { "type": "Point", "coordinates": [ 26.243738792266164, 42.351247957619393 ] } },
{ "type": "Feature", "properties": { "candidate_id": "433", "mound_probability": 0.2, "source_tile": "K-35-053-3_Elenovo_x448_y1120.png" }, "geometry": { "type": "Point", "coordinates": [ 26.025696925239199, 42.43987756748448 ] } },
{ "type": "Feature", "properties": { "candidate_id": "436", "mound_probability": 1.0, "source_tile": "K-35-053-3_Elenovo_x448_y1792.png" }, "geometry": { "type": "Point", "coordinates": [ 26.035215037433655, 42.415720349613551 ] } },
{ "type": "Feature", "properties": { "candidate_id": "437", "mound_probability": 1.0, "source_tile": "K-35-053-3_Elenovo_x448_y2016.png" }, "geometry": { "type": "Point", "coordinates": [ 26.039896212618896, 42.403735946474477 ] } },
{ "type": "Feature", "properties": { "candidate_id": "438", "mound_probability": 0.85, "source_tile": "K-35-053-3_Elenovo_x448_y224.png" }, "geometry": { "type": "Point", "coordinates": [ 26.036880977587128, 42.484970563976148 ] } },
{ "type": "Feature", "properties": { "candidate_id": "439", "mound_probability": 1.0, "source_tile": "K-35-053-3_Elenovo_x448_y224.png" }, "geometry": { "type": "Point", "coordinates": [ 26.025242422344359, 42.479846555514158 ] } },
{ "type": "Feature", "properties": { "candidate_id": "440", "mound_probability": 1.0, "source_tile": "K-35-053-3_Elenovo_x448_y2240.png" }, "geometry": { "type": "Point", "coordinates": [ 26.034248115281784, 42.390245388673328 ] } },
{ "type": "Feature", "properties": { "candidate_id": "441", "mound_probability": 1.0, "source_tile": "K-35-053-3_Elenovo_x448_y2240.png" }, "geometry": { "type": "Point", "coordinates": [ 26.039636280099767, 42.389942979909648 ] } },
{ "type": "Feature", "properties": { "candidate_id": "443", "mound_probability": 0.85, "source_tile": "K-35-053-3_Elenovo_x448_y2912.png" }, "geometry": { "type": "Point", "coordinates": [ 26.036551026677817, 42.365693015229134 ] } },
{ "type": "Feature", "properties": { "candidate_id": "444", "mound_probability": 1.0, "source_tile": "K-35-053-3_Elenovo_x448_y2912.png" }, "geometry": { "type": "Point", "coordinates": [ 26.038650458044444, 42.357073308168552 ] } },
{ "type": "Feature", "properties": { "candidate_id": "447", "mound_probability": 0.95, "source_tile": "K-35-053-3_Elenovo_x448_y448.png" }, "geometry": { "type": "Point", "coordinates": [ 26.027708222321202, 42.474482668910888 ] } },
{ "type": "Feature", "properties": { "candidate_id": "451", "mound_probability": 1.0, "source_tile": "K-35-053-3_Elenovo_x672_y0.png" }, "geometry": { "type": "Point", "coordinates": [ 26.041794162540807, 42.496177573815814 ] } },
{ "type": "Feature", "properties": { "candidate_id": "452", "mound_probability": 1.0, "source_tile": "K-35-053-3_Elenovo_x672_y2016.png" }, "geometry": { "type": "Point", "coordinates": [ 26.043227569520312, 42.40555597571624 ] } },
{ "type": "Feature", "properties": { "candidate_id": "453", "mound_probability": 1.0, "source_tile": "K-35-053-3_Elenovo_x672_y2016.png" }, "geometry": { "type": "Point", "coordinates": [ 26.050719871309713, 42.400991083288005 ] } },
{ "type": "Feature", "properties": { "candidate_id": "454", "mound_probability": 0.85, "source_tile": "K-35-053-3_Elenovo_x672_y2016.png" }, "geometry": { "type": "Point", "coordinates": [ 26.040389630565009, 42.399405800431865 ] } },
{ "type": "Feature", "properties": { "candidate_id": "455", "mound_probability": 1.0, "source_tile": "K-35-053-3_Elenovo_x672_y2240.png" }, "geometry": { "type": "Point", "coordinates": [ 26.044912822322736, 42.392580183800831 ] } },
{ "type": "Feature", "properties": { "candidate_id": "456", "mound_probability": 1.0, "source_tile": "K-35-053-3_Elenovo_x672_y2240.png" }, "geometry": { "type": "Point", "coordinates": [ 26.050512918490195, 42.390633061534373 ] } },
{ "type": "Feature", "properties": { "candidate_id": "457", "mound_probability": 1.0, "source_tile": "K-35-053-3_Elenovo_x672_y2240.png" }, "geometry": { "type": "Point", "coordinates": [ 26.052011767109551, 42.391056669382223 ] } },
{ "type": "Feature", "properties": { "candidate_id": "459", "mound_probability": 1.0, "source_tile": "K-35-053-3_Elenovo_x672_y2240.png" }, "geometry": { "type": "Point", "coordinates": [ 26.048213724130946, 42.388523326456188 ] } },
{ "type": "Feature", "properties": { "candidate_id": "460", "mound_probability": 0.2, "source_tile": "K-35-053-3_Elenovo_x672_y2240.png" }, "geometry": { "type": "Point", "coordinates": [ 26.047326678178599, 42.387729358400762 ] } },
{ "type": "Feature", "properties": { "candidate_id": "461", "mound_probability": 0.85, "source_tile": "K-35-053-3_Elenovo_x672_y2464.png" }, "geometry": { "type": "Point", "coordinates": [ 26.046818090788147, 42.387050572219515 ] } },
{ "type": "Feature", "properties": { "candidate_id": "463", "mound_probability": 1.0, "source_tile": "K-35-053-3_Elenovo_x672_y2464.png" }, "geometry": { "type": "Point", "coordinates": [ 26.041133617683833, 42.38431763759435 ] } },
{ "type": "Feature", "properties": { "candidate_id": "464", "mound_probability": 0.95, "source_tile": "K-35-053-3_Elenovo_x672_y2688.png" }, "geometry": { "type": "Point", "coordinates": [ 26.040501232332016, 42.371515351936331 ] } },
{ "type": "Feature", "properties": { "candidate_id": "465", "mound_probability": 0.95, "source_tile": "K-35-053-3_Elenovo_x672_y2912.png" }, "geometry": { "type": "Point", "coordinates": [ 26.042112968816994, 42.358272666148004 ] } },
{ "type": "Feature", "properties": { "candidate_id": "467", "mound_probability": 1.0, "source_tile": "K-35-053-3_Elenovo_x672_y448.png" }, "geometry": { "type": "Point", "coordinates": [ 26.04821371, 42.473537864330964 ] } },
{ "type": "Feature", "properties": { "candidate_id": "469", "mound_probability": 1.0, "source_tile": "K-35-053-3_Elenovo_x896_y0.png" }, "geometry": { "type": "Point", "coordinates": [ 26.058960055619263, 42.49909307954352 ] } },
{ "type": "Feature", "properties": { "candidate_id": "471", "mound_probability": 1.0, "source_tile": "K-35-053-3_Elenovo_x896_y224.png" }, "geometry": { "type": "Point", "coordinates": [ 26.054240150636527, 42.484265019406777 ] } },
{ "type": "Feature", "properties": { "candidate_id": "473", "mound_probability": 1.0, "source_tile": "K-35-053-3_Elenovo_x896_y2688.png" }, "geometry": { "type": "Point", "coordinates": [ 26.058839163849633, 42.372848999303045 ] } },
{ "type": "Feature", "properties": { "candidate_id": "474", "mound_probability": 1.0, "source_tile": "K-35-053-3_Elenovo_x896_y2912.png" }, "geometry": { "type": "Point", "coordinates": [ 26.063157558824503, 42.360461585858495 ] } },
{ "type": "Feature", "properties": { "candidate_id": "476", "mound_probability": 1.0, "source_tile": "K-35-053-3_Elenovo_x896_y672.png" }, "geometry": { "type": "Point", "coordinates": [ 26.058298838632272, 42.461073860060743 ] } },
{ "type": "Feature", "properties": { "candidate_id": "478", "mound_probability": 0.85, "source_tile": "K-35-062-2_Rakovski_x0_y1120.png" }, "geometry": { "type": "Point", "coordinates": [ 24.759713471270601, 42.271808557227928 ] } },
{ "type": "Feature", "properties": { "candidate_id": "481", "mound_probability": 1.0, "source_tile": "K-35-062-2_Rakovski_x0_y2464.png" }, "geometry": { "type": "Point", "coordinates": [ 24.750704664165749, 42.216006910049089 ] } },
{ "type": "Feature", "properties": { "candidate_id": "482", "mound_probability": 0.85, "source_tile": "K-35-062-2_Rakovski_x0_y2464.png" }, "geometry": { "type": "Point", "coordinates": [ 24.748799988244254, 42.213275878386554 ] } },
{ "type": "Feature", "properties": { "candidate_id": "486", "mound_probability": 1.0, "source_tile": "K-35-062-2_Rakovski_x1120_y1120.png" }, "geometry": { "type": "Point", "coordinates": [ 24.82371051365314, 42.273824041676583 ] } },
{ "type": "Feature", "properties": { "candidate_id": "487", "mound_probability": 1.0, "source_tile": "K-35-062-2_Rakovski_x1120_y1120.png" }, "geometry": { "type": "Point", "coordinates": [ 24.824169739631511, 42.272793718017937 ] } },
{ "type": "Feature", "properties": { "candidate_id": "488", "mound_probability": 0.95, "source_tile": "K-35-062-2_Rakovski_x1120_y1344.png" }, "geometry": { "type": "Point", "coordinates": [ 24.825691083753313, 42.271502376762164 ] } },
{ "type": "Feature", "properties": { "candidate_id": "489", "mound_probability": 1.0, "source_tile": "K-35-062-2_Rakovski_x1120_y1792.png" }, "geometry": { "type": "Point", "coordinates": [ 24.823287787364048, 42.250935092755974 ] } },
{ "type": "Feature", "properties": { "candidate_id": "490", "mound_probability": 1.0, "source_tile": "K-35-062-2_Rakovski_x1120_y224.png" }, "geometry": { "type": "Point", "coordinates": [ 24.813905607809527, 42.320861577006738 ] } },
{ "type": "Feature", "properties": { "candidate_id": "491", "mound_probability": 1.0, "source_tile": "K-35-062-2_Rakovski_x1120_y224.png" }, "geometry": { "type": "Point", "coordinates": [ 24.816190217297798, 42.31338891218482 ] } },
{ "type": "Feature", "properties": { "candidate_id": "492", "mound_probability": 1.0, "source_tile": "K-35-062-2_Rakovski_x1120_y448.png" }, "geometry": { "type": "Point", "coordinates": [ 24.824707468773802, 42.309092741136183 ] } },
{ "type": "Feature", "properties": { "candidate_id": "493", "mound_probability": 1.0, "source_tile": "K-35-062-2_Rakovski_x1120_y448.png" }, "geometry": { "type": "Point", "coordinates": [ 24.819667139146002, 42.306671293574155 ] } },
{ "type": "Feature", "properties": { "candidate_id": "494", "mound_probability": 1.0, "source_tile": "K-35-062-2_Rakovski_x1120_y448.png" }, "geometry": { "type": "Point", "coordinates": [ 24.823669101664105, 42.307921760274709 ] } },
{ "type": "Feature", "properties": { "candidate_id": "496", "mound_probability": 0.85, "source_tile": "K-35-062-2_Rakovski_x1120_y896.png" }, "geometry": { "type": "Point", "coordinates": [ 24.815613046830151, 42.289038088096326 ] } },
{ "type": "Feature", "properties": { "candidate_id": "498", "mound_probability": 1.0, "source_tile": "K-35-062-2_Rakovski_x1344_y1344.png" }, "geometry": { "type": "Point", "coordinates": [ 24.834430361019152, 42.26583505013712 ] } },
{ "type": "Feature", "properties": { "candidate_id": "500", "mound_probability": 0.85, "source_tile": "K-35-062-2_Rakovski_x1344_y2016.png" }, "geometry": { "type": "Point", "coordinates": [ 24.831855683836768, 42.241827034344794 ] } },
{ "type": "Feature", "properties": { "candidate_id": "501", "mound_probability": 0.95, "source_tile": "K-35-062-2_Rakovski_x1344_y224.png" }, "geometry": { "type": "Point", "coordinates": [ 24.829087407655663, 42.318127912259328 ] } },
{ "type": "Feature", "properties": { "candidate_id": "502", "mound_probability": 1.0, "source_tile": "K-35-062-2_Rakovski_x1344_y224.png" }, "geometry": { "type": "Point", "coordinates": [ 24.833590073259209, 42.315263774551056 ] } },
{ "type": "Feature", "properties": { "candidate_id": "505", "mound_probability": 1.0, "source_tile": "K-35-062-2_Rakovski_x1568_y0.png" }, "geometry": { "type": "Point", "coordinates": [ 24.846208474613423, 42.327560401307785 ] } },
{ "type": "Feature", "properties": { "candidate_id": "506", "mound_probability": 1.0, "source_tile": "K-35-062-2_Rakovski_x1568_y0.png" }, "geometry": { "type": "Point", "coordinates": [ 24.849169581019183, 42.326600113459314 ] } },
{ "type": "Feature", "properties": { "candidate_id": "507", "mound_probability": 1.0, "source_tile": "K-35-062-2_Rakovski_x1568_y0.png" }, "geometry": { "type": "Point", "coordinates": [ 24.852219656835025, 42.32620721524632 ] } },
{ "type": "Feature", "properties": { "candidate_id": "508", "mound_probability": 1.0, "source_tile": "K-35-062-2_Rakovski_x1568_y1120.png" }, "geometry": { "type": "Point", "coordinates": [ 24.847126351885883, 42.280795493633562 ] } },
{ "type": "Feature", "properties": { "candidate_id": "510", "mound_probability": 0.95, "source_tile": "K-35-062-2_Rakovski_x1568_y1344.png" }, "geometry": { "type": "Point", "coordinates": [ 24.842387228007532, 42.271824782925307 ] } },
{ "type": "Feature", "properties": { "candidate_id": "513", "mound_probability": 1.0, "source_tile": "K-35-062-2_Rakovski_x1568_y224.png" }, "geometry": { "type": "Point", "coordinates": [ 24.844488534806821, 42.32043879860089 ] } },
{ "type": "Feature", "properties": { "candidate_id": "514", "mound_probability": 0.95, "source_tile": "K-35-062-2_Rakovski_x1568_y224.png" }, "geometry": { "type": "Point", "coordinates": [ 24.848480222611595, 42.32143596972616 ] } },
{ "type": "Feature", "properties": { "candidate_id": "515", "mound_probability": 1.0, "source_tile": "K-35-062-2_Rakovski_x1568_y224.png" }, "geometry": { "type": "Point", "coordinates": [ 24.849942182652722, 42.314813806122658 ] } },
{ "type": "Feature", "properties": { "candidate_id": "517", "mound_probability": 0.95, "source_tile": "K-35-062-2_Rakovski_x1568_y2688.png" }, "geometry": { "type": "Point", "coordinates": [ 24.848273470710371, 42.210611940185693 ] } },
{ "type": "Feature", "properties": { "candidate_id": "520", "mound_probability": 0.85, "source_tile": "K-35-062-2_Rakovski_x1568_y3360.png" }, "geometry": { "type": "Point", "coordinates": [ 24.847612447724043, 42.178512639462021 ] } },
{ "type": "Feature", "properties": { "candidate_id": "521", "mound_probability": 1.0, "source_tile": "K-35-062-2_Rakovski_x1568_y3360.png" }, "geometry": { "type": "Point", "coordinates": [ 24.849304813849702, 42.171588026714851 ] } },
{ "type": "Feature", "properties": { "candidate_id": "522", "mound_probability": 1.0, "source_tile": "K-35-062-2_Rakovski_x1568_y448.png" }, "geometry": { "type": "Point", "coordinates": [ 24.841157580836779, 42.312251267395226 ] } },
{ "type": "Feature", "properties": { "candidate_id": "523", "mound_probability": 1.0, "source_tile": "K-35-062-2_Rakovski_x1568_y448.png" }, "geometry": { "type": "Point", "coordinates": [ 24.841797144298251, 42.312741175625796 ] } },
{ "type": "Feature", "properties": { "candidate_id": "524", "mound_probability": 1.0, "source_tile": "K-35-062-2_Rakovski_x1568_y448.png" }, "geometry": { "type": "Point", "coordinates": [ 24.847824654680952, 42.308697205873315 ] } },
{ "type": "Feature", "properties": { "candidate_id": "525", "mound_probability": 0.75, "source_tile": "K-35-062-2_Rakovski_x1568_y448.png" }, "geometry": { "type": "Point", "coordinates": [ 24.843063862183961, 42.305961528243863 ] } },
{ "type": "Feature", "properties": { "candidate_id": "528", "mound_probability": 1.0, "source_tile": "K-35-062-2_Rakovski_x1792_y1120.png" }, "geometry": { "type": "Point", "coordinates": [ 24.859612476354418, 42.280638223937423 ] } },
{ "type": "Feature", "properties": { "candidate_id": "530", "mound_probability": 1.0, "source_tile": "K-35-062-2_Rakovski_x1792_y1792.png" }, "geometry": { "type": "Point", "coordinates": [ 24.86621607166617, 42.246602430348503 ] } },
{ "type": "Feature", "properties": { "candidate_id": "531", "mound_probability": 0.2, "source_tile": "K-35-062-2_Rakovski_x1792_y2016.png" }, "geometry": { "type": "Point", "coordinates": [ 24.860039936239946, 42.237339523484977 ] } },
{ "type": "Feature", "properties": { "candidate_id": "535", "mound_probability": 1.0, "source_tile": "K-35-062-2_Rakovski_x1792_y224.png" }, "geometry": { "type": "Point", "coordinates": [ 24.853964406526583, 42.31407924550426 ] } },
{ "type": "Feature", "properties": { "candidate_id": "543", "mound_probability": 1.0, "source_tile": "K-35-062-2_Rakovski_x1792_y672.png" }, "geometry": { "type": "Point", "coordinates": [ 24.855667140638758, 42.300113029123928 ] } },
{ "type": "Feature", "properties": { "candidate_id": "544", "mound_probability": 1.0, "source_tile": "K-35-062-2_Rakovski_x1792_y672.png" }, "geometry": { "type": "Point", "coordinates": [ 24.866409213872124, 42.302789587393583 ] } },
{ "type": "Feature", "properties": { "candidate_id": "545", "mound_probability": 1.0, "source_tile": "K-35-062-2_Rakovski_x1792_y672.png" }, "geometry": { "type": "Point", "coordinates": [ 24.865551398704007, 42.299853199166051 ] } },
{ "type": "Feature", "properties": { "candidate_id": "546", "mound_probability": 1.0, "source_tile": "K-35-062-2_Rakovski_x1792_y672.png" }, "geometry": { "type": "Point", "coordinates": [ 24.86692275149727, 42.298775470259827 ] } },
{ "type": "Feature", "properties": { "candidate_id": "547", "mound_probability": 0.95, "source_tile": "K-35-062-2_Rakovski_x2016_y0.png" }, "geometry": { "type": "Point", "coordinates": [ 24.86899228866012, 42.325644397117038 ] } },
{ "type": "Feature", "properties": { "candidate_id": "548", "mound_probability": 0.95, "source_tile": "K-35-062-2_Rakovski_x2016_y1120.png" }, "geometry": { "type": "Point", "coordinates": [ 24.875075886335868, 42.278496073432912 ] } },
{ "type": "Feature", "properties": { "candidate_id": "549", "mound_probability": 0.85, "source_tile": "K-35-062-2_Rakovski_x2016_y2016.png" }, "geometry": { "type": "Point", "coordinates": [ 24.871153034298793, 42.239741377076953 ] } },
{ "type": "Feature", "properties": { "candidate_id": "550", "mound_probability": 1.0, "source_tile": "K-35-062-2_Rakovski_x2016_y224.png" }, "geometry": { "type": "Point", "coordinates": [ 24.87313661030117, 42.323290400612201 ] } },
{ "type": "Feature", "properties": { "candidate_id": "551", "mound_probability": 1.0, "source_tile": "K-35-062-2_Rakovski_x2016_y224.png" }, "geometry": { "type": "Point", "coordinates": [ 24.872591063722147, 42.321434771400583 ] } },
{ "type": "Feature", "properties": { "candidate_id": "552", "mound_probability": 0.95, "source_tile": "K-35-062-2_Rakovski_x2016_y224.png" }, "geometry": { "type": "Point", "coordinates": [ 24.880955912765334, 42.318974195906293 ] } },
{ "type": "Feature", "properties": { "candidate_id": "558", "mound_probability": 1.0, "source_tile": "K-35-062-2_Rakovski_x2016_y448.png" }, "geometry": { "type": "Point", "coordinates": [ 24.871055558211339, 42.306492945562688 ] } },
{ "type": "Feature", "properties": { "candidate_id": "559", "mound_probability": 1.0, "source_tile": "K-35-062-2_Rakovski_x2016_y448.png" }, "geometry": { "type": "Point", "coordinates": [ 24.868872693954724, 42.304615550808705 ] } },
{ "type": "Feature", "properties": { "candidate_id": "570", "mound_probability": 0.95, "source_tile": "K-35-062-2_Rakovski_x2240_y2016.png" }, "geometry": { "type": "Point", "coordinates": [ 24.89705383118288, 42.23463014581904 ] } },
{ "type": "Feature", "properties": { "candidate_id": "571", "mound_probability": 1.0, "source_tile": "K-35-062-2_Rakovski_x2240_y2240.png" }, "geometry": { "type": "Point", "coordinates": [ 24.882928985168537, 42.226677396959104 ] } },
{ "type": "Feature", "properties": { "candidate_id": "572", "mound_probability": 1.0, "source_tile": "K-35-062-2_Rakovski_x2240_y2240.png" }, "geometry": { "type": "Point", "coordinates": [ 24.89118081642232, 42.227451974424838 ] } },
{ "type": "Feature", "properties": { "candidate_id": "573", "mound_probability": 0.85, "source_tile": "K-35-062-2_Rakovski_x2240_y2240.png" }, "geometry": { "type": "Point", "coordinates": [ 24.892504719350789, 42.227574668425198 ] } },
{ "type": "Feature", "properties": { "candidate_id": "574", "mound_probability": 0.95, "source_tile": "K-35-062-2_Rakovski_x2240_y2464.png" }, "geometry": { "type": "Point", "coordinates": [ 24.892390132769055, 42.221006162516197 ] } },
{ "type": "Feature", "properties": { "candidate_id": "575", "mound_probability": 1.0, "source_tile": "K-35-062-2_Rakovski_x2240_y2688.png" }, "geometry": { "type": "Point", "coordinates": [ 24.898276668205213, 42.203308724800536 ] } },
{ "type": "Feature", "properties": { "candidate_id": "581", "mound_probability": 1.0, "source_tile": "K-35-062-2_Rakovski_x224_y1120.png" }, "geometry": { "type": "Point", "coordinates": [ 24.769125434740744, 42.274924563741422 ] } },
{ "type": "Feature", "properties": { "candidate_id": "582", "mound_probability": 0.85, "source_tile": "K-35-062-2_Rakovski_x224_y1120.png" }, "geometry": { "type": "Point", "coordinates": [ 24.771330040238244, 42.278282414919452 ] } },
{ "type": "Feature", "properties": { "candidate_id": "583", "mound_probability": 0.75, "source_tile": "K-35-062-2_Rakovski_x224_y1344.png" }, "geometry": { "type": "Point", "coordinates": [ 24.765807471390541, 42.269970220212542 ] } },
{ "type": "Feature", "properties": { "candidate_id": "584", "mound_probability": 1.0, "source_tile": "K-35-062-2_Rakovski_x224_y1344.png" }, "geometry": { "type": "Point", "coordinates": [ 24.773489343876193, 42.266696526077389 ] } },
{ "type": "Feature", "properties": { "candidate_id": "585", "mound_probability": 1.0, "source_tile": "K-35-062-2_Rakovski_x224_y1344.png" }, "geometry": { "type": "Point", "coordinates": [ 24.764338482883637, 42.261903497721093 ] } },
{ "type": "Feature", "properties": { "candidate_id": "586", "mound_probability": 1.0, "source_tile": "K-35-062-2_Rakovski_x224_y1344.png" }, "geometry": { "type": "Point", "coordinates": [ 24.763436551367842, 42.261243736715777 ] } },
{ "type": "Feature", "properties": { "candidate_id": "590", "mound_probability": 0.95, "source_tile": "K-35-062-2_Rakovski_x224_y896.png" }, "geometry": { "type": "Point", "coordinates": [ 24.761856344916279, 42.289914831964609 ] } },
{ "type": "Feature", "properties": { "candidate_id": "591", "mound_probability": 1.0, "source_tile": "K-35-062-2_Rakovski_x224_y896.png" }, "geometry": { "type": "Point", "coordinates": [ 24.761985614183253, 42.283096520631418 ] } },
{ "type": "Feature", "properties": { "candidate_id": "593", "mound_probability": 1.0, "source_tile": "K-35-062-2_Rakovski_x2464_y1568.png" }, "geometry": { "type": "Point", "coordinates": [ 24.90257004352172, 42.259803195855461 ] } },
{ "type": "Feature", "properties": { "candidate_id": "594", "mound_probability": 1.0, "source_tile": "K-35-062-2_Rakovski_x2464_y1568.png" }, "geometry": { "type": "Point", "coordinates": [ 24.904272233792568, 42.258025825573455 ] } },
{ "type": "Feature", "properties": { "candidate_id": "595", "mound_probability": 1.0, "source_tile": "K-35-062-2_Rakovski_x2464_y1568.png" }, "geometry": { "type": "Point", "coordinates": [ 24.907983459067143, 42.256769919830134 ] } },
{ "type": "Feature", "properties": { "candidate_id": "598", "mound_probability": 1.0, "source_tile": "K-35-062-2_Rakovski_x2464_y2240.png" }, "geometry": { "type": "Point", "coordinates": [ 24.901928064356394, 42.23157625392701 ] } },
{ "type": "Feature", "properties": { "candidate_id": "599", "mound_probability": 1.0, "source_tile": "K-35-062-2_Rakovski_x2464_y2688.png" }, "geometry": { "type": "Point", "coordinates": [ 24.901607088398158, 42.205830056683034 ] } },
{ "type": "Feature", "properties": { "candidate_id": "600", "mound_probability": 1.0, "source_tile": "K-35-062-2_Rakovski_x2464_y2912.png" }, "geometry": { "type": "Point", "coordinates": [ 24.907231282089995, 42.202870055207121 ] } },
{ "type": "Feature", "properties": { "candidate_id": "601", "mound_probability": 1.0, "source_tile": "K-35-062-2_Rakovski_x2464_y3136.png" }, "geometry": { "type": "Point", "coordinates": [ 24.902914005858122, 42.182835578854643 ] } },
{ "type": "Feature", "properties": { "candidate_id": "602", "mound_probability": 1.0, "source_tile": "K-35-062-2_Rakovski_x2464_y3360.png" }, "geometry": { "type": "Point", "coordinates": [ 24.900147762859405, 42.174896541409638 ] } },
{ "type": "Feature", "properties": { "candidate_id": "605", "mound_probability": 1.0, "source_tile": "K-35-062-2_Rakovski_x2688_y0.png" }, "geometry": { "type": "Point", "coordinates": [ 24.918724063049705, 42.327139076580735 ] } },
{ "type": "Feature", "properties": { "candidate_id": "607", "mound_probability": 0.95, "source_tile": "K-35-062-2_Rakovski_x2688_y1344.png" }, "geometry": { "type": "Point", "coordinates": [ 24.914531359451622, 42.268017914717632 ] } },
{ "type": "Feature", "properties": { "candidate_id": "608", "mound_probability": 0.95, "source_tile": "K-35-062-2_Rakovski_x2688_y1344.png" }, "geometry": { "type": "Point", "coordinates": [ 24.91557286931252, 42.267613369311121 ] } },
{ "type": "Feature", "properties": { "candidate_id": "609", "mound_probability": 1.0, "source_tile": "K-35-062-2_Rakovski_x2688_y1344.png" }, "geometry": { "type": "Point", "coordinates": [ 24.920398325960935, 42.268440372675251 ] } },
{ "type": "Feature", "properties": { "candidate_id": "610", "mound_probability": 0.75, "source_tile": "K-35-062-2_Rakovski_x2688_y1568.png" }, "geometry": { "type": "Point", "coordinates": [ 24.911488691326163, 42.264344369616865 ] } },
{ "type": "Feature", "properties": { "candidate_id": "612", "mound_probability": 1.0, "source_tile": "K-35-062-2_Rakovski_x2688_y224.png" }, "geometry": { "type": "Point", "coordinates": [ 24.912030005571776, 42.321859161361544 ] } },
{ "type": "Feature", "properties": { "candidate_id": "613", "mound_probability": 1.0, "source_tile": "K-35-062-2_Rakovski_x2688_y224.png" }, "geometry": { "type": "Point", "coordinates": [ 24.917074840009658, 42.316491940104591 ] } },
{ "type": "Feature", "properties": { "candidate_id": "614", "mound_probability": 1.0, "source_tile": "K-35-062-2_Rakovski_x2688_y224.png" }, "geometry": { "type": "Point", "coordinates": [ 24.921715258972512, 42.317109576780823 ] } },
{ "type": "Feature", "properties": { "candidate_id": "618", "mound_probability": 1.0, "source_tile": "K-35-062-2_Rakovski_x2688_y3136.png" }, "geometry": { "type": "Point", "coordinates": [ 24.915012143715646, 42.185134888148085 ] } },
{ "type": "Feature", "properties": { "candidate_id": "619", "mound_probability": 0.95, "source_tile": "K-35-062-2_Rakovski_x2688_y448.png" }, "geometry": { "type": "Point", "coordinates": [ 24.916534519007055, 42.312550427818671 ] } },
{ "type": "Feature", "properties": { "candidate_id": "621", "mound_probability": 1.0, "source_tile": "K-35-062-2_Rakovski_x2912_y0.png" }, "geometry": { "type": "Point", "coordinates": [ 24.92673113543248, 42.328561584025032 ] } },
{ "type": "Feature", "properties": { "candidate_id": "622", "mound_probability": 1.0, "source_tile": "K-35-062-2_Rakovski_x2912_y0.png" }, "geometry": { "type": "Point", "coordinates": [ 24.928094418578603, 42.331920878777908 ] } },
{ "type": "Feature", "properties": { "candidate_id": "623", "mound_probability": 0.85, "source_tile": "K-35-062-2_Rakovski_x2912_y0.png" }, "geometry": { "type": "Point", "coordinates": [ 24.934353204681074, 42.33032371251236 ] } },
{ "type": "Feature", "properties": { "candidate_id": "624", "mound_probability": 0.95, "source_tile": "K-35-062-2_Rakovski_x2912_y1120.png" }, "geometry": { "type": "Point", "coordinates": [ 24.930850434906336, 42.276377233935904 ] } },
{ "type": "Feature", "properties": { "candidate_id": "625", "mound_probability": 0.85, "source_tile": "K-35-062-2_Rakovski_x2912_y1568.png" }, "geometry": { "type": "Point", "coordinates": [ 24.928748438408412, 42.261637548808473 ] } },
{ "type": "Feature", "properties": { "candidate_id": "626", "mound_probability": 1.0, "source_tile": "K-35-062-2_Rakovski_x2912_y1792.png" }, "geometry": { "type": "Point", "coordinates": [ 24.931283369586524, 42.247852834391999 ] } },
{ "type": "Feature", "properties": { "candidate_id": "630", "mound_probability": 1.0, "source_tile": "K-35-062-2_Rakovski_x2912_y224.png" }, "geometry": { "type": "Point", "coordinates": [ 24.930892998663872, 42.323044720157277 ] } },
{ "type": "Feature", "properties": { "candidate_id": "631", "mound_probability": 1.0, "source_tile": "K-35-062-2_Rakovski_x2912_y224.png" }, "geometry": { "type": "Point", "coordinates": [ 24.928528804652242, 42.319637286506179 ] } },
{ "type": "Feature", "properties": { "candidate_id": "634", "mound_probability": 0.95, "source_tile": "K-35-062-2_Rakovski_x2912_y2688.png" }, "geometry": { "type": "Point", "coordinates": [ 24.926503933044174, 42.204672320865591 ] } },
{ "type": "Feature", "properties": { "candidate_id": "635", "mound_probability": 1.0, "source_tile": "K-35-062-2_Rakovski_x2912_y2912.png" }, "geometry": { "type": "Point", "coordinates": [ 24.93107667620713, 42.200846298189099 ] } },
{ "type": "Feature", "properties": { "candidate_id": "637", "mound_probability": 1.0, "source_tile": "K-35-062-2_Rakovski_x2912_y448.png" }, "geometry": { "type": "Point", "coordinates": [ 24.929670121348643, 42.311696167271542 ] } },
{ "type": "Feature", "properties": { "candidate_id": "638", "mound_probability": 0.2, "source_tile": "K-35-062-2_Rakovski_x2688_y448.png" }, "geometry": { "type": "Point", "coordinates": [ 24.921536658650705, 42.311405498284586 ] } },
{ "type": "Feature", "properties": { "candidate_id": "639", "mound_probability": 1.0, "source_tile": "K-35-062-2_Rakovski_x3136_y0.png" }, "geometry": { "type": "Point", "coordinates": [ 24.936780106132016, 42.332263844170051 ] } },
{ "type": "Feature", "properties": { "candidate_id": "640", "mound_probability": 1.0, "source_tile": "K-35-062-2_Rakovski_x3136_y0.png" }, "geometry": { "type": "Point", "coordinates": [ 24.937285103323035, 42.326499206383772 ] } },
{ "type": "Feature", "properties": { "candidate_id": "644", "mound_probability": 1.0, "source_tile": "K-35-062-2_Rakovski_x3136_y1792.png" }, "geometry": { "type": "Point", "coordinates": [ 24.943467381529523, 42.24974284948113 ] } },
{ "type": "Feature", "properties": { "candidate_id": "645", "mound_probability": 0.95, "source_tile": "K-35-062-2_Rakovski_x3136_y1792.png" }, "geometry": { "type": "Point", "coordinates": [ 24.950695374128919, 42.244496697663102 ] } },
{ "type": "Feature", "properties": { "candidate_id": "646", "mound_probability": 1.0, "source_tile": "K-35-062-2_Rakovski_x3136_y224.png" }, "geometry": { "type": "Point", "coordinates": [ 24.943632632009077, 42.316745842280902 ] } },
{ "type": "Feature", "properties": { "candidate_id": "647", "mound_probability": 1.0, "source_tile": "K-35-062-2_Rakovski_x3136_y224.png" }, "geometry": { "type": "Point", "coordinates": [ 24.945615685353946, 42.316891322254726 ] } },
{ "type": "Feature", "properties": { "candidate_id": "648", "mound_probability": 1.0, "source_tile": "K-35-062-2_Rakovski_x3136_y224.png" }, "geometry": { "type": "Point", "coordinates": [ 24.945458203844986, 42.316077398918587 ] } },
{ "type": "Feature", "properties": { "candidate_id": "654", "mound_probability": 1.0, "source_tile": "K-35-062-2_Rakovski_x3136_y3136.png" }, "geometry": { "type": "Point", "coordinates": [ 24.949425348770674, 42.187867111776811 ] } },
{ "type": "Feature", "properties": { "candidate_id": "655", "mound_probability": 1.0, "source_tile": "K-35-062-2_Rakovski_x3136_y3584.png" }, "geometry": { "type": "Point", "coordinates": [ 24.94245634424065, 42.171662251426859 ] } },
{ "type": "Feature", "properties": { "candidate_id": "656", "mound_probability": 0.95, "source_tile": "K-35-062-2_Rakovski_x3136_y672.png" }, "geometry": { "type": "Point", "coordinates": [ 24.937794626541773, 42.296675827071127 ] } },
{ "type": "Feature", "properties": { "candidate_id": "657", "mound_probability": 1.0, "source_tile": "K-35-062-2_Rakovski_x3136_y896.png" }, "geometry": { "type": "Point", "coordinates": [ 24.940213172253948, 42.286358938465028 ] } },
{ "type": "Feature", "properties": { "candidate_id": "659", "mound_probability": 1.0, "source_tile": "K-35-062-2_Rakovski_x3360_y1568.png" }, "geometry": { "type": "Point", "coordinates": [ 24.964426473856239, 42.261324313285492 ] } },
{ "type": "Feature", "properties": { "candidate_id": "660", "mound_probability": 1.0, "source_tile": "K-35-062-2_Rakovski_x3360_y1792.png" }, "geometry": { "type": "Point", "coordinates": [ 24.955866309322687, 42.249582752226289 ] } },
{ "type": "Feature", "properties": { "candidate_id": "669", "mound_probability": 0.85, "source_tile": "K-35-062-2_Rakovski_x3584_y1344.png" }, "geometry": { "type": "Point", "coordinates": [ 24.972276519354423, 42.270431899136504 ] } },
{ "type": "Feature", "properties": { "candidate_id": "670", "mound_probability": 1.0, "source_tile": "K-35-062-2_Rakovski_x3584_y1568.png" }, "geometry": { "type": "Point", "coordinates": [ 24.965137562145525, 42.261299910394214 ] } },
{ "type": "Feature", "properties": { "candidate_id": "671", "mound_probability": 1.0, "source_tile": "K-35-062-2_Rakovski_x3584_y1792.png" }, "geometry": { "type": "Point", "coordinates": [ 24.970670874068272, 42.253371362421134 ] } },
{ "type": "Feature", "properties": { "candidate_id": "675", "mound_probability": 1.0, "source_tile": "K-35-062-2_Rakovski_x3584_y2464.png" }, "geometry": { "type": "Point", "coordinates": [ 24.976077719780786, 42.224413861777244 ] } },
{ "type": "Feature", "properties": { "candidate_id": "676", "mound_probability": 1.0, "source_tile": "K-35-062-2_Rakovski_x3584_y2464.png" }, "geometry": { "type": "Point", "coordinates": [ 24.969707954835776, 42.216236393285214 ] } },
{ "type": "Feature", "properties": { "candidate_id": "677", "mound_probability": 0.85, "source_tile": "K-35-062-2_Rakovski_x3584_y2464.png" }, "geometry": { "type": "Point", "coordinates": [ 24.970979508094405, 42.215901362940151 ] } },
{ "type": "Feature", "properties": { "candidate_id": "680", "mound_probability": 1.0, "source_tile": "K-35-062-2_Rakovski_x3584_y3360.png" }, "geometry": { "type": "Point", "coordinates": [ 24.975737347412799, 42.179073271711999 ] } },
{ "type": "Feature", "properties": { "candidate_id": "681", "mound_probability": 1.0, "source_tile": "K-35-062-2_Rakovski_x3584_y896.png" }, "geometry": { "type": "Point", "coordinates": [ 24.976001071337631, 42.290641162109146 ] } },
{ "type": "Feature", "properties": { "candidate_id": "682", "mound_probability": 0.4, "source_tile": "K-35-062-2_Rakovski_x3808_y0.png" }, "geometry": { "type": "Point", "coordinates": [ 24.984161622914137, 42.327880499024126 ] } },
{ "type": "Feature", "properties": { "candidate_id": "683", "mound_probability": 0.95, "source_tile": "K-35-062-2_Rakovski_x3808_y1120.png" }, "geometry": { "type": "Point", "coordinates": [ 24.984965539025708, 42.282218254319517 ] } },
{ "type": "Feature", "properties": { "candidate_id": "684", "mound_probability": 1.0, "source_tile": "K-35-062-2_Rakovski_x3808_y1120.png" }, "geometry": { "type": "Point", "coordinates": [ 24.990086203136759, 42.276912142217377 ] } },
{ "type": "Feature", "properties": { "candidate_id": "685", "mound_probability": 1.0, "source_tile": "K-35-062-2_Rakovski_x3808_y1344.png" }, "geometry": { "type": "Point", "coordinates": [ 24.982996793983059, 42.274964662165132 ] } },
{ "type": "Feature", "properties": { "candidate_id": "687", "mound_probability": 1.0, "source_tile": "K-35-062-2_Rakovski_x3808_y1792.png" }, "geometry": { "type": "Point", "coordinates": [ 24.982385059161587, 42.252530955897434 ] } },
{ "type": "Feature", "properties": { "candidate_id": "688", "mound_probability": 1.0, "source_tile": "K-35-062-2_Rakovski_x3808_y2016.png" }, "geometry": { "type": "Point", "coordinates": [ 24.983787748294809, 42.242038956836659 ] } },
{ "type": "Feature", "properties": { "candidate_id": "689", "mound_probability": 1.0, "source_tile": "K-35-062-2_Rakovski_x3808_y2016.png" }, "geometry": { "type": "Point", "coordinates": [ 24.986978174213476, 42.241803433215708 ] } },
{ "type": "Feature", "properties": { "candidate_id": "690", "mound_probability": 0.95, "source_tile": "K-35-062-2_Rakovski_x3808_y224.png" }, "geometry": { "type": "Point", "coordinates": [ 24.978462427213547, 42.317895332896569 ] } },
{ "type": "Feature", "properties": { "candidate_id": "691", "mound_probability": 1.0, "source_tile": "K-35-062-2_Rakovski_x3808_y224.png" }, "geometry": { "type": "Point", "coordinates": [ 24.983987785316572, 42.316773098874386 ] } },
{ "type": "Feature", "properties": { "candidate_id": "695", "mound_probability": 0.85, "source_tile": "K-35-062-2_Rakovski_x3808_y2688.png" }, "geometry": { "type": "Point", "coordinates": [ 24.990616350644853, 42.209201681972409 ] } },
{ "type": "Feature", "properties": { "candidate_id": "698", "mound_probability": 0.4, "source_tile": "K-35-062-2_Rakovski_x3808_y3584.png" }, "geometry": { "type": "Point", "coordinates": [ 24.994846932187777, 42.170960403765562 ] } },
{ "type": "Feature", "properties": { "candidate_id": "700", "mound_probability": 1.0, "source_tile": "K-35-062-2_Rakovski_x3808_y896.png" }, "geometry": { "type": "Point", "coordinates": [ 24.983738784099764, 42.287410444832886 ] } },
{ "type": "Feature", "properties": { "candidate_id": "718", "mound_probability": 1.0, "source_tile": "K-35-062-2_Rakovski_x4032_y3136.png" }, "geometry": { "type": "Point", "coordinates": [ 24.997259687364743, 42.187654925603994 ] } },
{ "type": "Feature", "properties": { "candidate_id": "720", "mound_probability": 1.0, "source_tile": "K-35-062-2_Rakovski_x4032_y672.png" }, "geometry": { "type": "Point", "coordinates": [ 24.994972320234623, 42.303042779769314 ] } },
{ "type": "Feature", "properties": { "candidate_id": "722", "mound_probability": 0.95, "source_tile": "K-35-062-2_Rakovski_x448_y0.png" }, "geometry": { "type": "Point", "coordinates": [ 24.780559685430646, 42.332496997139685 ] } },
{ "type": "Feature", "properties": { "candidate_id": "723", "mound_probability": 1.0, "source_tile": "K-35-062-2_Rakovski_x448_y0.png" }, "geometry": { "type": "Point", "coordinates": [ 24.777371140378051, 42.332350741642934 ] } },
{ "type": "Feature", "properties": { "candidate_id": "724", "mound_probability": 1.0, "source_tile": "K-35-062-2_Rakovski_x448_y0.png" }, "geometry": { "type": "Point", "coordinates": [ 24.776797000637043, 42.329127641097386 ] } },
{ "type": "Feature", "properties": { "candidate_id": "725", "mound_probability": 0.85, "source_tile": "K-35-062-2_Rakovski_x448_y1120.png" }, "geometry": { "type": "Point", "coordinates": [ 24.777936864500582, 42.279773689830733 ] } },
{ "type": "Feature", "properties": { "candidate_id": "726", "mound_probability": 1.0, "source_tile": "K-35-062-2_Rakovski_x448_y1344.png" }, "geometry": { "type": "Point", "coordinates": [ 24.779806985234096, 42.268005622251287 ] } },
{ "type": "Feature", "properties": { "candidate_id": "727", "mound_probability": 1.0, "source_tile": "K-35-062-2_Rakovski_x448_y1344.png" }, "geometry": { "type": "Point", "coordinates": [ 24.778132882468462, 42.267413169970432 ] } },
{ "type": "Feature", "properties": { "candidate_id": "728", "mound_probability": 1.0, "source_tile": "K-35-062-2_Rakovski_x448_y1344.png" }, "geometry": { "type": "Point", "coordinates": [ 24.77786128189646, 42.263261005293963 ] } },
{ "type": "Feature", "properties": { "candidate_id": "729", "mound_probability": 1.0, "source_tile": "K-35-062-2_Rakovski_x448_y448.png" }, "geometry": { "type": "Point", "coordinates": [ 24.775031079048865, 42.305925760499029 ] } },
{ "type": "Feature", "properties": { "candidate_id": "730", "mound_probability": 1.0, "source_tile": "K-35-062-2_Rakovski_x448_y672.png" }, "geometry": { "type": "Point", "coordinates": [ 24.776685126094087, 42.300429459351513 ] } },
{ "type": "Feature", "properties": { "candidate_id": "732", "mound_probability": 1.0, "source_tile": "K-35-062-2_Rakovski_x672_y1120.png" }, "geometry": { "type": "Point", "coordinates": [ 24.795508813984476, 42.27261754492541 ] } },
{ "type": "Feature", "properties": { "candidate_id": "733", "mound_probability": 0.95, "source_tile": "K-35-062-2_Rakovski_x672_y1792.png" }, "geometry": { "type": "Point", "coordinates": [ 24.79118147887106, 42.251299865167638 ] } },
{ "type": "Feature", "properties": { "candidate_id": "735", "mound_probability": 1.0, "source_tile": "K-35-062-2_Rakovski_x672_y2240.png" }, "geometry": { "type": "Point", "coordinates": [ 24.800294195041506, 42.222970766562057 ] } },
{ "type": "Feature", "properties": { "candidate_id": "736", "mound_probability": 1.0, "source_tile": "K-35-062-2_Rakovski_x672_y672.png" }, "geometry": { "type": "Point", "coordinates": [ 24.787968906552461, 42.293283123247257 ] } },
{ "type": "Feature", "properties": { "candidate_id": "737", "mound_probability": 1.0, "source_tile": "K-35-062-2_Rakovski_x672_y672.png" }, "geometry": { "type": "Point", "coordinates": [ 24.791991070642585, 42.29427011795277 ] } },
{ "type": "Feature", "properties": { "candidate_id": "738", "mound_probability": 1.0, "source_tile": "K-35-062-2_Rakovski_x672_y896.png" }, "geometry": { "type": "Point", "coordinates": [ 24.790740339371997, 42.291352222731234 ] } },
{ "type": "Feature", "properties": { "candidate_id": "739", "mound_probability": 1.0, "source_tile": "K-35-062-2_Rakovski_x672_y896.png" }, "geometry": { "type": "Point", "coordinates": [ 24.788559428972036, 42.285360585652157 ] } },
{ "type": "Feature", "properties": { "candidate_id": "740", "mound_probability": 0.95, "source_tile": "K-35-062-2_Rakovski_x672_y896.png" }, "geometry": { "type": "Point", "coordinates": [ 24.798693100075106, 42.284367342104723 ] } },
{ "type": "Feature", "properties": { "candidate_id": "746", "mound_probability": 1.0, "source_tile": "K-35-062-2_Rakovski_x896_y224.png" }, "geometry": { "type": "Point", "coordinates": [ 24.806377112625427, 42.317210712250741 ] } },
{ "type": "Feature", "properties": { "candidate_id": "747", "mound_probability": 1.0, "source_tile": "K-35-062-2_Rakovski_x896_y224.png" }, "geometry": { "type": "Point", "coordinates": [ 24.81082442469463, 42.316195384631669 ] } },
{ "type": "Feature", "properties": { "candidate_id": "748", "mound_probability": 1.0, "source_tile": "K-35-062-2_Rakovski_x896_y2240.png" }, "geometry": { "type": "Point", "coordinates": [ 24.813422460196584, 42.221921347788793 ] } },
{ "type": "Feature", "properties": { "candidate_id": "749", "mound_probability": 1.0, "source_tile": "K-35-062-2_Rakovski_x896_y448.png" }, "geometry": { "type": "Point", "coordinates": [ 24.811003184022422, 42.304653715235006 ] } },
{ "type": "Feature", "properties": { "candidate_id": "750", "mound_probability": 0.95, "source_tile": "K-35-062-2_Rakovski_x896_y448.png" }, "geometry": { "type": "Point", "coordinates": [ 24.810497705241431, 42.311140920443684 ] } },
{ "type": "Feature", "properties": { "candidate_id": "751", "mound_probability": 1.0, "source_tile": "K-35-062-2_Rakovski_x896_y448.png" }, "geometry": { "type": "Point", "coordinates": [ 24.80587025398966, 42.312639908679969 ] } },
{ "type": "Feature", "properties": { "candidate_id": "767", "mound_probability": 0.4, "source_tile": "K-35-078-1_Lesovo_x0_y224.png" }, "geometry": { "type": "Point", "coordinates": [ 26.512524914408953, 41.981022148496855 ] } },
{ "type": "Feature", "properties": { "candidate_id": "772", "mound_probability": 1.0, "source_tile": "K-35-078-1_Lesovo_x0_y3360.png" }, "geometry": { "type": "Point", "coordinates": [ 26.506944421245588, 41.842202331479115 ] } },
{ "type": "Feature", "properties": { "candidate_id": "773", "mound_probability": 0.95, "source_tile": "K-35-078-1_Lesovo_x0_y3360.png" }, "geometry": { "type": "Point", "coordinates": [ 26.509465913056129, 41.838091158676676 ] } },
{ "type": "Feature", "properties": { "candidate_id": "840", "mound_probability": 0.2, "source_tile": "K-35-078-1_Lesovo_x2016_y2016.png" }, "geometry": { "type": "Point", "coordinates": [ 26.631148213286554, 41.900517237579763 ] } },
{ "type": "Feature", "properties": { "candidate_id": "864", "mound_probability": 1.0, "source_tile": "K-35-078-1_Lesovo_x2240_y0.png" }, "geometry": { "type": "Point", "coordinates": [ 26.641841871253419, 41.99397889225542 ] } },
{ "type": "Feature", "properties": { "candidate_id": "897", "mound_probability": 0.2, "source_tile": "K-35-078-1_Lesovo_x224_y224.png" }, "geometry": { "type": "Point", "coordinates": [ 26.513213786424323, 41.980602791743436 ] } },
{ "type": "Feature", "properties": { "candidate_id": "901", "mound_probability": 0.85, "source_tile": "K-35-078-1_Lesovo_x224_y3136.png" }, "geometry": { "type": "Point", "coordinates": [ 26.520664174889131, 41.852984707716551 ] } },
{ "type": "Feature", "properties": { "candidate_id": "916", "mound_probability": 0.95, "source_tile": "K-35-078-1_Lesovo_x2464_y224.png" }, "geometry": { "type": "Point", "coordinates": [ 26.659462336535583, 41.984221464077862 ] } },
{ "type": "Feature", "properties": { "candidate_id": "928", "mound_probability": 0.2, "source_tile": "K-35-078-1_Lesovo_x2464_y448.png" }, "geometry": { "type": "Point", "coordinates": [ 26.653413443518669, 41.975676539748676 ] } },
{ "type": "Feature", "properties": { "candidate_id": "929", "mound_probability": 0.4, "source_tile": "K-35-078-1_Lesovo_x2464_y448.png" }, "geometry": { "type": "Point", "coordinates": [ 26.659704381486332, 41.97555846603278 ] } },
{ "type": "Feature", "properties": { "candidate_id": "949", "mound_probability": 1.0, "source_tile": "K-35-078-1_Lesovo_x2688_y2240.png" }, "geometry": { "type": "Point", "coordinates": [ 26.667828801227543, 41.887301051233727 ] } },
{ "type": "Feature", "properties": { "candidate_id": "974", "mound_probability": 1.0, "source_tile": "K-35-078-1_Lesovo_x2912_y1568.png" }, "geometry": { "type": "Point", "coordinates": [ 26.677890612249676, 41.918256978642894 ] } },
{ "type": "Feature", "properties": { "candidate_id": "975", "mound_probability": 0.85, "source_tile": "K-35-078-1_Lesovo_x2912_y1792.png" }, "geometry": { "type": "Point", "coordinates": [ 26.678389582710203, 41.916329089701449 ] } },
{ "type": "Feature", "properties": { "candidate_id": "1030", "mound_probability": 0.85, "source_tile": "K-35-078-1_Lesovo_x3584_y0.png" }, "geometry": { "type": "Point", "coordinates": [ 26.727811366852031, 41.995904040379926 ] } },
{ "type": "Feature", "properties": { "candidate_id": "1100", "mound_probability": 1.0, "source_tile": "K-35-078-1_Lesovo_x4032_y448.png" }, "geometry": { "type": "Point", "coordinates": [ 26.744238783182986, 41.97882901277481 ] } },
{ "type": "Feature", "properties": { "candidate_id": "1111", "mound_probability": 0.3, "source_tile": "K-35-078-1_Lesovo_x448_y1792.png" }, "geometry": { "type": "Point", "coordinates": [ 26.536929789394193, 41.91269022099565 ] } },
{ "type": "Feature", "properties": { "candidate_id": "1123", "mound_probability": 1.0, "source_tile": "K-35-078-1_Lesovo_x448_y2912.png" }, "geometry": { "type": "Point", "coordinates": [ 26.529443246803226, 41.857930702170279 ] } },
{ "type": "Feature", "properties": { "candidate_id": "1125", "mound_probability": 0.95, "source_tile": "K-35-078-1_Lesovo_x448_y3360.png" }, "geometry": { "type": "Point", "coordinates": [ 26.536978552507467, 41.837118311534368 ] } },
{ "type": "Feature", "properties": { "candidate_id": "1126", "mound_probability": 1.0, "source_tile": "K-35-078-1_Lesovo_x448_y3360.png" }, "geometry": { "type": "Point", "coordinates": [ 26.53902509841766, 41.841611638211255 ] } },
{ "type": "Feature", "properties": { "candidate_id": "1127", "mound_probability": 0.95, "source_tile": "K-35-078-1_Lesovo_x448_y3584.png" }, "geometry": { "type": "Point", "coordinates": [ 26.536144550433477, 41.833380458561805 ] } },
{ "type": "Feature", "properties": { "candidate_id": "1128", "mound_probability": 0.2, "source_tile": "K-35-078-1_Lesovo_x448_y672.png" }, "geometry": { "type": "Point", "coordinates": [ 26.529488161189747, 41.966433761436342 ] } },
{ "type": "Feature", "properties": { "candidate_id": "1135", "mound_probability": 0.2, "source_tile": "K-35-078-1_Lesovo_x672_y224.png" }, "geometry": { "type": "Point", "coordinates": [ 26.551116501690625, 41.984227140713791 ] } }
]
}
