{"type": "FeatureCollection", "name": "flash-high-text-1of5", "crs": {"type": "name", "properties": {"name": "urn:ogc:def:crs:EPSG::32635"}}, "features": [{"type": "Feature", "properties": {"source_tile": "K-35-052-4_32635_x0_y0.png", "subtype": "burial_mound", "vote_count": 1, "total_passes": 5}, "geometry": {"type": "Point", "coordinates": [398619.5815225, 4705669.439272]}}, {"type": "Feature", "properties": {"source_tile": "K-35-052-4_32635_x0_y0.png", "subtype": "burial_mound", "vote_count": 3, "total_passes": 5}, "geometry": {"type": "Point", "coordinates": [398619.581522, 4704830.2893940015]}}, {"type": "Feature", "properties": {"source_tile": "K-35-052-4_32635_x0_y1008.png", "subtype": "burial_mound", "vote_count": 5, "total_passes": 5}, "geometry": {"type": "Point", "coordinates": [398278.4704638, 4700102.383667399]}}, {"type": "Feature", "properties": {"source_tile": "K-35-052-4_32635_x0_y1008.png", "subtype": "triangulation_mound", "vote_count": 1, "total_passes": 5}, "geometry": {"type": "Point", "coordinates": [397412.32157200004, 4699540.791349]}}, {"type": "Feature", "properties": {"source_tile": "K-35-052-4_32635_x0_y1344.png", "subtype": "burial_mound", "vote_count": 5, "total_passes": 5}, "geometry": {"type": "Point", "coordinates": [397240.5154946, 4697714.7986503]}}, {"type": "Feature", "properties": {"source_tile": "K-35-052-4_32635_x0_y1344.png", "subtype": "burial_mound", "vote_count": 1, "total_passes": 5}, "geometry": {"type": "Point", "coordinates": [397315.16359999997, 4697689.980079]}}, {"type": "Feature", "properties": {"source_tile": "K-35-052-4_32635_x0_y1680.png", "subtype": "burial_mound", "vote_count": 4, "total_passes": 5}, "geometry": {"type": "Point", "coordinates": [398459.89614237496, 4697232.327551875]}}, {"type": "Feature", "properties": {"source_tile": "K-35-052-4_32635_x0_y1680.png", "subtype": "burial_mound", "vote_count": 5, "total_passes": 5}, "geometry": {"type": "Point", "coordinates": [398383.13172480004, 4697181.8727439]}}, {"type": "Feature", "properties": {"source_tile": "K-35-052-4_32635_x0_y1680.png", "subtype": "triangulation_mound", "vote_count": 1, "total_passes": 5}, "geometry": {"type": "Point", "coordinates": [397815.3828625, 4696649.139229499]}}, {"type": "Feature", "properties": {"source_tile": "K-35-052-4_32635_x0_y1680.png", "subtype": "benchmark_mound", "vote_count": 5, "total_passes": 5}, "geometry": {"type": "Point", "coordinates": [397733.616252, 4696130.0655491]}}, {"type": "Feature", "properties": {"source_tile": "K-35-052-4_32635_x0_y2016.png", "subtype": "burial_mound", "vote_count": 5, "total_passes": 5}, "geometry": {"type": "Point", "coordinates": [397287.65154059994, 4695073.6409456]}}, {"type": "Feature", "properties": {"source_tile": "K-35-052-4_32635_x0_y2016.png", "subtype": "burial_mound", "vote_count": 5, "total_passes": 5}, "geometry": {"type": "Point", "coordinates": [398339.6511274, 4694227.3084324]}}]}