{"type": "FeatureCollection", "crs": {"type": "name", "properties": {"name": "urn:ogc:def:crs:EPSG::32635"}}, "features": [{"type": "Feature", "geometry": {"type": "Point", "coordinates": [407910.1075486622, 4700383.079312632]}, "properties": {"subtype": "burial_mound", "confidence": 1.0, "vote_count": 10, "total_passes": 10, "contributing_passes": ["run_1", "run_10", "run_2", "run_3", "run_4", "run_5", "run_6", "run_7", "run_8", "run_9"], "source_tiles": ["K-35-052-4_32635_x2016_y1008.png"], "cluster_size": 10, "mound_probability": 1.0, "candidate_id": 2, "source_tile": "K-35-052-4_32635_x2016_y1008.png"}}, {"type": "Feature", "geometry": {"type": "Point", "coordinates": [411033.93070089526, 4699159.3578315405]}, "properties": {"subtype": "burial_mound", "confidence": 1.0, "vote_count": 10, "total_passes": 10, "contributing_passes": ["run_1", "run_10", "run_2", "run_3", "run_4", "run_5", "run_6", "run_7", "run_8", "run_9"], "source_tiles": ["K-35-052-4_32635_x2688_y1008.png", "K-35-052-4_32635_x2688_y1344.png"], "cluster_size": 10, "mound_probability": 1.0, "candidate_id": 5, "source_tile": "K-35-052-4_32635_x2688_y1008.png"}}, {"type": "Feature", "geometry": {"type": "Point", "coordinates": [411223.2480589634, 4696333.215777811]}, "properties": {"subtype": "burial_mound", "confidence": 1.0, "vote_count": 10, "total_passes": 10, "contributing_passes": ["run_1", "run_10", "run_2", "run_3", "run_4", "run_5", "run_6", "run_7", "run_8", "run_9"], "source_tiles": ["K-35-052-4_32635_x2688_y1680.png"], "cluster_size": 10, "mound_probability": 1.0, "candidate_id": 7, "source_tile": "K-35-052-4_32635_x2688_y1680.png"}}, {"type": "Feature", "geometry": {"type": "Point", "coordinates": [416613.3923775932, 4694370.018126572]}, "properties": {"subtype": "burial_mound", "confidence": 1.0, "vote_count": 10, "total_passes": 10, "contributing_passes": ["run_1", "run_10", "run_2", "run_3", "run_4", "run_5", "run_6", "run_7", "run_8", "run_9"], "source_tiles": ["K-35-052-4_32635_x3696_y2016.png"], "cluster_size": 10, "mound_probability": 0.15, "candidate_id": 12, "source_tile": "K-35-052-4_32635_x3696_y2016.png"}}, {"type": "Feature", "geometry": {"type": "Point", "coordinates": [398281.9028370414, 4700100.157805519]}, "properties": {"subtype": "burial_mound", "confidence": 1.0, "vote_count": 10, "total_passes": 10, "contributing_passes": ["run_1", "run_10", "run_2", "run_3", "run_4", "run_5", "run_6", "run_7", "run_8", "run_9"], "source_tiles": ["K-35-052-4_32635_x0_y1008.png"], "cluster_size": 10, "mound_probability": 0.95, "candidate_id": 13, "source_tile": "K-35-052-4_32635_x0_y1008.png"}}, {"type": "Feature", "geometry": {"type": "Point", "coordinates": [410879.66058887856, 4702415.423617804]}, "properties": {"subtype": "triangulation_mound", "confidence": 1.0, "vote_count": 10, "total_passes": 10, "contributing_passes": ["run_1", "run_10", "run_2", "run_3", "run_4", "run_5", "run_6", "run_7", "run_8", "run_9"], "source_tiles": ["K-35-052-4_32635_x2688_y672.png"], "cluster_size": 10, "mound_probability": 1.0, "candidate_id": 14, "source_tile": "K-35-052-4_32635_x2688_y672.png"}}, {"type": "Feature", "geometry": {"type": "Point", "coordinates": [416416.34575046785, 4692035.242572978]}, "properties": {"subtype": "burial_mound", "confidence": 1.0, "vote_count": 10, "total_passes": 10, "contributing_passes": ["run_1", "run_10", "run_2", "run_3", "run_4", "run_5", "run_6", "run_7", "run_8", "run_9"], "source_tiles": ["K-35-052-4_32635_x3696_y2688.png"], "cluster_size": 10, "mound_probability": 0.2, "candidate_id": 17, "source_tile": "K-35-052-4_32635_x3696_y2688.png"}}, {"type": "Feature", "geometry": {"type": "Point", "coordinates": [412737.14711090294, 4692728.828110251]}, "properties": {"subtype": "triangulation_mound", "confidence": 1.0, "vote_count": 10, "total_passes": 10, "contributing_passes": ["run_1", "run_10", "run_2", "run_3", "run_4", "run_5", "run_6", "run_7", "run_8", "run_9"], "source_tiles": ["K-35-052-4_32635_x3024_y2352.png"], "cluster_size": 10, "mound_probability": 1.0, "candidate_id": 20, "source_tile": "K-35-052-4_32635_x3024_y2352.png"}}, {"type": "Feature", "geometry": {"type": "Point", "coordinates": [397138.58492824336, 4691909.445316078]}, "properties": {"subtype": "burial_mound", "confidence": 1.0, "vote_count": 10, "total_passes": 10, "contributing_passes": ["run_1", "run_10", "run_2", "run_3", "run_4", "run_5", "run_6", "run_7", "run_8", "run_9"], "source_tiles": ["K-35-052-4_32635_x0_y2688.png"], "cluster_size": 10, "mound_probability": 0.3, "candidate_id": 24, "source_tile": "K-35-052-4_32635_x0_y2688.png"}}, {"type": "Feature", "geometry": {"type": "Point", "coordinates": [398662.5606184568, 4691247.718921385]}, "properties": {"subtype": "burial_mound", "confidence": 1.0, "vote_count": 10, "total_passes": 10, "contributing_passes": ["run_1", "run_10", "run_2", "run_3", "run_4", "run_5", "run_6", "run_7", "run_8", "run_9"], "source_tiles": ["K-35-052-4_32635_x0_y2688.png", "K-35-052-4_32635_x336_y2688.png"], "cluster_size": 11, "mound_probability": 1.0, "candidate_id": 26, "source_tile": "K-35-052-4_32635_x0_y2688.png"}}, {"type": "Feature", "geometry": {"type": "Point", "coordinates": [398460.6757239087, 4697239.234867173]}, "properties": {"subtype": "burial_mound", "confidence": 1.0, "vote_count": 10, "total_passes": 10, "contributing_passes": ["run_1", "run_10", "run_2", "run_3", "run_4", "run_5", "run_6", "run_7", "run_8", "run_9"], "source_tiles": ["K-35-052-4_32635_x0_y1680.png"], "cluster_size": 10, "mound_probability": 1.0, "candidate_id": 27, "source_tile": "K-35-052-4_32635_x0_y1680.png"}}, {"type": "Feature", "geometry": {"type": "Point", "coordinates": [398388.32753523416, 4697181.53443538]}, "properties": {"subtype": "burial_mound", "confidence": 1.0, "vote_count": 10, "total_passes": 10, "contributing_passes": ["run_1", "run_10", "run_2", "run_3", "run_4", "run_5", "run_6", "run_7", "run_8", "run_9"], "source_tiles": ["K-35-052-4_32635_x0_y1680.png"], "cluster_size": 10, "mound_probability": 1.0, "candidate_id": 28, "source_tile": "K-35-052-4_32635_x0_y1680.png"}}, {"type": "Feature", "geometry": {"type": "Point", "coordinates": [409096.6589186184, 4690704.528033399]}, "properties": {"subtype": "burial_mound", "confidence": 1.0, "vote_count": 10, "total_passes": 10, "contributing_passes": ["run_1", "run_10", "run_2", "run_3", "run_4", "run_5", "run_6", "run_7", "run_8", "run_9"], "source_tiles": ["K-35-052-4_32635_x2352_y3024.png"], "cluster_size": 10, "mound_probability": 1.0, "candidate_id": 29, "source_tile": "K-35-052-4_32635_x2352_y3024.png"}}, {"type": "Feature", "geometry": {"type": "Point", "coordinates": [413483.49390216084, 4694112.079303595]}, "properties": {"subtype": "burial_mound", "confidence": 1.0, "vote_count": 10, "total_passes": 10, "contributing_passes": ["run_1", "run_10", "run_2", "run_3", "run_4", "run_5", "run_6", "run_7", "run_8", "run_9"], "source_tiles": ["K-35-052-4_32635_x3024_y2016.png", "K-35-052-4_32635_x3024_y2352.png"], "cluster_size": 11, "mound_probability": 1.0, "candidate_id": 31, "source_tile": "K-35-052-4_32635_x3024_y2016.png"}}, {"type": "Feature", "geometry": {"type": "Point", "coordinates": [413209.66599988844, 4689986.003468452]}, "properties": {"subtype": "burial_mound", "confidence": 1.0, "vote_count": 10, "total_passes": 10, "contributing_passes": ["run_1", "run_10", "run_2", "run_3", "run_4", "run_5", "run_6", "run_7", "run_8", "run_9"], "source_tiles": ["K-35-052-4_32635_x3024_y3024.png"], "cluster_size": 10, "mound_probability": 1.0, "candidate_id": 36, "source_tile": "K-35-052-4_32635_x3024_y3024.png"}}, {"type": "Feature", "geometry": {"type": "Point", "coordinates": [413182.1092641218, 4689650.07173829]}, "properties": {"subtype": "triangulation_mound", "confidence": 1.0, "vote_count": 10, "total_passes": 10, "contributing_passes": ["run_1", "run_10", "run_2", "run_3", "run_4", "run_5", "run_6", "run_7", "run_8", "run_9"], "source_tiles": ["K-35-052-4_32635_x3024_y3024.png"], "cluster_size": 10, "mound_probability": 1.0, "candidate_id": 37, "source_tile": "K-35-052-4_32635_x3024_y3024.png"}}, {"type": "Feature", "geometry": {"type": "Point", "coordinates": [413216.0437550171, 4689377.345433878]}, "properties": {"subtype": "burial_mound", "confidence": 1.0, "vote_count": 10, "total_passes": 10, "contributing_passes": ["run_1", "run_10", "run_2", "run_3", "run_4", "run_5", "run_6", "run_7", "run_8", "run_9"], "source_tiles": ["K-35-052-4_32635_x3024_y3024.png"], "cluster_size": 10, "mound_probability": 1.0, "candidate_id": 38, "source_tile": "K-35-052-4_32635_x3024_y3024.png"}}, {"type": "Feature", "geometry": {"type": "Point", "coordinates": [398997.40321464045, 4695499.54774523]}, "properties": {"subtype": "burial_mound", "confidence": 1.0, "vote_count": 10, "total_passes": 10, "contributing_passes": ["run_1", "run_10", "run_2", "run_3", "run_4", "run_5", "run_6", "run_7", "run_8", "run_9"], "source_tiles": ["K-35-052-4_32635_x336_y2016.png"], "cluster_size": 10, "mound_probability": 1.0, "candidate_id": 43, "source_tile": "K-35-052-4_32635_x336_y2016.png"}}, {"type": "Feature", "geometry": {"type": "Point", "coordinates": [399077.97941906116, 4694164.750340187]}, "properties": {"subtype": "burial_mound", "confidence": 1.0, "vote_count": 10, "total_passes": 10, "contributing_passes": ["run_1", "run_10", "run_2", "run_3", "run_4", "run_5", "run_6", "run_7", "run_8", "run_9"], "source_tiles": ["K-35-052-4_32635_x336_y2016.png", "K-35-052-4_32635_x336_y2352.png"], "cluster_size": 10, "mound_probability": 0.95, "candidate_id": 45, "source_tile": "K-35-052-4_32635_x336_y2016.png"}}, {"type": "Feature", "geometry": {"type": "Point", "coordinates": [399269.76105803763, 4694110.896917123]}, "properties": {"subtype": "burial_mound", "confidence": 1.0, "vote_count": 10, "total_passes": 10, "contributing_passes": ["run_1", "run_10", "run_2", "run_3", "run_4", "run_5", "run_6", "run_7", "run_8", "run_9"], "source_tiles": ["K-35-052-4_32635_x336_y2016.png", "K-35-052-4_32635_x336_y2352.png"], "cluster_size": 10, "mound_probability": 0.4, "candidate_id": 46, "source_tile": "K-35-052-4_32635_x336_y2016.png"}}, {"type": "Feature", "geometry": {"type": "Point", "coordinates": [398720.68958435045, 4702816.610003892]}, "properties": {"subtype": "burial_mound", "confidence": 1.0, "vote_count": 10, "total_passes": 10, "contributing_passes": ["run_1", "run_10", "run_2", "run_3", "run_4", "run_5", "run_6", "run_7", "run_8", "run_9"], "source_tiles": ["K-35-052-4_32635_x0_y336.png", "K-35-052-4_32635_x336_y336.png"], "cluster_size": 11, "mound_probability": 0.95, "candidate_id": 48, "source_tile": "K-35-052-4_32635_x0_y336.png"}}, {"type": "Feature", "geometry": {"type": "Point", "coordinates": [414300.4070939879, 4691469.8034338085]}, "properties": {"subtype": "burial_mound", "confidence": 1.0, "vote_count": 10, "total_passes": 10, "contributing_passes": ["run_1", "run_10", "run_2", "run_3", "run_4", "run_5", "run_6", "run_7", "run_8", "run_9"], "source_tiles": ["K-35-052-4_32635_x3360_y2688.png"], "cluster_size": 10, "mound_probability": 0.85, "candidate_id": 50, "source_tile": "K-35-052-4_32635_x3360_y2688.png"}}, {"type": "Feature", "geometry": {"type": "Point", "coordinates": [397287.94917105115, 4695070.318976232]}, "properties": {"subtype": "burial_mound", "confidence": 1.0, "vote_count": 10, "total_passes": 10, "contributing_passes": ["run_1", "run_10", "run_2", "run_3", "run_4", "run_5", "run_6", "run_7", "run_8", "run_9"], "source_tiles": ["K-35-052-4_32635_x0_y2016.png"], "cluster_size": 10, "mound_probability": 1.0, "candidate_id": 52, "source_tile": "K-35-052-4_32635_x0_y2016.png"}}, {"type": "Feature", "geometry": {"type": "Point", "coordinates": [398344.25607573264, 4694224.022476849]}, "properties": {"subtype": "burial_mound", "confidence": 1.0, "vote_count": 10, "total_passes": 10, "contributing_passes": ["run_1", "run_10", "run_2", "run_3", "run_4", "run_5", "run_6", "run_7", "run_8", "run_9"], "source_tiles": ["K-35-052-4_32635_x0_y2016.png"], "cluster_size": 10, "mound_probability": 0.95, "candidate_id": 53, "source_tile": "K-35-052-4_32635_x0_y2016.png"}}, {"type": "Feature", "geometry": {"type": "Point", "coordinates": [398309.29420277994, 4694106.915731568]}, "properties": {"subtype": "burial_mound", "confidence": 1.0, "vote_count": 10, "total_passes": 10, "contributing_passes": ["run_1", "run_10", "run_2", "run_3", "run_4", "run_5", "run_6", "run_7", "run_8", "run_9"], "source_tiles": ["K-35-052-4_32635_x0_y2016.png", "K-35-052-4_32635_x0_y2352.png"], "cluster_size": 10, "mound_probability": 1.0, "candidate_id": 54, "source_tile": "K-35-052-4_32635_x0_y2016.png"}}, {"type": "Feature", "geometry": {"type": "Point", "coordinates": [404154.0565870969, 4701841.231742159]}, "properties": {"subtype": "burial_mound", "confidence": 1.0, "vote_count": 10, "total_passes": 10, "contributing_passes": ["run_1", "run_10", "run_2", "run_3", "run_4", "run_5", "run_6", "run_7", "run_8", "run_9"], "source_tiles": ["K-35-052-4_32635_x1344_y672.png"], "cluster_size": 10, "mound_probability": 1.0, "candidate_id": 56, "source_tile": "K-35-052-4_32635_x1344_y672.png"}}, {"type": "Feature", "geometry": {"type": "Point", "coordinates": [415021.69765977195, 4694662.040985825]}, "properties": {"subtype": "burial_mound", "confidence": 1.0, "vote_count": 10, "total_passes": 10, "contributing_passes": ["run_1", "run_10", "run_2", "run_3", "run_4", "run_5", "run_6", "run_7", "run_8", "run_9"], "source_tiles": ["K-35-052-4_32635_x3360_y2016.png"], "cluster_size": 10, "mound_probability": 0.95, "candidate_id": 60, "source_tile": "K-35-052-4_32635_x3360_y2016.png"}}, {"type": "Feature", "geometry": {"type": "Point", "coordinates": [416799.7892824434, 4692982.291131771]}, "properties": {"subtype": "burial_mound", "confidence": 1.0, "vote_count": 10, "total_passes": 10, "contributing_passes": ["run_1", "run_10", "run_2", "run_3", "run_4", "run_5", "run_6", "run_7", "run_8", "run_9"], "source_tiles": ["K-35-052-4_32635_x3696_y2352.png"], "cluster_size": 10, "mound_probability": 1.0, "candidate_id": 61, "source_tile": "K-35-052-4_32635_x3696_y2352.png"}}, {"type": "Feature", "geometry": {"type": "Point", "coordinates": [415481.02458605834, 4698413.5696837865]}, "properties": {"subtype": "burial_mound", "confidence": 1.0, "vote_count": 10, "total_passes": 10, "contributing_passes": ["run_1", "run_10", "run_2", "run_3", "run_4", "run_5", "run_6", "run_7", "run_8", "run_9"], "source_tiles": ["K-35-052-4_32635_x3696_y1344.png"], "cluster_size": 10, "mound_probability": 1.0, "candidate_id": 68, "source_tile": "K-35-052-4_32635_x3696_y1344.png"}}, {"type": "Feature", "geometry": {"type": "Point", "coordinates": [416434.4457162636, 4697687.792668443]}, "properties": {"subtype": "triangulation_mound", "confidence": 1.0, "vote_count": 10, "total_passes": 10, "contributing_passes": ["run_1", "run_10", "run_2", "run_3", "run_4", "run_5", "run_6", "run_7", "run_8", "run_9"], "source_tiles": ["K-35-052-4_32635_x3696_y1344.png"], "cluster_size": 10, "mound_probability": 1.0, "candidate_id": 69, "source_tile": "K-35-052-4_32635_x3696_y1344.png"}}, {"type": "Feature", "geometry": {"type": "Point", "coordinates": [400302.32167968847, 4696434.057888778]}, "properties": {"subtype": "burial_mound", "confidence": 1.0, "vote_count": 10, "total_passes": 10, "contributing_passes": ["run_1", "run_10", "run_2", "run_3", "run_4", "run_5", "run_6", "run_7", "run_8", "run_9"], "source_tiles": ["K-35-052-4_32635_x336_y1680.png", "K-35-052-4_32635_x672_y1680.png"], "cluster_size": 10, "mound_probability": 1.0, "candidate_id": 73, "source_tile": "K-35-052-4_32635_x336_y1680.png"}}, {"type": "Feature", "geometry": {"type": "Point", "coordinates": [404310.9105670864, 4702916.924672549]}, "properties": {"subtype": "burial_mound", "confidence": 1.0, "vote_count": 10, "total_passes": 10, "contributing_passes": ["run_1", "run_10", "run_2", "run_3", "run_4", "run_5", "run_6", "run_7", "run_8", "run_9"], "source_tiles": ["K-35-052-4_32635_x1344_y336.png"], "cluster_size": 10, "mound_probability": 0.85, "candidate_id": 74, "source_tile": "K-35-052-4_32635_x1344_y336.png"}}, {"type": "Feature", "geometry": {"type": "Point", "coordinates": [407031.8386800139, 4698249.1723090885]}, "properties": {"subtype": "burial_mound", "confidence": 1.0, "vote_count": 10, "total_passes": 10, "contributing_passes": ["run_1", "run_10", "run_2", "run_3", "run_4", "run_5", "run_6", "run_7", "run_8", "run_9"], "source_tiles": ["K-35-052-4_32635_x2016_y1344.png"], "cluster_size": 10, "mound_probability": 0.95, "candidate_id": 75, "source_tile": "K-35-052-4_32635_x2016_y1344.png"}}, {"type": "Feature", "geometry": {"type": "Point", "coordinates": [398676.8540437277, 4693349.357274532]}, "properties": {"subtype": "triangulation_mound", "confidence": 1.0, "vote_count": 10, "total_passes": 10, "contributing_passes": ["run_1", "run_10", "run_2", "run_3", "run_4", "run_5", "run_6", "run_7", "run_8", "run_9"], "source_tiles": ["K-35-052-4_32635_x0_y2352.png", "K-35-052-4_32635_x336_y2352.png"], "cluster_size": 14, "mound_probability": 1.0, "candidate_id": 80, "source_tile": "K-35-052-4_32635_x0_y2352.png"}}, {"type": "Feature", "geometry": {"type": "Point", "coordinates": [407180.8810728172, 4704095.13047368]}, "properties": {"subtype": "burial_mound", "confidence": 1.0, "vote_count": 10, "total_passes": 10, "contributing_passes": ["run_1", "run_10", "run_2", "run_3", "run_4", "run_5", "run_6", "run_7", "run_8", "run_9"], "source_tiles": ["K-35-052-4_32635_x1680_y336.png", "K-35-052-4_32635_x2016_y0.png", "K-35-052-4_32635_x2016_y336.png"], "cluster_size": 10, "mound_probability": 1.0, "candidate_id": 85, "source_tile": "K-35-052-4_32635_x1680_y336.png"}}, {"type": "Feature", "geometry": {"type": "Point", "coordinates": [408654.8132393508, 4690308.142663236]}, "properties": {"subtype": "burial_mound", "confidence": 1.0, "vote_count": 10, "total_passes": 10, "contributing_passes": ["run_1", "run_10", "run_2", "run_3", "run_4", "run_5", "run_6", "run_7", "run_8", "run_9"], "source_tiles": ["K-35-052-4_32635_x2016_y3024.png"], "cluster_size": 10, "mound_probability": 1.0, "candidate_id": 88, "source_tile": "K-35-052-4_32635_x2016_y3024.png"}}, {"type": "Feature", "geometry": {"type": "Point", "coordinates": [398931.1595712451, 4693547.033648366]}, "properties": {"subtype": "burial_mound", "confidence": 1.0, "vote_count": 10, "total_passes": 10, "contributing_passes": ["run_1", "run_10", "run_2", "run_3", "run_4", "run_5", "run_6", "run_7", "run_8", "run_9"], "source_tiles": ["K-35-052-4_32635_x336_y2352.png"], "cluster_size": 10, "mound_probability": 1.0, "candidate_id": 101, "source_tile": "K-35-052-4_32635_x336_y2352.png"}}, {"type": "Feature", "geometry": {"type": "Point", "coordinates": [400270.1571900095, 4688369.595913021]}, "properties": {"subtype": "triangulation_mound", "confidence": 1.0, "vote_count": 10, "total_passes": 10, "contributing_passes": ["run_1", "run_10", "run_2", "run_3", "run_4", "run_5", "run_6", "run_7", "run_8", "run_9"], "source_tiles": ["K-35-052-4_32635_x336_y3360.png", "K-35-052-4_32635_x672_y3360.png"], "cluster_size": 10, "mound_probability": 0.85, "candidate_id": 106, "source_tile": "K-35-052-4_32635_x336_y3360.png"}}, {"type": "Feature", "geometry": {"type": "Point", "coordinates": [418103.5799936424, 4700503.238516477]}, "properties": {"subtype": "burial_mound", "confidence": 1.0, "vote_count": 10, "total_passes": 10, "contributing_passes": ["run_1", "run_10", "run_2", "run_3", "run_4", "run_5", "run_6", "run_7", "run_8", "run_9"], "source_tiles": ["K-35-053-3_Elenovo_x0_y1008.png", "K-35-053-3_Elenovo_x0_y672.png"], "cluster_size": 10, "mound_probability": 1.0, "candidate_id": 119, "source_tile": "K-35-053-3_Elenovo_x0_y1008.png"}}, {"type": "Feature", "geometry": {"type": "Point", "coordinates": [401620.0146137621, 4700303.201885178]}, "properties": {"subtype": "burial_mound", "confidence": 1.0, "vote_count": 10, "total_passes": 10, "contributing_passes": ["run_1", "run_10", "run_2", "run_3", "run_4", "run_5", "run_6", "run_7", "run_8", "run_9"], "source_tiles": ["K-35-052-4_32635_x672_y1008.png"], "cluster_size": 10, "mound_probability": 0.95, "candidate_id": 124, "source_tile": "K-35-052-4_32635_x672_y1008.png"}}, {"type": "Feature", "geometry": {"type": "Point", "coordinates": [401338.63428990846, 4699372.032472421]}, "properties": {"subtype": "triangulation_mound", "confidence": 1.0, "vote_count": 10, "total_passes": 10, "contributing_passes": ["run_1", "run_10", "run_2", "run_3", "run_4", "run_5", "run_6", "run_7", "run_8", "run_9"], "source_tiles": ["K-35-052-4_32635_x672_y1008.png"], "cluster_size": 10, "mound_probability": 1.0, "candidate_id": 125, "source_tile": "K-35-052-4_32635_x672_y1008.png"}}, {"type": "Feature", "geometry": {"type": "Point", "coordinates": [401783.5646349989, 4699206.497093223]}, "properties": {"subtype": "burial_mound", "confidence": 1.0, "vote_count": 10, "total_passes": 10, "contributing_passes": ["run_1", "run_10", "run_2", "run_3", "run_4", "run_5", "run_6", "run_7", "run_8", "run_9"], "source_tiles": ["K-35-052-4_32635_x672_y1008.png", "K-35-052-4_32635_x672_y1344.png"], "cluster_size": 11, "mound_probability": 0.95, "candidate_id": 126, "source_tile": "K-35-052-4_32635_x672_y1008.png"}}, {"type": "Feature", "geometry": {"type": "Point", "coordinates": [422853.08773778274, 4690227.152236582]}, "properties": {"subtype": "burial_mound", "confidence": 1.0, "vote_count": 10, "total_passes": 10, "contributing_passes": ["run_1", "run_10", "run_2", "run_3", "run_4", "run_5", "run_6", "run_7", "run_8", "run_9"], "source_tiles": ["K-35-053-3_Elenovo_x1008_y3024.png"], "cluster_size": 10, "mound_probability": 1.0, "candidate_id": 129, "source_tile": "K-35-053-3_Elenovo_x1008_y3024.png"}}, {"type": "Feature", "geometry": {"type": "Point", "coordinates": [423850.28776793036, 4688711.394645152]}, "properties": {"subtype": "benchmark_mound", "confidence": 1.0, "vote_count": 10, "total_passes": 10, "contributing_passes": ["run_1", "run_10", "run_2", "run_3", "run_4", "run_5", "run_6", "run_7", "run_8", "run_9"], "source_tiles": ["K-35-053-3_Elenovo_x1008_y3024.png", "K-35-053-3_Elenovo_x1008_y3360.png"], "cluster_size": 10, "mound_probability": 0.95, "candidate_id": 130, "source_tile": "K-35-053-3_Elenovo_x1008_y3024.png"}}, {"type": "Feature", "geometry": {"type": "Point", "coordinates": [424245.0384423856, 4688711.445610543]}, "properties": {"subtype": "burial_mound", "confidence": 1.0, "vote_count": 10, "total_passes": 10, "contributing_passes": ["run_1", "run_10", "run_2", "run_3", "run_4", "run_5", "run_6", "run_7", "run_8", "run_9"], "source_tiles": ["K-35-053-3_Elenovo_x1008_y3024.png", "K-35-053-3_Elenovo_x1008_y3360.png", "K-35-053-3_Elenovo_x1344_y3024.png"], "cluster_size": 13, "mound_probability": 0.95, "candidate_id": 131, "source_tile": "K-35-053-3_Elenovo_x1008_y3024.png"}}, {"type": "Feature", "geometry": {"type": "Point", "coordinates": [422678.82203077816, 4705619.240508988]}, "properties": {"subtype": "burial_mound", "confidence": 1.0, "vote_count": 10, "total_passes": 10, "contributing_passes": ["run_1", "run_10", "run_2", "run_3", "run_4", "run_5", "run_6", "run_7", "run_8", "run_9"], "source_tiles": ["K-35-053-3_Elenovo_x1008_y0.png", "K-35-053-3_Elenovo_x672_y0.png"], "cluster_size": 11, "mound_probability": 1.0, "candidate_id": 138, "source_tile": "K-35-053-3_Elenovo_x1008_y0.png"}}, {"type": "Feature", "geometry": {"type": "Point", "coordinates": [424191.57260343444, 4705439.370508347]}, "properties": {"subtype": "burial_mound", "confidence": 1.0, "vote_count": 10, "total_passes": 10, "contributing_passes": ["run_1", "run_10", "run_2", "run_3", "run_4", "run_5", "run_6", "run_7", "run_8", "run_9"], "source_tiles": ["K-35-053-3_Elenovo_x1008_y0.png"], "cluster_size": 10, "mound_probability": 1.0, "candidate_id": 139, "source_tile": "K-35-053-3_Elenovo_x1008_y0.png"}}, {"type": "Feature", "geometry": {"type": "Point", "coordinates": [423659.75256305846, 4704888.689337359]}, "properties": {"subtype": "burial_mound", "confidence": 1.0, "vote_count": 10, "total_passes": 10, "contributing_passes": ["run_1", "run_10", "run_2", "run_3", "run_4", "run_5", "run_6", "run_7", "run_8", "run_9"], "source_tiles": ["K-35-053-3_Elenovo_x1008_y0.png"], "cluster_size": 10, "mound_probability": 1.0, "candidate_id": 140, "source_tile": "K-35-053-3_Elenovo_x1008_y0.png"}}, {"type": "Feature", "geometry": {"type": "Point", "coordinates": [426642.30300649453, 4701811.844461409]}, "properties": {"subtype": "burial_mound", "confidence": 1.0, "vote_count": 10, "total_passes": 10, "contributing_passes": ["run_1", "run_10", "run_2", "run_3", "run_4", "run_5", "run_6", "run_7", "run_8", "run_9"], "source_tiles": ["K-35-053-3_Elenovo_x1680_y672.png"], "cluster_size": 10, "mound_probability": 1.0, "candidate_id": 142, "source_tile": "K-35-053-3_Elenovo_x1680_y672.png"}}, {"type": "Feature", "geometry": {"type": "Point", "coordinates": [426268.17313909717, 4701023.991697885]}, "properties": {"subtype": "burial_mound", "confidence": 1.0, "vote_count": 10, "total_passes": 10, "contributing_passes": ["run_1", "run_10", "run_2", "run_3", "run_4", "run_5", "run_6", "run_7", "run_8", "run_9"], "source_tiles": ["K-35-053-3_Elenovo_x1680_y672.png"], "cluster_size": 10, "mound_probability": 1.0, "candidate_id": 143, "source_tile": "K-35-053-3_Elenovo_x1680_y672.png"}}, {"type": "Feature", "geometry": {"type": "Point", "coordinates": [400903.66724260215, 4697426.280707078]}, "properties": {"subtype": "burial_mound", "confidence": 1.0, "vote_count": 10, "total_passes": 10, "contributing_passes": ["run_1", "run_10", "run_2", "run_3", "run_4", "run_5", "run_6", "run_7", "run_8", "run_9"], "source_tiles": ["K-35-052-4_32635_x672_y1344.png", "K-35-052-4_32635_x672_y1680.png"], "cluster_size": 11, "mound_probability": 1.0, "candidate_id": 144, "source_tile": "K-35-052-4_32635_x672_y1344.png"}}, {"type": "Feature", "geometry": {"type": "Point", "coordinates": [430611.46645830024, 4705539.840139415]}, "properties": {"subtype": "burial_mound", "confidence": 1.0, "vote_count": 10, "total_passes": 10, "contributing_passes": ["run_1", "run_10", "run_2", "run_3", "run_4", "run_5", "run_6", "run_7", "run_8", "run_9"], "source_tiles": ["K-35-053-3_Elenovo_x2352_y0.png"], "cluster_size": 10, "mound_probability": 1.0, "candidate_id": 153, "source_tile": "K-35-053-3_Elenovo_x2352_y0.png"}}, {"type": "Feature", "geometry": {"type": "Point", "coordinates": [430712.91449555405, 4705610.23619906]}, "properties": {"subtype": "burial_mound", "confidence": 1.0, "vote_count": 10, "total_passes": 10, "contributing_passes": ["run_1", "run_10", "run_2", "run_3", "run_4", "run_5", "run_6", "run_7", "run_8", "run_9"], "source_tiles": ["K-35-053-3_Elenovo_x2352_y0.png"], "cluster_size": 10, "mound_probability": 0.8, "candidate_id": 154, "source_tile": "K-35-053-3_Elenovo_x2352_y0.png"}}, {"type": "Feature", "geometry": {"type": "Point", "coordinates": [322380.0857423942, 4687603.461301637]}, "properties": {"subtype": "burial_mound", "confidence": 1.0, "vote_count": 10, "total_passes": 10, "contributing_passes": ["run_1", "run_10", "run_2", "run_3", "run_4", "run_5", "run_6", "run_7", "run_8", "run_9"], "source_tiles": ["K-35-062-2_Rakovski_x1344_y0.png"], "cluster_size": 10, "mound_probability": 1.0, "candidate_id": 166, "source_tile": "K-35-062-2_Rakovski_x1344_y0.png"}}, {"type": "Feature", "geometry": {"type": "Point", "coordinates": [321108.91590056475, 4687381.780823465]}, "properties": {"subtype": "burial_mound", "confidence": 1.0, "vote_count": 10, "total_passes": 10, "contributing_passes": ["run_1", "run_10", "run_2", "run_3", "run_4", "run_5", "run_6", "run_7", "run_8", "run_9"], "source_tiles": ["K-35-062-2_Rakovski_x1344_y0.png", "K-35-062-2_Rakovski_x1344_y336.png"], "cluster_size": 10, "mound_probability": 0.95, "candidate_id": 167, "source_tile": "K-35-062-2_Rakovski_x1344_y0.png"}}, {"type": "Feature", "geometry": {"type": "Point", "coordinates": [428424.6397489621, 4703360.369447577]}, "properties": {"subtype": "triangulation_mound", "confidence": 1.0, "vote_count": 10, "total_passes": 10, "contributing_passes": ["run_1", "run_10", "run_2", "run_3", "run_4", "run_5", "run_6", "run_7", "run_8", "run_9"], "source_tiles": ["K-35-053-3_Elenovo_x2016_y336.png"], "cluster_size": 10, "mound_probability": 1.0, "candidate_id": 169, "source_tile": "K-35-053-3_Elenovo_x2016_y336.png"}}, {"type": "Feature", "geometry": {"type": "Point", "coordinates": [427761.0741758632, 4705253.64293205]}, "properties": {"subtype": "burial_mound", "confidence": 1.0, "vote_count": 10, "total_passes": 10, "contributing_passes": ["run_1", "run_10", "run_2", "run_3", "run_4", "run_5", "run_6", "run_7", "run_8", "run_9"], "source_tiles": ["K-35-053-3_Elenovo_x1680_y0.png", "K-35-053-3_Elenovo_x2016_y0.png"], "cluster_size": 10, "mound_probability": 1.0, "candidate_id": 170, "source_tile": "K-35-053-3_Elenovo_x1680_y0.png"}}, {"type": "Feature", "geometry": {"type": "Point", "coordinates": [399705.80518617434, 4702662.545577378]}, "properties": {"subtype": "burial_mound", "confidence": 1.0, "vote_count": 10, "total_passes": 10, "contributing_passes": ["run_1", "run_10", "run_2", "run_3", "run_4", "run_5", "run_6", "run_7", "run_8", "run_9"], "source_tiles": ["K-35-052-4_32635_x336_y336.png"], "cluster_size": 10, "mound_probability": 0.95, "candidate_id": 174, "source_tile": "K-35-052-4_32635_x336_y336.png"}}, {"type": "Feature", "geometry": {"type": "Point", "coordinates": [431985.65235715866, 4696533.847416086]}, "properties": {"subtype": "burial_mound", "confidence": 1.0, "vote_count": 10, "total_passes": 10, "contributing_passes": ["run_1", "run_10", "run_2", "run_3", "run_4", "run_5", "run_6", "run_7", "run_8", "run_9"], "source_tiles": ["K-35-053-3_Elenovo_x2688_y1680.png"], "cluster_size": 10, "mound_probability": 1.0, "candidate_id": 175, "source_tile": "K-35-053-3_Elenovo_x2688_y1680.png"}}, {"type": "Feature", "geometry": {"type": "Point", "coordinates": [425296.0803527725, 4705041.867961582]}, "properties": {"subtype": "burial_mound", "confidence": 1.0, "vote_count": 10, "total_passes": 10, "contributing_passes": ["run_1", "run_10", "run_2", "run_3", "run_4", "run_5", "run_6", "run_7", "run_8", "run_9"], "source_tiles": ["K-35-053-3_Elenovo_x1344_y0.png"], "cluster_size": 10, "mound_probability": 0.85, "candidate_id": 179, "source_tile": "K-35-053-3_Elenovo_x1344_y0.png"}}, {"type": "Feature", "geometry": {"type": "Point", "coordinates": [425577.8241524673, 4704912.587110532]}, "properties": {"subtype": "burial_mound", "confidence": 1.0, "vote_count": 10, "total_passes": 10, "contributing_passes": ["run_1", "run_10", "run_2", "run_3", "run_4", "run_5", "run_6", "run_7", "run_8", "run_9"], "source_tiles": ["K-35-053-3_Elenovo_x1344_y0.png"], "cluster_size": 10, "mound_probability": 0.95, "candidate_id": 180, "source_tile": "K-35-053-3_Elenovo_x1344_y0.png"}}, {"type": "Feature", "geometry": {"type": "Point", "coordinates": [425849.7694194897, 4704618.398593105]}, "properties": {"subtype": "burial_mound", "confidence": 1.0, "vote_count": 10, "total_passes": 10, "contributing_passes": ["run_1", "run_10", "run_2", "run_3", "run_4", "run_5", "run_6", "run_7", "run_8", "run_9"], "source_tiles": ["K-35-053-3_Elenovo_x1344_y0.png"], "cluster_size": 10, "mound_probability": 1.0, "candidate_id": 181, "source_tile": "K-35-053-3_Elenovo_x1344_y0.png"}}, {"type": "Feature", "geometry": {"type": "Point", "coordinates": [401073.8083219389, 4693580.040382777]}, "properties": {"subtype": "burial_mound", "confidence": 1.0, "vote_count": 10, "total_passes": 10, "contributing_passes": ["run_1", "run_10", "run_2", "run_3", "run_4", "run_5", "run_6", "run_7", "run_8", "run_9"], "source_tiles": ["K-35-052-4_32635_x672_y2352.png"], "cluster_size": 10, "mound_probability": 1.0, "candidate_id": 182, "source_tile": "K-35-052-4_32635_x672_y2352.png"}}, {"type": "Feature", "geometry": {"type": "Point", "coordinates": [401270.9742899502, 4693508.952268191]}, "properties": {"subtype": "burial_mound", "confidence": 1.0, "vote_count": 10, "total_passes": 10, "contributing_passes": ["run_1", "run_10", "run_2", "run_3", "run_4", "run_5", "run_6", "run_7", "run_8", "run_9"], "source_tiles": ["K-35-052-4_32635_x672_y2352.png"], "cluster_size": 10, "mound_probability": 1.0, "candidate_id": 183, "source_tile": "K-35-052-4_32635_x672_y2352.png"}}, {"type": "Feature", "geometry": {"type": "Point", "coordinates": [400766.79302971927, 4693399.805840221]}, "properties": {"subtype": "burial_mound", "confidence": 1.0, "vote_count": 10, "total_passes": 10, "contributing_passes": ["run_1", "run_10", "run_2", "run_3", "run_4", "run_5", "run_6", "run_7", "run_8", "run_9"], "source_tiles": ["K-35-052-4_32635_x672_y2352.png"], "cluster_size": 10, "mound_probability": 0.95, "candidate_id": 184, "source_tile": "K-35-052-4_32635_x672_y2352.png"}}, {"type": "Feature", "geometry": {"type": "Point", "coordinates": [401443.51320263266, 4693255.744129318]}, "properties": {"subtype": "benchmark_mound", "confidence": 1.0, "vote_count": 10, "total_passes": 10, "contributing_passes": ["run_1", "run_10", "run_2", "run_3", "run_4", "run_5", "run_6", "run_7", "run_8", "run_9"], "source_tiles": ["K-35-052-4_32635_x672_y2352.png"], "cluster_size": 10, "mound_probability": 0.95, "candidate_id": 185, "source_tile": "K-35-052-4_32635_x672_y2352.png"}}, {"type": "Feature", "geometry": {"type": "Point", "coordinates": [329748.5761537951, 4671217.931365484]}, "properties": {"subtype": "triangulation_mound", "confidence": 1.0, "vote_count": 10, "total_passes": 10, "contributing_passes": ["run_1", "run_10", "run_2", "run_3", "run_4", "run_5", "run_6", "run_7", "run_8", "run_9"], "source_tiles": ["K-35-062-2_Rakovski_x3024_y3360.png"], "cluster_size": 10, "mound_probability": 1.0, "candidate_id": 200, "source_tile": "K-35-062-2_Rakovski_x3024_y3360.png"}}, {"type": "Feature", "geometry": {"type": "Point", "coordinates": [421003.6843262878, 4695053.543540958]}, "properties": {"subtype": "triangulation_mound", "confidence": 1.0, "vote_count": 10, "total_passes": 10, "contributing_passes": ["run_1", "run_10", "run_2", "run_3", "run_4", "run_5", "run_6", "run_7", "run_8", "run_9"], "source_tiles": ["K-35-053-3_Elenovo_x336_y2016.png", "K-35-053-3_Elenovo_x672_y2016.png"], "cluster_size": 10, "mound_probability": 1.0, "candidate_id": 222, "source_tile": "K-35-053-3_Elenovo_x336_y2016.png"}}, {"type": "Feature", "geometry": {"type": "Point", "coordinates": [421019.4127165651, 4694573.397947512]}, "properties": {"subtype": "burial_mound", "confidence": 1.0, "vote_count": 10, "total_passes": 10, "contributing_passes": ["run_1", "run_10", "run_2", "run_3", "run_4", "run_5", "run_6", "run_7", "run_8", "run_9"], "source_tiles": ["K-35-053-3_Elenovo_x336_y2016.png", "K-35-053-3_Elenovo_x672_y2016.png"], "cluster_size": 10, "mound_probability": 1.0, "candidate_id": 223, "source_tile": "K-35-053-3_Elenovo_x336_y2016.png"}}, {"type": "Feature", "geometry": {"type": "Point", "coordinates": [431769.8335097659, 4700457.979300648]}, "properties": {"subtype": "burial_mound", "confidence": 1.0, "vote_count": 10, "total_passes": 10, "contributing_passes": ["run_1", "run_10", "run_2", "run_3", "run_4", "run_5", "run_6", "run_7", "run_8", "run_9"], "source_tiles": ["K-35-053-3_Elenovo_x2688_y1008.png", "K-35-053-3_Elenovo_x2688_y672.png"], "cluster_size": 11, "mound_probability": 1.0, "candidate_id": 224, "source_tile": "K-35-053-3_Elenovo_x2688_y1008.png"}}, {"type": "Feature", "geometry": {"type": "Point", "coordinates": [435040.6847189693, 4703560.447793645]}, "properties": {"subtype": "burial_mound", "confidence": 1.0, "vote_count": 10, "total_passes": 10, "contributing_passes": ["run_1", "run_10", "run_2", "run_3", "run_4", "run_5", "run_6", "run_7", "run_8", "run_9"], "source_tiles": ["K-35-053-3_Elenovo_x3360_y336.png"], "cluster_size": 10, "mound_probability": 1.0, "candidate_id": 234, "source_tile": "K-35-053-3_Elenovo_x3360_y336.png"}}, {"type": "Feature", "geometry": {"type": "Point", "coordinates": [436038.982126271, 4703453.495883796]}, "properties": {"subtype": "burial_mound", "confidence": 1.0, "vote_count": 10, "total_passes": 10, "contributing_passes": ["run_1", "run_10", "run_2", "run_3", "run_4", "run_5", "run_6", "run_7", "run_8", "run_9"], "source_tiles": ["K-35-053-3_Elenovo_x3360_y336.png", "K-35-053-3_Elenovo_x3696_y336.png"], "cluster_size": 11, "mound_probability": 0.95, "candidate_id": 236, "source_tile": "K-35-053-3_Elenovo_x3360_y336.png"}}, {"type": "Feature", "geometry": {"type": "Point", "coordinates": [433274.27384020464, 4693137.1304660095]}, "properties": {"subtype": "burial_mound", "confidence": 1.0, "vote_count": 10, "total_passes": 10, "contributing_passes": ["run_1", "run_10", "run_2", "run_3", "run_4", "run_5", "run_6", "run_7", "run_8", "run_9"], "source_tiles": ["K-35-053-3_Elenovo_x3024_y2352.png"], "cluster_size": 10, "mound_probability": 1.0, "candidate_id": 239, "source_tile": "K-35-053-3_Elenovo_x3024_y2352.png"}}, {"type": "Feature", "geometry": {"type": "Point", "coordinates": [418075.5870068646, 4701537.262905478]}, "properties": {"subtype": "burial_mound", "confidence": 1.0, "vote_count": 10, "total_passes": 10, "contributing_passes": ["run_1", "run_10", "run_2", "run_3", "run_4", "run_5", "run_6", "run_7", "run_8", "run_9"], "source_tiles": ["K-35-053-3_Elenovo_x0_y672.png"], "cluster_size": 10, "mound_probability": 1.0, "candidate_id": 243, "source_tile": "K-35-053-3_Elenovo_x0_y672.png"}}, {"type": "Feature", "geometry": {"type": "Point", "coordinates": [417755.2256253683, 4701349.0182625735]}, "properties": {"subtype": "burial_mound", "confidence": 1.0, "vote_count": 10, "total_passes": 10, "contributing_passes": ["run_1", "run_10", "run_2", "run_3", "run_4", "run_5", "run_6", "run_7", "run_8", "run_9"], "source_tiles": ["K-35-053-3_Elenovo_x0_y672.png"], "cluster_size": 10, "mound_probability": 1.0, "candidate_id": 244, "source_tile": "K-35-053-3_Elenovo_x0_y672.png"}}, {"type": "Feature", "geometry": {"type": "Point", "coordinates": [435585.9543180051, 4692728.79770396]}, "properties": {"subtype": "burial_mound", "confidence": 1.0, "vote_count": 10, "total_passes": 10, "contributing_passes": ["run_1", "run_10", "run_2", "run_3", "run_4", "run_5", "run_6", "run_7", "run_8", "run_9"], "source_tiles": ["K-35-053-3_Elenovo_x3360_y2352.png"], "cluster_size": 10, "mound_probability": 1.0, "candidate_id": 248, "source_tile": "K-35-053-3_Elenovo_x3360_y2352.png"}}, {"type": "Feature", "geometry": {"type": "Point", "coordinates": [421002.6654061582, 4691471.461946542]}, "properties": {"subtype": "burial_mound", "confidence": 1.0, "vote_count": 10, "total_passes": 10, "contributing_passes": ["run_1", "run_10", "run_2", "run_3", "run_4", "run_5", "run_6", "run_7", "run_8", "run_9"], "source_tiles": ["K-35-053-3_Elenovo_x336_y2688.png", "K-35-053-3_Elenovo_x672_y2688.png"], "cluster_size": 10, "mound_probability": 1.0, "candidate_id": 250, "source_tile": "K-35-053-3_Elenovo_x336_y2688.png"}}, {"type": "Feature", "geometry": {"type": "Point", "coordinates": [420663.3164927261, 4690824.648109977]}, "properties": {"subtype": "burial_mound", "confidence": 1.0, "vote_count": 10, "total_passes": 10, "contributing_passes": ["run_1", "run_10", "run_2", "run_3", "run_4", "run_5", "run_6", "run_7", "run_8", "run_9"], "source_tiles": ["K-35-053-3_Elenovo_x336_y2688.png"], "cluster_size": 10, "mound_probability": 0.95, "candidate_id": 251, "source_tile": "K-35-053-3_Elenovo_x336_y2688.png"}}, {"type": "Feature", "geometry": {"type": "Point", "coordinates": [436863.5151754401, 4702063.876795302]}, "properties": {"subtype": "burial_mound", "confidence": 1.0, "vote_count": 10, "total_passes": 10, "contributing_passes": ["run_1", "run_10", "run_2", "run_3", "run_4", "run_5", "run_6", "run_7", "run_8", "run_9"], "source_tiles": ["K-35-053-3_Elenovo_x3696_y672.png"], "cluster_size": 11, "mound_probability": 0.75, "candidate_id": 252, "source_tile": "K-35-053-3_Elenovo_x3696_y672.png"}}, {"type": "Feature", "geometry": {"type": "Point", "coordinates": [437007.29606956034, 4701689.122940933]}, "properties": {"subtype": "triangulation_mound", "confidence": 1.0, "vote_count": 10, "total_passes": 10, "contributing_passes": ["run_1", "run_10", "run_2", "run_3", "run_4", "run_5", "run_6", "run_7", "run_8", "run_9"], "source_tiles": ["K-35-053-3_Elenovo_x3696_y672.png"], "cluster_size": 10, "mound_probability": 0.85, "candidate_id": 254, "source_tile": "K-35-053-3_Elenovo_x3696_y672.png"}}, {"type": "Feature", "geometry": {"type": "Point", "coordinates": [420955.58802419674, 4693718.240079954]}, "properties": {"subtype": "burial_mound", "confidence": 1.0, "vote_count": 10, "total_passes": 10, "contributing_passes": ["run_1", "run_10", "run_2", "run_3", "run_4", "run_5", "run_6", "run_7", "run_8", "run_9"], "source_tiles": ["K-35-053-3_Elenovo_x336_y2352.png"], "cluster_size": 10, "mound_probability": 0.95, "candidate_id": 261, "source_tile": "K-35-053-3_Elenovo_x336_y2352.png"}}, {"type": "Feature", "geometry": {"type": "Point", "coordinates": [421065.83183223184, 4692902.761939603]}, "properties": {"subtype": "burial_mound", "confidence": 1.0, "vote_count": 10, "total_passes": 10, "contributing_passes": ["run_1", "run_10", "run_2", "run_3", "run_4", "run_5", "run_6", "run_7", "run_8", "run_9"], "source_tiles": ["K-35-053-3_Elenovo_x336_y2352.png", "K-35-053-3_Elenovo_x672_y2352.png"], "cluster_size": 10, "mound_probability": 0.95, "candidate_id": 262, "source_tile": "K-35-053-3_Elenovo_x336_y2352.png"}}, {"type": "Feature", "geometry": {"type": "Point", "coordinates": [419880.3338223225, 4703520.165157217]}, "properties": {"subtype": "burial_mound", "confidence": 1.0, "vote_count": 10, "total_passes": 10, "contributing_passes": ["run_1", "run_10", "run_2", "run_3", "run_4", "run_5", "run_6", "run_7", "run_8", "run_9"], "source_tiles": ["K-35-053-3_Elenovo_x336_y336.png"], "cluster_size": 10, "mound_probability": 1.0, "candidate_id": 277, "source_tile": "K-35-053-3_Elenovo_x336_y336.png"}}, {"type": "Feature", "geometry": {"type": "Point", "coordinates": [420084.3162819679, 4702913.356555043]}, "properties": {"subtype": "settlement_mound", "confidence": 1.0, "vote_count": 10, "total_passes": 10, "contributing_passes": ["run_1", "run_10", "run_2", "run_3", "run_4", "run_5", "run_6", "run_7", "run_8", "run_9"], "source_tiles": ["K-35-053-3_Elenovo_x336_y336.png"], "cluster_size": 10, "mound_probability": 1.0, "candidate_id": 278, "source_tile": "K-35-053-3_Elenovo_x336_y336.png"}}, {"type": "Feature", "geometry": {"type": "Point", "coordinates": [420582.96003570146, 4702569.6124079805]}, "properties": {"subtype": "benchmark_mound", "confidence": 1.0, "vote_count": 10, "total_passes": 10, "contributing_passes": ["run_1", "run_10", "run_2", "run_3", "run_4", "run_5", "run_6", "run_7", "run_8", "run_9"], "source_tiles": ["K-35-053-3_Elenovo_x336_y336.png"], "cluster_size": 10, "mound_probability": 0.85, "candidate_id": 279, "source_tile": "K-35-053-3_Elenovo_x336_y336.png"}}, {"type": "Feature", "geometry": {"type": "Point", "coordinates": [436436.9933644831, 4693657.691287676]}, "properties": {"subtype": "burial_mound", "confidence": 1.0, "vote_count": 10, "total_passes": 10, "contributing_passes": ["run_1", "run_10", "run_2", "run_3", "run_4", "run_5", "run_6", "run_7", "run_8", "run_9"], "source_tiles": ["K-35-053-3_Elenovo_x3696_y2352.png"], "cluster_size": 10, "mound_probability": 0.4, "candidate_id": 280, "source_tile": "K-35-053-3_Elenovo_x3696_y2352.png"}}, {"type": "Feature", "geometry": {"type": "Point", "coordinates": [437122.65339161846, 4692456.191665303]}, "properties": {"subtype": "burial_mound", "confidence": 1.0, "vote_count": 10, "total_passes": 10, "contributing_passes": ["run_1", "run_10", "run_2", "run_3", "run_4", "run_5", "run_6", "run_7", "run_8", "run_9"], "source_tiles": ["K-35-053-3_Elenovo_x3696_y2352.png"], "cluster_size": 10, "mound_probability": 1.0, "candidate_id": 285, "source_tile": "K-35-053-3_Elenovo_x3696_y2352.png"}}, {"type": "Feature", "geometry": {"type": "Point", "coordinates": [434535.9105161878, 4697063.95223559]}, "properties": {"subtype": "burial_mound", "confidence": 1.0, "vote_count": 10, "total_passes": 10, "contributing_passes": ["run_1", "run_10", "run_2", "run_3", "run_4", "run_5", "run_6", "run_7", "run_8", "run_9"], "source_tiles": ["K-35-053-3_Elenovo_x3360_y1680.png"], "cluster_size": 10, "mound_probability": 1.0, "candidate_id": 309, "source_tile": "K-35-053-3_Elenovo_x3360_y1680.png"}}, {"type": "Feature", "geometry": {"type": "Point", "coordinates": [435222.80379587057, 4696405.367857519]}, "properties": {"subtype": "burial_mound", "confidence": 1.0, "vote_count": 10, "total_passes": 10, "contributing_passes": ["run_1", "run_10", "run_2", "run_3", "run_4", "run_5", "run_6", "run_7", "run_8", "run_9"], "source_tiles": ["K-35-053-3_Elenovo_x3360_y1680.png"], "cluster_size": 10, "mound_probability": 0.3, "candidate_id": 310, "source_tile": "K-35-053-3_Elenovo_x3360_y1680.png"}}, {"type": "Feature", "geometry": {"type": "Point", "coordinates": [435790.7032134076, 4696404.124461622]}, "properties": {"subtype": "burial_mound", "confidence": 1.0, "vote_count": 10, "total_passes": 10, "contributing_passes": ["run_1", "run_10", "run_2", "run_3", "run_4", "run_5", "run_6", "run_7", "run_8", "run_9"], "source_tiles": ["K-35-053-3_Elenovo_x3360_y1680.png"], "cluster_size": 10, "mound_probability": 1.0, "candidate_id": 311, "source_tile": "K-35-053-3_Elenovo_x3360_y1680.png"}}, {"type": "Feature", "geometry": {"type": "Point", "coordinates": [435002.35179864406, 4695695.600524129]}, "properties": {"subtype": "burial_mound", "confidence": 1.0, "vote_count": 10, "total_passes": 10, "contributing_passes": ["run_1", "run_10", "run_2", "run_3", "run_4", "run_5", "run_6", "run_7", "run_8", "run_9"], "source_tiles": ["K-35-053-3_Elenovo_x3360_y1680.png"], "cluster_size": 10, "mound_probability": 0.95, "candidate_id": 312, "source_tile": "K-35-053-3_Elenovo_x3360_y1680.png"}}, {"type": "Feature", "geometry": {"type": "Point", "coordinates": [435405.5726444964, 4695463.771527143]}, "properties": {"subtype": "burial_mound", "confidence": 1.0, "vote_count": 10, "total_passes": 10, "contributing_passes": ["run_1", "run_10", "run_2", "run_3", "run_4", "run_5", "run_6", "run_7", "run_8", "run_9"], "source_tiles": ["K-35-053-3_Elenovo_x3360_y1680.png", "K-35-053-3_Elenovo_x3360_y2016.png"], "cluster_size": 10, "mound_probability": 1.0, "candidate_id": 313, "source_tile": "K-35-053-3_Elenovo_x3360_y1680.png"}}, {"type": "Feature", "geometry": {"type": "Point", "coordinates": [420847.7407832185, 4704072.937098796]}, "properties": {"subtype": "burial_mound", "confidence": 1.0, "vote_count": 10, "total_passes": 10, "contributing_passes": ["run_1", "run_10", "run_2", "run_3", "run_4", "run_5", "run_6", "run_7", "run_8", "run_9"], "source_tiles": ["K-35-053-3_Elenovo_x336_y0.png"], "cluster_size": 10, "mound_probability": 0.4, "candidate_id": 316, "source_tile": "K-35-053-3_Elenovo_x336_y0.png"}}, {"type": "Feature", "geometry": {"type": "Point", "coordinates": [421108.90970188106, 4690004.161720891]}, "properties": {"subtype": "benchmark_mound", "confidence": 1.0, "vote_count": 10, "total_passes": 10, "contributing_passes": ["run_1", "run_10", "run_2", "run_3", "run_4", "run_5", "run_6", "run_7", "run_8", "run_9"], "source_tiles": ["K-35-053-3_Elenovo_x672_y3024.png"], "cluster_size": 10, "mound_probability": 1.0, "candidate_id": 321, "source_tile": "K-35-053-3_Elenovo_x672_y3024.png"}}, {"type": "Feature", "geometry": {"type": "Point", "coordinates": [422269.2883862316, 4703972.430401392]}, "properties": {"subtype": "burial_mound", "confidence": 1.0, "vote_count": 10, "total_passes": 10, "contributing_passes": ["run_1", "run_10", "run_2", "run_3", "run_4", "run_5", "run_6", "run_7", "run_8", "run_9"], "source_tiles": ["K-35-053-3_Elenovo_x672_y0.png", "K-35-053-3_Elenovo_x672_y336.png"], "cluster_size": 11, "mound_probability": 0.85, "candidate_id": 322, "source_tile": "K-35-053-3_Elenovo_x672_y0.png"}}, {"type": "Feature", "geometry": {"type": "Point", "coordinates": [421891.8745247944, 4704210.74959137]}, "properties": {"subtype": "burial_mound", "confidence": 1.0, "vote_count": 10, "total_passes": 10, "contributing_passes": ["run_1", "run_10", "run_2", "run_3", "run_4", "run_5", "run_6", "run_7", "run_8", "run_9"], "source_tiles": ["K-35-053-3_Elenovo_x672_y0.png"], "cluster_size": 10, "mound_probability": 1.0, "candidate_id": 327, "source_tile": "K-35-053-3_Elenovo_x672_y0.png"}}, {"type": "Feature", "geometry": {"type": "Point", "coordinates": [425058.77742995124, 4694834.328303734]}, "properties": {"subtype": "burial_mound", "confidence": 1.0, "vote_count": 10, "total_passes": 10, "contributing_passes": ["run_1", "run_10", "run_2", "run_3", "run_4", "run_5", "run_6", "run_7", "run_8", "run_9"], "source_tiles": ["K-35-053-3_Elenovo_x1344_y2016.png"], "cluster_size": 10, "mound_probability": 1.0, "candidate_id": 336, "source_tile": "K-35-053-3_Elenovo_x1344_y2016.png"}}, {"type": "Feature", "geometry": {"type": "Point", "coordinates": [425663.74148968444, 4694147.797260276]}, "properties": {"subtype": "burial_mound", "confidence": 1.0, "vote_count": 10, "total_passes": 10, "contributing_passes": ["run_1", "run_10", "run_2", "run_3", "run_4", "run_5", "run_6", "run_7", "run_8", "run_9"], "source_tiles": ["K-35-053-3_Elenovo_x1344_y2016.png"], "cluster_size": 10, "mound_probability": 1.0, "candidate_id": 337, "source_tile": "K-35-053-3_Elenovo_x1344_y2016.png"}}, {"type": "Feature", "geometry": {"type": "Point", "coordinates": [320571.2485921306, 4682359.794790906]}, "properties": {"subtype": "burial_mound", "confidence": 1.0, "vote_count": 10, "total_passes": 10, "contributing_passes": ["run_1", "run_10", "run_2", "run_3", "run_4", "run_5", "run_6", "run_7", "run_8", "run_9"], "source_tiles": ["K-35-062-2_Rakovski_x1008_y1008.png", "K-35-062-2_Rakovski_x1008_y1344.png"], "cluster_size": 10, "mound_probability": 1.0, "candidate_id": 341, "source_tile": "K-35-062-2_Rakovski_x1008_y1008.png"}}, {"type": "Feature", "geometry": {"type": "Point", "coordinates": [315481.87147406104, 4684388.292707916]}, "properties": {"subtype": "burial_mound", "confidence": 1.0, "vote_count": 10, "total_passes": 10, "contributing_passes": ["run_1", "run_10", "run_2", "run_3", "run_4", "run_5", "run_6", "run_7", "run_8", "run_9"], "source_tiles": ["K-35-062-2_Rakovski_x0_y672.png"], "cluster_size": 10, "mound_probability": 0.95, "candidate_id": 342, "source_tile": "K-35-062-2_Rakovski_x0_y672.png"}}, {"type": "Feature", "geometry": {"type": "Point", "coordinates": [319241.0344612418, 4687334.250346778]}, "properties": {"subtype": "burial_mound", "confidence": 1.0, "vote_count": 10, "total_passes": 10, "contributing_passes": ["run_1", "run_10", "run_2", "run_3", "run_4", "run_5", "run_6", "run_7", "run_8", "run_9"], "source_tiles": ["K-35-062-2_Rakovski_x1008_y0.png", "K-35-062-2_Rakovski_x1008_y336.png", "K-35-062-2_Rakovski_x672_y0.png", "K-35-062-2_Rakovski_x672_y336.png"], "cluster_size": 13, "mound_probability": 1.0, "candidate_id": 345, "source_tile": "K-35-062-2_Rakovski_x1008_y0.png"}}, {"type": "Feature", "geometry": {"type": "Point", "coordinates": [315265.47729052056, 4682382.391910358]}, "properties": {"subtype": "burial_mound", "confidence": 1.0, "vote_count": 10, "total_passes": 10, "contributing_passes": ["run_1", "run_10", "run_2", "run_3", "run_4", "run_5", "run_6", "run_7", "run_8", "run_9"], "source_tiles": ["K-35-062-2_Rakovski_x0_y1008.png", "K-35-062-2_Rakovski_x0_y1344.png"], "cluster_size": 11, "mound_probability": 0.85, "candidate_id": 348, "source_tile": "K-35-062-2_Rakovski_x0_y1008.png"}}, {"type": "Feature", "geometry": {"type": "Point", "coordinates": [315774.67629074055, 4677032.559529662]}, "properties": {"subtype": "burial_mound", "confidence": 1.0, "vote_count": 10, "total_passes": 10, "contributing_passes": ["run_1", "run_10", "run_2", "run_3", "run_4", "run_5", "run_6", "run_7", "run_8", "run_9"], "source_tiles": ["K-35-062-2_Rakovski_x0_y2352.png"], "cluster_size": 10, "mound_probability": 1.0, "candidate_id": 357, "source_tile": "K-35-062-2_Rakovski_x0_y2352.png"}}, {"type": "Feature", "geometry": {"type": "Point", "coordinates": [314338.3968245064, 4676211.492381758]}, "properties": {"subtype": "burial_mound", "confidence": 1.0, "vote_count": 10, "total_passes": 10, "contributing_passes": ["run_1", "run_10", "run_2", "run_3", "run_4", "run_5", "run_6", "run_7", "run_8", "run_9"], "source_tiles": ["K-35-062-2_Rakovski_x0_y2352.png"], "cluster_size": 10, "mound_probability": 0.95, "candidate_id": 359, "source_tile": "K-35-062-2_Rakovski_x0_y2352.png"}}, {"type": "Feature", "geometry": {"type": "Point", "coordinates": [314178.9316948375, 4675912.681532682]}, "properties": {"subtype": "triangulation_mound", "confidence": 1.0, "vote_count": 10, "total_passes": 10, "contributing_passes": ["run_1", "run_10", "run_2", "run_3", "run_4", "run_5", "run_6", "run_7", "run_8", "run_9"], "source_tiles": ["K-35-062-2_Rakovski_x0_y2352.png"], "cluster_size": 10, "mound_probability": 0.95, "candidate_id": 360, "source_tile": "K-35-062-2_Rakovski_x0_y2352.png"}}, {"type": "Feature", "geometry": {"type": "Point", "coordinates": [320437.86514770996, 4679940.6908480935]}, "properties": {"subtype": "burial_mound", "confidence": 1.0, "vote_count": 10, "total_passes": 10, "contributing_passes": ["run_1", "run_10", "run_2", "run_3", "run_4", "run_5", "run_6", "run_7", "run_8", "run_9"], "source_tiles": ["K-35-062-2_Rakovski_x1008_y1680.png"], "cluster_size": 10, "mound_probability": 1.0, "candidate_id": 361, "source_tile": "K-35-062-2_Rakovski_x1008_y1680.png"}}, {"type": "Feature", "geometry": {"type": "Point", "coordinates": [437873.30280447775, 4689884.55273398]}, "properties": {"subtype": "benchmark_mound", "confidence": 1.0, "vote_count": 10, "total_passes": 10, "contributing_passes": ["run_1", "run_10", "run_2", "run_3", "run_4", "run_5", "run_6", "run_7", "run_8", "run_9"], "source_tiles": ["K-35-053-3_Elenovo_x3696_y3024.png", "K-35-053-3_Elenovo_x4032_y3024.png"], "cluster_size": 10, "mound_probability": 0.95, "candidate_id": 362, "source_tile": "K-35-053-3_Elenovo_x3696_y3024.png"}}, {"type": "Feature", "geometry": {"type": "Point", "coordinates": [322781.92122338875, 4688282.193970957]}, "properties": {"subtype": "burial_mound", "confidence": 1.0, "vote_count": 10, "total_passes": 10, "contributing_passes": ["run_1", "run_10", "run_2", "run_3", "run_4", "run_5", "run_6", "run_7", "run_8", "run_9"], "source_tiles": ["K-35-062-2_Rakovski_x1680_y0.png"], "cluster_size": 10, "mound_probability": 1.0, "candidate_id": 369, "source_tile": "K-35-062-2_Rakovski_x1680_y0.png"}}, {"type": "Feature", "geometry": {"type": "Point", "coordinates": [323034.03182395827, 4688232.266352939]}, "properties": {"subtype": "burial_mound", "confidence": 1.0, "vote_count": 10, "total_passes": 10, "contributing_passes": ["run_1", "run_10", "run_2", "run_3", "run_4", "run_5", "run_6", "run_7", "run_8", "run_9"], "source_tiles": ["K-35-062-2_Rakovski_x1680_y0.png"], "cluster_size": 10, "mound_probability": 1.0, "candidate_id": 371, "source_tile": "K-35-062-2_Rakovski_x1680_y0.png"}}, {"type": "Feature", "geometry": {"type": "Point", "coordinates": [322713.4742086446, 4687708.023280798]}, "properties": {"subtype": "burial_mound", "confidence": 1.0, "vote_count": 10, "total_passes": 10, "contributing_passes": ["run_1", "run_10", "run_2", "run_3", "run_4", "run_5", "run_6", "run_7", "run_8", "run_9"], "source_tiles": ["K-35-062-2_Rakovski_x1680_y0.png"], "cluster_size": 10, "mound_probability": 0.95, "candidate_id": 372, "source_tile": "K-35-062-2_Rakovski_x1680_y0.png"}}, {"type": "Feature", "geometry": {"type": "Point", "coordinates": [326771.32749266515, 4674760.606100826]}, "properties": {"subtype": "triangulation_mound", "confidence": 1.0, "vote_count": 10, "total_passes": 10, "contributing_passes": ["run_1", "run_10", "run_2", "run_3", "run_4", "run_5", "run_6", "run_7", "run_8", "run_9"], "source_tiles": ["K-35-062-2_Rakovski_x2352_y2688.png"], "cluster_size": 10, "mound_probability": 0.95, "candidate_id": 386, "source_tile": "K-35-062-2_Rakovski_x2352_y2688.png"}}, {"type": "Feature", "geometry": {"type": "Point", "coordinates": [326494.4094244136, 4674481.547761327]}, "properties": {"subtype": "burial_mound", "confidence": 1.0, "vote_count": 10, "total_passes": 10, "contributing_passes": ["run_1", "run_10", "run_2", "run_3", "run_4", "run_5", "run_6", "run_7", "run_8", "run_9"], "source_tiles": ["K-35-062-2_Rakovski_x2352_y2688.png"], "cluster_size": 10, "mound_probability": 1.0, "candidate_id": 387, "source_tile": "K-35-062-2_Rakovski_x2352_y2688.png"}}, {"type": "Feature", "geometry": {"type": "Point", "coordinates": [327222.0797598275, 4674426.42580408]}, "properties": {"subtype": "burial_mound", "confidence": 1.0, "vote_count": 10, "total_passes": 10, "contributing_passes": ["run_1", "run_10", "run_2", "run_3", "run_4", "run_5", "run_6", "run_7", "run_8", "run_9"], "source_tiles": ["K-35-062-2_Rakovski_x2352_y2688.png"], "cluster_size": 10, "mound_probability": 0.95, "candidate_id": 388, "source_tile": "K-35-062-2_Rakovski_x2352_y2688.png"}}, {"type": "Feature", "geometry": {"type": "Point", "coordinates": [326797.5801214919, 4672207.604480628]}, "properties": {"subtype": "burial_mound", "confidence": 1.0, "vote_count": 10, "total_passes": 10, "contributing_passes": ["run_1", "run_10", "run_2", "run_3", "run_4", "run_5", "run_6", "run_7", "run_8", "run_9"], "source_tiles": ["K-35-062-2_Rakovski_x2352_y3024.png", "K-35-062-2_Rakovski_x2352_y3360.png"], "cluster_size": 10, "mound_probability": 0.85, "candidate_id": 389, "source_tile": "K-35-062-2_Rakovski_x2352_y3024.png"}}, {"type": "Feature", "geometry": {"type": "Point", "coordinates": [324785.5500957661, 4682884.576741763]}, "properties": {"subtype": "benchmark_mound", "confidence": 1.0, "vote_count": 10, "total_passes": 10, "contributing_passes": ["run_1", "run_10", "run_2", "run_3", "run_4", "run_5", "run_6", "run_7", "run_8", "run_9"], "source_tiles": ["K-35-062-2_Rakovski_x2016_y1008.png"], "cluster_size": 10, "mound_probability": 0.95, "candidate_id": 399, "source_tile": "K-35-062-2_Rakovski_x2016_y1008.png"}}, {"type": "Feature", "geometry": {"type": "Point", "coordinates": [322561.0737823588, 4683116.457377455]}, "properties": {"subtype": "burial_mound", "confidence": 1.0, "vote_count": 10, "total_passes": 10, "contributing_passes": ["run_1", "run_10", "run_2", "run_3", "run_4", "run_5", "run_6", "run_7", "run_8", "run_9"], "source_tiles": ["K-35-062-2_Rakovski_x1344_y1008.png", "K-35-062-2_Rakovski_x1680_y1008.png"], "cluster_size": 10, "mound_probability": 1.0, "candidate_id": 409, "source_tile": "K-35-062-2_Rakovski_x1344_y1008.png"}}, {"type": "Feature", "geometry": {"type": "Point", "coordinates": [323175.2911135085, 4685692.6567544965]}, "properties": {"subtype": "settlement_mound", "confidence": 1.0, "vote_count": 10, "total_passes": 10, "contributing_passes": ["run_1", "run_10", "run_2", "run_3", "run_4", "run_5", "run_6", "run_7", "run_8", "run_9"], "source_tiles": ["K-35-062-2_Rakovski_x1680_y336.png", "K-35-062-2_Rakovski_x1680_y672.png"], "cluster_size": 10, "mound_probability": 0.8, "candidate_id": 412, "source_tile": "K-35-062-2_Rakovski_x1680_y336.png"}}, {"type": "Feature", "geometry": {"type": "Point", "coordinates": [325378.1857328613, 4687369.016411649]}, "properties": {"subtype": "burial_mound", "confidence": 1.0, "vote_count": 10, "total_passes": 10, "contributing_passes": ["run_1", "run_10", "run_2", "run_3", "run_4", "run_5", "run_6", "run_7", "run_8", "run_9"], "source_tiles": ["K-35-062-2_Rakovski_x2016_y336.png"], "cluster_size": 10, "mound_probability": 1.0, "candidate_id": 431, "source_tile": "K-35-062-2_Rakovski_x2016_y336.png"}}, {"type": "Feature", "geometry": {"type": "Point", "coordinates": [324329.63234407164, 4685802.426497993]}, "properties": {"subtype": "burial_mound", "confidence": 1.0, "vote_count": 10, "total_passes": 10, "contributing_passes": ["run_1", "run_10", "run_2", "run_3", "run_4", "run_5", "run_6", "run_7", "run_8", "run_9"], "source_tiles": ["K-35-062-2_Rakovski_x1680_y336.png", "K-35-062-2_Rakovski_x1680_y672.png", "K-35-062-2_Rakovski_x2016_y336.png"], "cluster_size": 12, "mound_probability": 0.95, "candidate_id": 433, "source_tile": "K-35-062-2_Rakovski_x1680_y336.png"}}, {"type": "Feature", "geometry": {"type": "Point", "coordinates": [332768.76473055023, 4681797.131070458]}, "properties": {"subtype": "burial_mound", "confidence": 1.0, "vote_count": 10, "total_passes": 10, "contributing_passes": ["run_1", "run_10", "run_2", "run_3", "run_4", "run_5", "run_6", "run_7", "run_8", "run_9"], "source_tiles": ["K-35-062-2_Rakovski_x3360_y1344.png", "K-35-062-2_Rakovski_x3696_y1344.png"], "cluster_size": 10, "mound_probability": 0.95, "candidate_id": 435, "source_tile": "K-35-062-2_Rakovski_x3360_y1344.png"}}, {"type": "Feature", "geometry": {"type": "Point", "coordinates": [332164.1920453876, 4680800.729367941]}, "properties": {"subtype": "burial_mound", "confidence": 1.0, "vote_count": 10, "total_passes": 10, "contributing_passes": ["run_1", "run_10", "run_2", "run_3", "run_4", "run_5", "run_6", "run_7", "run_8", "run_9"], "source_tiles": ["K-35-062-2_Rakovski_x3360_y1344.png"], "cluster_size": 10, "mound_probability": 1.0, "candidate_id": 436, "source_tile": "K-35-062-2_Rakovski_x3360_y1344.png"}}, {"type": "Feature", "geometry": {"type": "Point", "coordinates": [327446.9726629086, 4680423.933218197]}, "properties": {"subtype": "burial_mound", "confidence": 1.0, "vote_count": 10, "total_passes": 10, "contributing_passes": ["run_1", "run_10", "run_2", "run_3", "run_4", "run_5", "run_6", "run_7", "run_8", "run_9"], "source_tiles": ["K-35-062-2_Rakovski_x2352_y1680.png"], "cluster_size": 10, "mound_probability": 0.95, "candidate_id": 442, "source_tile": "K-35-062-2_Rakovski_x2352_y1680.png"}}, {"type": "Feature", "geometry": {"type": "Point", "coordinates": [323421.31512372836, 4678348.076669543]}, "properties": {"subtype": "burial_mound", "confidence": 1.0, "vote_count": 10, "total_passes": 10, "contributing_passes": ["run_1", "run_10", "run_2", "run_3", "run_4", "run_5", "run_6", "run_7", "run_8", "run_9"], "source_tiles": ["K-35-062-2_Rakovski_x1680_y2016.png"], "cluster_size": 10, "mound_probability": 0.95, "candidate_id": 447, "source_tile": "K-35-062-2_Rakovski_x1680_y2016.png"}}, {"type": "Feature", "geometry": {"type": "Point", "coordinates": [434624.16671247786, 4694694.814425592]}, "properties": {"subtype": "burial_mound", "confidence": 1.0, "vote_count": 10, "total_passes": 10, "contributing_passes": ["run_1", "run_10", "run_2", "run_3", "run_4", "run_5", "run_6", "run_7", "run_8", "run_9"], "source_tiles": ["K-35-053-3_Elenovo_x3360_y2016.png"], "cluster_size": 10, "mound_probability": 1.0, "candidate_id": 453, "source_tile": "K-35-053-3_Elenovo_x3360_y2016.png"}}, {"type": "Feature", "geometry": {"type": "Point", "coordinates": [325971.9459257028, 4677191.04819744]}, "properties": {"subtype": "burial_mound", "confidence": 1.0, "vote_count": 10, "total_passes": 10, "contributing_passes": ["run_1", "run_10", "run_2", "run_3", "run_4", "run_5", "run_6", "run_7", "run_8", "run_9"], "source_tiles": ["K-35-062-2_Rakovski_x2016_y2016.png", "K-35-062-2_Rakovski_x2016_y2352.png", "K-35-062-2_Rakovski_x2352_y2016.png", "K-35-062-2_Rakovski_x2352_y2352.png"], "cluster_size": 10, "mound_probability": 1.0, "candidate_id": 457, "source_tile": "K-35-062-2_Rakovski_x2016_y2016.png"}}, {"type": "Feature", "geometry": {"type": "Point", "coordinates": [326077.7539335429, 4677198.763595858]}, "properties": {"subtype": "burial_mound", "confidence": 1.0, "vote_count": 10, "total_passes": 10, "contributing_passes": ["run_1", "run_10", "run_2", "run_3", "run_4", "run_5", "run_6", "run_7", "run_8", "run_9"], "source_tiles": ["K-35-062-2_Rakovski_x2352_y2016.png", "K-35-062-2_Rakovski_x2352_y2352.png"], "cluster_size": 10, "mound_probability": 0.2, "candidate_id": 458, "source_tile": "K-35-062-2_Rakovski_x2352_y2016.png"}}, {"type": "Feature", "geometry": {"type": "Point", "coordinates": [319600.41703168186, 4687212.431532046]}, "properties": {"subtype": "burial_mound", "confidence": 1.0, "vote_count": 10, "total_passes": 10, "contributing_passes": ["run_1", "run_10", "run_2", "run_3", "run_4", "run_5", "run_6", "run_7", "run_8", "run_9"], "source_tiles": ["K-35-062-2_Rakovski_x1008_y336.png"], "cluster_size": 10, "mound_probability": 1.0, "candidate_id": 460, "source_tile": "K-35-062-2_Rakovski_x1008_y336.png"}}, {"type": "Feature", "geometry": {"type": "Point", "coordinates": [319560.77012140106, 4686636.425345249]}, "properties": {"subtype": "burial_mound", "confidence": 1.0, "vote_count": 10, "total_passes": 10, "contributing_passes": ["run_1", "run_10", "run_2", "run_3", "run_4", "run_5", "run_6", "run_7", "run_8", "run_9"], "source_tiles": ["K-35-062-2_Rakovski_x1008_y336.png"], "cluster_size": 10, "mound_probability": 0.95, "candidate_id": 462, "source_tile": "K-35-062-2_Rakovski_x1008_y336.png"}}, {"type": "Feature", "geometry": {"type": "Point", "coordinates": [320302.69071025006, 4686127.685213164]}, "properties": {"subtype": "burial_mound", "confidence": 1.0, "vote_count": 10, "total_passes": 10, "contributing_passes": ["run_1", "run_10", "run_2", "run_3", "run_4", "run_5", "run_6", "run_7", "run_8", "run_9"], "source_tiles": ["K-35-062-2_Rakovski_x1008_y336.png"], "cluster_size": 10, "mound_probability": 1.0, "candidate_id": 464, "source_tile": "K-35-062-2_Rakovski_x1008_y336.png"}}, {"type": "Feature", "geometry": {"type": "Point", "coordinates": [320720.58384038357, 4686381.553918266]}, "properties": {"subtype": "triangulation_mound", "confidence": 1.0, "vote_count": 10, "total_passes": 10, "contributing_passes": ["run_1", "run_10", "run_2", "run_3", "run_4", "run_5", "run_6", "run_7", "run_8", "run_9"], "source_tiles": ["K-35-062-2_Rakovski_x1008_y336.png"], "cluster_size": 10, "mound_probability": 1.0, "candidate_id": 466, "source_tile": "K-35-062-2_Rakovski_x1008_y336.png"}}, {"type": "Feature", "geometry": {"type": "Point", "coordinates": [326556.2334130611, 4671332.908774174]}, "properties": {"subtype": "burial_mound", "confidence": 1.0, "vote_count": 10, "total_passes": 10, "contributing_passes": ["run_1", "run_10", "run_2", "run_3", "run_4", "run_5", "run_6", "run_7", "run_8", "run_9"], "source_tiles": ["K-35-062-2_Rakovski_x2352_y3360.png"], "cluster_size": 10, "mound_probability": 1.0, "candidate_id": 469, "source_tile": "K-35-062-2_Rakovski_x2352_y3360.png"}}, {"type": "Feature", "geometry": {"type": "Point", "coordinates": [329376.65810424427, 4686462.351454706]}, "properties": {"subtype": "burial_mound", "confidence": 1.0, "vote_count": 10, "total_passes": 10, "contributing_passes": ["run_1", "run_10", "run_2", "run_3", "run_4", "run_5", "run_6", "run_7", "run_8", "run_9"], "source_tiles": ["K-35-062-2_Rakovski_x2688_y336.png", "K-35-062-2_Rakovski_x3024_y336.png"], "cluster_size": 10, "mound_probability": 1.0, "candidate_id": 471, "source_tile": "K-35-062-2_Rakovski_x2688_y336.png"}}, {"type": "Feature", "geometry": {"type": "Point", "coordinates": [330686.734362444, 4686917.68458738]}, "properties": {"subtype": "burial_mound", "confidence": 1.0, "vote_count": 10, "total_passes": 10, "contributing_passes": ["run_1", "run_10", "run_2", "run_3", "run_4", "run_5", "run_6", "run_7", "run_8", "run_9"], "source_tiles": ["K-35-062-2_Rakovski_x3024_y336.png"], "cluster_size": 10, "mound_probability": 0.95, "candidate_id": 474, "source_tile": "K-35-062-2_Rakovski_x3024_y336.png"}}, {"type": "Feature", "geometry": {"type": "Point", "coordinates": [333564.92677957803, 4679788.916098472]}, "properties": {"subtype": "burial_mound", "confidence": 1.0, "vote_count": 10, "total_passes": 10, "contributing_passes": ["run_1", "run_10", "run_2", "run_3", "run_4", "run_5", "run_6", "run_7", "run_8", "run_9"], "source_tiles": ["K-35-062-2_Rakovski_x3696_y1680.png"], "cluster_size": 10, "mound_probability": 1.0, "candidate_id": 478, "source_tile": "K-35-062-2_Rakovski_x3696_y1680.png"}}, {"type": "Feature", "geometry": {"type": "Point", "coordinates": [330678.56814081466, 4672671.975641519]}, "properties": {"subtype": "burial_mound", "confidence": 1.0, "vote_count": 10, "total_passes": 10, "contributing_passes": ["run_1", "run_10", "run_2", "run_3", "run_4", "run_5", "run_6", "run_7", "run_8", "run_9"], "source_tiles": ["K-35-062-2_Rakovski_x3024_y3024.png"], "cluster_size": 10, "mound_probability": 1.0, "candidate_id": 482, "source_tile": "K-35-062-2_Rakovski_x3024_y3024.png"}}, {"type": "Feature", "geometry": {"type": "Point", "coordinates": [328354.26676117507, 4687015.959931999]}, "properties": {"subtype": "burial_mound", "confidence": 1.0, "vote_count": 10, "total_passes": 10, "contributing_passes": ["run_1", "run_10", "run_2", "run_3", "run_4", "run_5", "run_6", "run_7", "run_8", "run_9"], "source_tiles": ["K-35-062-2_Rakovski_x2688_y336.png"], "cluster_size": 10, "mound_probability": 1.0, "candidate_id": 483, "source_tile": "K-35-062-2_Rakovski_x2688_y336.png"}}, {"type": "Feature", "geometry": {"type": "Point", "coordinates": [328710.79423897975, 4686444.2542867735]}, "properties": {"subtype": "burial_mound", "confidence": 1.0, "vote_count": 10, "total_passes": 10, "contributing_passes": ["run_1", "run_10", "run_2", "run_3", "run_4", "run_5", "run_6", "run_7", "run_8", "run_9"], "source_tiles": ["K-35-062-2_Rakovski_x2688_y336.png"], "cluster_size": 10, "mound_probability": 1.0, "candidate_id": 487, "source_tile": "K-35-062-2_Rakovski_x2688_y336.png"}}, {"type": "Feature", "geometry": {"type": "Point", "coordinates": [327004.62418575684, 4680751.471653278]}, "properties": {"subtype": "triangulation_mound", "confidence": 1.0, "vote_count": 10, "total_passes": 10, "contributing_passes": ["run_1", "run_10", "run_2", "run_3", "run_4", "run_5", "run_6", "run_7", "run_8", "run_9"], "source_tiles": ["K-35-062-2_Rakovski_x2352_y1344.png", "K-35-062-2_Rakovski_x2352_y1680.png"], "cluster_size": 10, "mound_probability": 1.0, "candidate_id": 495, "source_tile": "K-35-062-2_Rakovski_x2352_y1344.png"}}, {"type": "Feature", "geometry": {"type": "Point", "coordinates": [332422.1765702778, 4675775.472230129]}, "properties": {"subtype": "burial_mound", "confidence": 1.0, "vote_count": 10, "total_passes": 10, "contributing_passes": ["run_1", "run_10", "run_2", "run_3", "run_4", "run_5", "run_6", "run_7", "run_8", "run_9"], "source_tiles": ["K-35-062-2_Rakovski_x3360_y2352.png"], "cluster_size": 10, "mound_probability": 1.0, "candidate_id": 501, "source_tile": "K-35-062-2_Rakovski_x3360_y2352.png"}}, {"type": "Feature", "geometry": {"type": "Point", "coordinates": [332531.71641713544, 4675748.865611831]}, "properties": {"subtype": "burial_mound", "confidence": 1.0, "vote_count": 10, "total_passes": 10, "contributing_passes": ["run_1", "run_10", "run_2", "run_3", "run_4", "run_5", "run_6", "run_7", "run_8", "run_9"], "source_tiles": ["K-35-062-2_Rakovski_x3360_y2352.png"], "cluster_size": 10, "mound_probability": 1.0, "candidate_id": 502, "source_tile": "K-35-062-2_Rakovski_x3360_y2352.png"}}, {"type": "Feature", "geometry": {"type": "Point", "coordinates": [332601.6335405097, 4679898.127927281]}, "properties": {"subtype": "burial_mound", "confidence": 1.0, "vote_count": 10, "total_passes": 10, "contributing_passes": ["run_1", "run_10", "run_2", "run_3", "run_4", "run_5", "run_6", "run_7", "run_8", "run_9"], "source_tiles": ["K-35-062-2_Rakovski_x3360_y1680.png"], "cluster_size": 10, "mound_probability": 0.85, "candidate_id": 503, "source_tile": "K-35-062-2_Rakovski_x3360_y1680.png"}}, {"type": "Feature", "geometry": {"type": "Point", "coordinates": [331369.6041380865, 4679501.503808095]}, "properties": {"subtype": "burial_mound", "confidence": 1.0, "vote_count": 10, "total_passes": 10, "contributing_passes": ["run_1", "run_10", "run_2", "run_3", "run_4", "run_5", "run_6", "run_7", "run_8", "run_9"], "source_tiles": ["K-35-062-2_Rakovski_x3360_y1680.png"], "cluster_size": 10, "mound_probability": 1.0, "candidate_id": 504, "source_tile": "K-35-062-2_Rakovski_x3360_y1680.png"}}, {"type": "Feature", "geometry": {"type": "Point", "coordinates": [330903.65107123915, 4678960.2876845375]}, "properties": {"subtype": "burial_mound", "confidence": 1.0, "vote_count": 10, "total_passes": 10, "contributing_passes": ["run_1", "run_10", "run_2", "run_3", "run_4", "run_5", "run_6", "run_7", "run_8", "run_9"], "source_tiles": ["K-35-062-2_Rakovski_x3024_y1680.png", "K-35-062-2_Rakovski_x3024_y2016.png", "K-35-062-2_Rakovski_x3360_y1680.png", "K-35-062-2_Rakovski_x3360_y2016.png"], "cluster_size": 12, "mound_probability": 0.4, "candidate_id": 505, "source_tile": "K-35-062-2_Rakovski_x3024_y1680.png"}}, {"type": "Feature", "geometry": {"type": "Point", "coordinates": [316224.5429228705, 4683082.936569336]}, "properties": {"subtype": "burial_mound", "confidence": 1.0, "vote_count": 10, "total_passes": 10, "contributing_passes": ["run_1", "run_10", "run_2", "run_3", "run_4", "run_5", "run_6", "run_7", "run_8", "run_9"], "source_tiles": ["K-35-062-2_Rakovski_x336_y1008.png"], "cluster_size": 10, "mound_probability": 1.0, "candidate_id": 507, "source_tile": "K-35-062-2_Rakovski_x336_y1008.png"}}, {"type": "Feature", "geometry": {"type": "Point", "coordinates": [316025.57506804704, 4682720.234901337]}, "properties": {"subtype": "burial_mound", "confidence": 1.0, "vote_count": 10, "total_passes": 10, "contributing_passes": ["run_1", "run_10", "run_2", "run_3", "run_4", "run_5", "run_6", "run_7", "run_8", "run_9"], "source_tiles": ["K-35-062-2_Rakovski_x336_y1008.png"], "cluster_size": 10, "mound_probability": 1.0, "candidate_id": 508, "source_tile": "K-35-062-2_Rakovski_x336_y1008.png"}}, {"type": "Feature", "geometry": {"type": "Point", "coordinates": [328499.669655958, 4681674.666123556]}, "properties": {"subtype": "burial_mound", "confidence": 1.0, "vote_count": 10, "total_passes": 10, "contributing_passes": ["run_1", "run_10", "run_2", "run_3", "run_4", "run_5", "run_6", "run_7", "run_8", "run_9"], "source_tiles": ["K-35-062-2_Rakovski_x2688_y1344.png"], "cluster_size": 10, "mound_probability": 1.0, "candidate_id": 510, "source_tile": "K-35-062-2_Rakovski_x2688_y1344.png"}}, {"type": "Feature", "geometry": {"type": "Point", "coordinates": [330015.8047428359, 4688721.303875111]}, "properties": {"subtype": "burial_mound", "confidence": 1.0, "vote_count": 10, "total_passes": 10, "contributing_passes": ["run_1", "run_10", "run_2", "run_3", "run_4", "run_5", "run_6", "run_7", "run_8", "run_9"], "source_tiles": ["K-35-062-2_Rakovski_x3024_y0.png"], "cluster_size": 10, "mound_probability": 1.0, "candidate_id": 517, "source_tile": "K-35-062-2_Rakovski_x3024_y0.png"}}, {"type": "Feature", "geometry": {"type": "Point", "coordinates": [329814.3586344569, 4688512.311838123]}, "properties": {"subtype": "burial_mound", "confidence": 1.0, "vote_count": 10, "total_passes": 10, "contributing_passes": ["run_1", "run_10", "run_2", "run_3", "run_4", "run_5", "run_6", "run_7", "run_8", "run_9"], "source_tiles": ["K-35-062-2_Rakovski_x3024_y0.png"], "cluster_size": 10, "mound_probability": 0.85, "candidate_id": 518, "source_tile": "K-35-062-2_Rakovski_x3024_y0.png"}}, {"type": "Feature", "geometry": {"type": "Point", "coordinates": [329507.7608142772, 4687726.233329279]}, "properties": {"subtype": "burial_mound", "confidence": 1.0, "vote_count": 10, "total_passes": 10, "contributing_passes": ["run_1", "run_10", "run_2", "run_3", "run_4", "run_5", "run_6", "run_7", "run_8", "run_9"], "source_tiles": ["K-35-062-2_Rakovski_x3024_y0.png"], "cluster_size": 10, "mound_probability": 1.0, "candidate_id": 520, "source_tile": "K-35-062-2_Rakovski_x3024_y0.png"}}, {"type": "Feature", "geometry": {"type": "Point", "coordinates": [420948.74294549006, 4693527.752073838]}, "properties": {"subtype": "burial_mound", "confidence": 1.0, "vote_count": 10, "total_passes": 10, "contributing_passes": ["run_1", "run_10", "run_2", "run_3", "run_4", "run_5", "run_6", "run_7", "run_8", "run_9"], "source_tiles": ["K-35-053-3_Elenovo_x672_y2352.png"], "cluster_size": 10, "mound_probability": 0.95, "candidate_id": 524, "source_tile": "K-35-053-3_Elenovo_x672_y2352.png"}}, {"type": "Feature", "geometry": {"type": "Point", "coordinates": [316245.2611995794, 4685710.463181284]}, "properties": {"subtype": "burial_mound", "confidence": 1.0, "vote_count": 10, "total_passes": 10, "contributing_passes": ["run_1", "run_10", "run_2", "run_3", "run_4", "run_5", "run_6", "run_7", "run_8", "run_9"], "source_tiles": ["K-35-062-2_Rakovski_x336_y336.png", "K-35-062-2_Rakovski_x336_y672.png"], "cluster_size": 11, "mound_probability": 1.0, "candidate_id": 532, "source_tile": "K-35-062-2_Rakovski_x336_y336.png"}}, {"type": "Feature", "geometry": {"type": "Point", "coordinates": [321456.7513208101, 4687051.791281734]}, "properties": {"subtype": "burial_mound", "confidence": 1.0, "vote_count": 10, "total_passes": 10, "contributing_passes": ["run_1", "run_10", "run_2", "run_3", "run_4", "run_5", "run_6", "run_7", "run_8", "run_9"], "source_tiles": ["K-35-062-2_Rakovski_x1344_y336.png"], "cluster_size": 10, "mound_probability": 1.0, "candidate_id": 545, "source_tile": "K-35-062-2_Rakovski_x1344_y336.png"}}, {"type": "Feature", "geometry": {"type": "Point", "coordinates": [322221.73735777836, 4685992.547295805]}, "properties": {"subtype": "triangulation_mound", "confidence": 1.0, "vote_count": 10, "total_passes": 10, "contributing_passes": ["run_1", "run_10", "run_2", "run_3", "run_4", "run_5", "run_6", "run_7", "run_8", "run_9"], "source_tiles": ["K-35-062-2_Rakovski_x1344_y336.png"], "cluster_size": 10, "mound_probability": 0.2, "candidate_id": 550, "source_tile": "K-35-062-2_Rakovski_x1344_y336.png"}}, {"type": "Feature", "geometry": {"type": "Point", "coordinates": [329337.26685416175, 4679367.577762848]}, "properties": {"subtype": "triangulation_mound", "confidence": 1.0, "vote_count": 10, "total_passes": 10, "contributing_passes": ["run_1", "run_10", "run_2", "run_3", "run_4", "run_5", "run_6", "run_7", "run_8", "run_9"], "source_tiles": ["K-35-062-2_Rakovski_x2688_y1680.png", "K-35-062-2_Rakovski_x3024_y1680.png"], "cluster_size": 10, "mound_probability": 1.0, "candidate_id": 553, "source_tile": "K-35-062-2_Rakovski_x2688_y1680.png"}}, {"type": "Feature", "geometry": {"type": "Point", "coordinates": [333134.78945525433, 4684024.27497513]}, "properties": {"subtype": "burial_mound", "confidence": 1.0, "vote_count": 10, "total_passes": 10, "contributing_passes": ["run_1", "run_10", "run_2", "run_3", "run_4", "run_5", "run_6", "run_7", "run_8", "run_9"], "source_tiles": ["K-35-062-2_Rakovski_x3696_y1008.png", "K-35-062-2_Rakovski_x3696_y672.png"], "cluster_size": 10, "mound_probability": 1.0, "candidate_id": 556, "source_tile": "K-35-062-2_Rakovski_x3696_y1008.png"}}, {"type": "Feature", "geometry": {"type": "Point", "coordinates": [334270.0613796066, 4682484.92602193]}, "properties": {"subtype": "burial_mound", "confidence": 1.0, "vote_count": 10, "total_passes": 10, "contributing_passes": ["run_1", "run_10", "run_2", "run_3", "run_4", "run_5", "run_6", "run_7", "run_8", "run_9"], "source_tiles": ["K-35-062-2_Rakovski_x3696_y1008.png", "K-35-062-2_Rakovski_x4032_y1008.png"], "cluster_size": 11, "mound_probability": 0.95, "candidate_id": 558, "source_tile": "K-35-062-2_Rakovski_x3696_y1008.png"}}, {"type": "Feature", "geometry": {"type": "Point", "coordinates": [329220.0534401636, 4674164.673408486]}, "properties": {"subtype": "burial_mound", "confidence": 1.0, "vote_count": 10, "total_passes": 10, "contributing_passes": ["run_1", "run_10", "run_2", "run_3", "run_4", "run_5", "run_6", "run_7", "run_8", "run_9"], "source_tiles": ["K-35-062-2_Rakovski_x2688_y2688.png", "K-35-062-2_Rakovski_x3024_y2688.png"], "cluster_size": 10, "mound_probability": 0.95, "candidate_id": 563, "source_tile": "K-35-062-2_Rakovski_x2688_y2688.png"}}, {"type": "Feature", "geometry": {"type": "Point", "coordinates": [333771.8003080058, 4683652.291266678]}, "properties": {"subtype": "triangulation_mound", "confidence": 1.0, "vote_count": 10, "total_passes": 10, "contributing_passes": ["run_1", "run_10", "run_2", "run_3", "run_4", "run_5", "run_6", "run_7", "run_8", "run_9"], "source_tiles": ["K-35-062-2_Rakovski_x3696_y1008.png"], "cluster_size": 10, "mound_probability": 1.0, "candidate_id": 570, "source_tile": "K-35-062-2_Rakovski_x3696_y1008.png"}}, {"type": "Feature", "geometry": {"type": "Point", "coordinates": [333826.18809733033, 4683078.377001473]}, "properties": {"subtype": "burial_mound", "confidence": 1.0, "vote_count": 10, "total_passes": 10, "contributing_passes": ["run_1", "run_10", "run_2", "run_3", "run_4", "run_5", "run_6", "run_7", "run_8", "run_9"], "source_tiles": ["K-35-062-2_Rakovski_x3696_y1008.png"], "cluster_size": 10, "mound_probability": 1.0, "candidate_id": 571, "source_tile": "K-35-062-2_Rakovski_x3696_y1008.png"}}, {"type": "Feature", "geometry": {"type": "Point", "coordinates": [318503.73553586146, 4683694.999790046]}, "properties": {"subtype": "burial_mound", "confidence": 1.0, "vote_count": 10, "total_passes": 10, "contributing_passes": ["run_1", "run_10", "run_2", "run_3", "run_4", "run_5", "run_6", "run_7", "run_8", "run_9"], "source_tiles": ["K-35-062-2_Rakovski_x672_y1008.png"], "cluster_size": 10, "mound_probability": 1.0, "candidate_id": 589, "source_tile": "K-35-062-2_Rakovski_x672_y1008.png"}}, {"type": "Feature", "geometry": {"type": "Point", "coordinates": [318205.67776123004, 4682390.537629344]}, "properties": {"subtype": "triangulation_mound", "confidence": 1.0, "vote_count": 10, "total_passes": 10, "contributing_passes": ["run_1", "run_10", "run_2", "run_3", "run_4", "run_5", "run_6", "run_7", "run_8", "run_9"], "source_tiles": ["K-35-062-2_Rakovski_x672_y1008.png", "K-35-062-2_Rakovski_x672_y1344.png"], "cluster_size": 11, "mound_probability": 1.0, "candidate_id": 590, "source_tile": "K-35-062-2_Rakovski_x672_y1008.png"}}, {"type": "Feature", "geometry": {"type": "Point", "coordinates": [459269.2918610344, 4631918.883865908]}, "properties": {"subtype": "burial_mound", "confidence": 1.0, "vote_count": 10, "total_passes": 10, "contributing_passes": ["run_1", "run_10", "run_2", "run_3", "run_4", "run_5", "run_6", "run_7", "run_8", "run_9"], "source_tiles": ["K-35-078-1_Lesovo_x0_y3360.png"], "cluster_size": 10, "mound_probability": 0.95, "candidate_id": 592, "source_tile": "K-35-078-1_Lesovo_x0_y3360.png"}}, {"type": "Feature", "geometry": {"type": "Point", "coordinates": [333413.8579616195, 4687055.561301894]}, "properties": {"subtype": "burial_mound", "confidence": 1.0, "vote_count": 10, "total_passes": 10, "contributing_passes": ["run_1", "run_10", "run_2", "run_3", "run_4", "run_5", "run_6", "run_7", "run_8", "run_9"], "source_tiles": ["K-35-062-2_Rakovski_x3696_y336.png"], "cluster_size": 10, "mound_probability": 0.85, "candidate_id": 593, "source_tile": "K-35-062-2_Rakovski_x3696_y336.png"}}, {"type": "Feature", "geometry": {"type": "Point", "coordinates": [326473.56752760895, 4677969.076734488]}, "properties": {"subtype": "burial_mound", "confidence": 1.0, "vote_count": 10, "total_passes": 10, "contributing_passes": ["run_1", "run_10", "run_2", "run_3", "run_4", "run_5", "run_6", "run_7", "run_8", "run_9"], "source_tiles": ["K-35-062-2_Rakovski_x2352_y2016.png"], "cluster_size": 10, "mound_probability": 0.2, "candidate_id": 599, "source_tile": "K-35-062-2_Rakovski_x2352_y2016.png"}}, {"type": "Feature", "geometry": {"type": "Point", "coordinates": [326869.49246724346, 4677620.769386168]}, "properties": {"subtype": "burial_mound", "confidence": 1.0, "vote_count": 10, "total_passes": 10, "contributing_passes": ["run_1", "run_10", "run_2", "run_3", "run_4", "run_5", "run_6", "run_7", "run_8", "run_9"], "source_tiles": ["K-35-062-2_Rakovski_x2352_y2016.png"], "cluster_size": 10, "mound_probability": 0.95, "candidate_id": 600, "source_tile": "K-35-062-2_Rakovski_x2352_y2016.png"}}, {"type": "Feature", "geometry": {"type": "Point", "coordinates": [322808.41835330636, 4686972.16262423]}, "properties": {"subtype": "burial_mound", "confidence": 1.0, "vote_count": 10, "total_passes": 10, "contributing_passes": ["run_1", "run_10", "run_2", "run_3", "run_4", "run_5", "run_6", "run_7", "run_8", "run_9"], "source_tiles": ["K-35-062-2_Rakovski_x1680_y336.png"], "cluster_size": 10, "mound_probability": 0.95, "candidate_id": 606, "source_tile": "K-35-062-2_Rakovski_x1680_y336.png"}}, {"type": "Feature", "geometry": {"type": "Point", "coordinates": [323305.604441212, 4686569.607651449]}, "properties": {"subtype": "burial_mound", "confidence": 1.0, "vote_count": 10, "total_passes": 10, "contributing_passes": ["run_1", "run_10", "run_2", "run_3", "run_4", "run_5", "run_6", "run_7", "run_8", "run_9"], "source_tiles": ["K-35-062-2_Rakovski_x1680_y336.png"], "cluster_size": 10, "mound_probability": 0.85, "candidate_id": 607, "source_tile": "K-35-062-2_Rakovski_x1680_y336.png"}}, {"type": "Feature", "geometry": {"type": "Point", "coordinates": [460189.6605308746, 4633580.465466395]}, "properties": {"subtype": "burial_mound", "confidence": 1.0, "vote_count": 10, "total_passes": 10, "contributing_passes": ["run_1", "run_10", "run_2", "run_3", "run_4", "run_5", "run_6", "run_7", "run_8", "run_9"], "source_tiles": ["K-35-078-1_Lesovo_x0_y3024.png", "K-35-078-1_Lesovo_x336_y3024.png"], "cluster_size": 11, "mound_probability": 1.0, "candidate_id": 623, "source_tile": "K-35-078-1_Lesovo_x0_y3024.png"}}, {"type": "Feature", "geometry": {"type": "Point", "coordinates": [332821.0875941989, 4671639.645466378]}, "properties": {"subtype": "triangulation_mound", "confidence": 1.0, "vote_count": 10, "total_passes": 10, "contributing_passes": ["run_1", "run_10", "run_2", "run_3", "run_4", "run_5", "run_6", "run_7", "run_8", "run_9"], "source_tiles": ["K-35-062-2_Rakovski_x3696_y3360.png"], "cluster_size": 10, "mound_probability": 1.0, "candidate_id": 625, "source_tile": "K-35-062-2_Rakovski_x3696_y3360.png"}}, {"type": "Feature", "geometry": {"type": "Point", "coordinates": [471791.3994350011, 4648085.262204438]}, "properties": {"subtype": "triangulation_mound", "confidence": 1.0, "vote_count": 10, "total_passes": 10, "contributing_passes": ["run_1", "run_10", "run_2", "run_3", "run_4", "run_5", "run_6", "run_7", "run_8", "run_9"], "source_tiles": ["K-35-078-1_Lesovo_x2352_y0.png", "K-35-078-1_Lesovo_x2352_y336.png"], "cluster_size": 10, "mound_probability": 0.95, "candidate_id": 635, "source_tile": "K-35-078-1_Lesovo_x2352_y0.png"}}, {"type": "Feature", "geometry": {"type": "Point", "coordinates": [316888.60992569465, 4681932.958304663]}, "properties": {"subtype": "burial_mound", "confidence": 1.0, "vote_count": 10, "total_passes": 10, "contributing_passes": ["run_1", "run_10", "run_2", "run_3", "run_4", "run_5", "run_6", "run_7", "run_8", "run_9"], "source_tiles": ["K-35-062-2_Rakovski_x336_y1344.png"], "cluster_size": 10, "mound_probability": 1.0, "candidate_id": 668, "source_tile": "K-35-062-2_Rakovski_x336_y1344.png"}}, {"type": "Feature", "geometry": {"type": "Point", "coordinates": [316716.2123725751, 4681402.090785465]}, "properties": {"subtype": "burial_mound", "confidence": 1.0, "vote_count": 10, "total_passes": 10, "contributing_passes": ["run_1", "run_10", "run_2", "run_3", "run_4", "run_5", "run_6", "run_7", "run_8", "run_9"], "source_tiles": ["K-35-062-2_Rakovski_x336_y1344.png"], "cluster_size": 10, "mound_probability": 0.2, "candidate_id": 671, "source_tile": "K-35-062-2_Rakovski_x336_y1344.png"}}, {"type": "Feature", "geometry": {"type": "Point", "coordinates": [316133.1730500236, 4680595.167798466]}, "properties": {"subtype": "triangulation_mound", "confidence": 1.0, "vote_count": 10, "total_passes": 10, "contributing_passes": ["run_1", "run_10", "run_2", "run_3", "run_4", "run_5", "run_6", "run_7", "run_8", "run_9"], "source_tiles": ["K-35-062-2_Rakovski_x336_y1344.png"], "cluster_size": 10, "mound_probability": 0.85, "candidate_id": 674, "source_tile": "K-35-062-2_Rakovski_x336_y1344.png"}}, {"type": "Feature", "geometry": {"type": "Point", "coordinates": [478808.6814258474, 4647332.923785197]}, "properties": {"subtype": "burial_mound", "confidence": 1.0, "vote_count": 10, "total_passes": 10, "contributing_passes": ["run_1", "run_10", "run_2", "run_3", "run_4", "run_5", "run_6", "run_7", "run_8", "run_9"], "source_tiles": ["K-35-078-1_Lesovo_x3696_y336.png", "K-35-078-1_Lesovo_x4032_y336.png"], "cluster_size": 10, "mound_probability": 0.95, "candidate_id": 675, "source_tile": "K-35-078-1_Lesovo_x3696_y336.png"}}, {"type": "Feature", "geometry": {"type": "Point", "coordinates": [461551.79603325395, 4631797.404378847]}, "properties": {"subtype": "burial_mound", "confidence": 1.0, "vote_count": 10, "total_passes": 10, "contributing_passes": ["run_1", "run_10", "run_2", "run_3", "run_4", "run_5", "run_6", "run_7", "run_8", "run_9"], "source_tiles": ["K-35-078-1_Lesovo_x336_y3360.png"], "cluster_size": 10, "mound_probability": 0.85, "candidate_id": 686, "source_tile": "K-35-078-1_Lesovo_x336_y3360.png"}}, {"type": "Feature", "geometry": {"type": "Point", "coordinates": [433045.6320951208, 4696656.979780094]}, "properties": {"subtype": "burial_mound", "confidence": 1.0, "vote_count": 10, "total_passes": 10, "contributing_passes": ["run_1", "run_10", "run_2", "run_3", "run_4", "run_5", "run_6", "run_7", "run_8", "run_9"], "source_tiles": ["K-35-053-3_Elenovo_x3024_y1680.png"], "cluster_size": 10, "mound_probability": 1.0, "candidate_id": 693, "source_tile": "K-35-053-3_Elenovo_x3024_y1680.png"}}, {"type": "Feature", "geometry": {"type": "Point", "coordinates": [434203.0316954065, 4696321.726013653]}, "properties": {"subtype": "triangulation_mound", "confidence": 1.0, "vote_count": 10, "total_passes": 10, "contributing_passes": ["run_1", "run_10", "run_2", "run_3", "run_4", "run_5", "run_6", "run_7", "run_8", "run_9"], "source_tiles": ["K-35-053-3_Elenovo_x3024_y1680.png"], "cluster_size": 10, "mound_probability": 1.0, "candidate_id": 694, "source_tile": "K-35-053-3_Elenovo_x3024_y1680.png"}}, {"type": "Feature", "geometry": {"type": "Point", "coordinates": [433868.8844642806, 4695774.526964902]}, "properties": {"subtype": "burial_mound", "confidence": 1.0, "vote_count": 10, "total_passes": 10, "contributing_passes": ["run_1", "run_10", "run_2", "run_3", "run_4", "run_5", "run_6", "run_7", "run_8", "run_9"], "source_tiles": ["K-35-053-3_Elenovo_x3024_y1680.png"], "cluster_size": 10, "mound_probability": 0.85, "candidate_id": 695, "source_tile": "K-35-053-3_Elenovo_x3024_y1680.png"}}, {"type": "Feature", "geometry": {"type": "Point", "coordinates": [460956.99591985537, 4634123.264914079]}, "properties": {"subtype": "burial_mound", "confidence": 1.0, "vote_count": 10, "total_passes": 10, "contributing_passes": ["run_1", "run_10", "run_2", "run_3", "run_4", "run_5", "run_6", "run_7", "run_8", "run_9"], "source_tiles": ["K-35-078-1_Lesovo_x336_y3024.png"], "cluster_size": 10, "mound_probability": 0.85, "candidate_id": 702, "source_tile": "K-35-078-1_Lesovo_x336_y3024.png"}}, {"type": "Feature", "geometry": {"type": "Point", "coordinates": [334114.6337672959, 4674958.539958858]}, "properties": {"subtype": "benchmark_mound", "confidence": 1.0, "vote_count": 10, "total_passes": 10, "contributing_passes": ["run_1", "run_10", "run_2", "run_3", "run_4", "run_5", "run_6", "run_7", "run_8", "run_9"], "source_tiles": ["K-35-062-2_Rakovski_x3696_y2688.png"], "cluster_size": 10, "mound_probability": 0.95, "candidate_id": 706, "source_tile": "K-35-062-2_Rakovski_x3696_y2688.png"}}]}