{
"type": "FeatureCollection",
"name": "verified-adv-image-baseline-pro-vf",
"crs": { "type": "name", "properties": { "name": "urn:ogc:def:crs:OGC:1.3:CRS84" } },
"features": [
{ "type": "Feature", "properties": { "source_tile": "K-35-052-4_32635_x0_y0.png" }, "geometry": { "type": "Point", "coordinates": [ 25.764441815527029, 42.483890136486615 ] } },
{ "type": "Feature", "properties": { "source_tile": "K-35-052-4_32635_x0_y1008.png" }, "geometry": { "type": "Point", "coordinates": [ 25.763035286986206, 42.446554036280986 ] } },
{ "type": "Feature", "properties": { "source_tile": "K-35-052-4_32635_x0_y1344.png" }, "geometry": { "type": "Point", "coordinates": [ 25.750458942244627, 42.424863553073052 ] } },
{ "type": "Feature", "properties": { "source_tile": "K-35-052-4_32635_x0_y1680.png" }, "geometry": { "type": "Point", "coordinates": [ 25.764931767253792, 42.420272970365268 ] } },
{ "type": "Feature", "properties": { "source_tile": "K-35-052-4_32635_x0_y1680.png" }, "geometry": { "type": "Point", "coordinates": [ 25.765763249169115, 42.4208017209248 ] } },
{ "type": "Feature", "properties": { "source_tile": "K-35-052-4_32635_x0_y2016.png" }, "geometry": { "type": "Point", "coordinates": [ 25.751911151168393, 42.401168088116421 ] } },
{ "type": "Feature", "properties": { "source_tile": "K-35-052-4_32635_x0_y2016.png" }, "geometry": { "type": "Point", "coordinates": [ 25.76486960052409, 42.393650125331419 ] } },
{ "type": "Feature", "properties": { "source_tile": "K-35-052-4_32635_x0_y2016.png" }, "geometry": { "type": "Point", "coordinates": [ 25.764305063350271, 42.392639101395467 ] } },
{ "type": "Feature", "properties": { "source_tile": "K-35-052-4_32635_x0_y2016.png" }, "geometry": { "type": "Point", "coordinates": [ 25.768730732537012, 42.393431766200663 ] } },
{ "type": "Feature", "properties": { "source_tile": "K-35-052-4_32635_x0_y2352.png" }, "geometry": { "type": "Point", "coordinates": [ 25.769135226411073, 42.385890394415377 ] } },
{ "type": "Feature", "properties": { "source_tile": "K-35-052-4_32635_x0_y2352.png" }, "geometry": { "type": "Point", "coordinates": [ 25.769426788529977, 42.384723981219892 ] } },
{ "type": "Feature", "properties": { "source_tile": "K-35-052-4_32635_x0_y2352.png" }, "geometry": { "type": "Point", "coordinates": [ 25.769912725164872, 42.383776235173613 ] } },
{ "type": "Feature", "properties": { "source_tile": "K-35-052-4_32635_x0_y2352.png" }, "geometry": { "type": "Point", "coordinates": [ 25.764189270828854, 42.389605706751681 ] } },
{ "type": "Feature", "properties": { "source_tile": "K-35-052-4_32635_x0_y2352.png" }, "geometry": { "type": "Point", "coordinates": [ 25.76615693033748, 42.390579863522206 ] } },
{ "type": "Feature", "properties": { "source_tile": "K-35-052-4_32635_x0_y2352.png" }, "geometry": { "type": "Point", "coordinates": [ 25.765062877519927, 42.392733900860719 ] } },
{ "type": "Feature", "properties": { "source_tile": "K-35-052-4_32635_x0_y2688.png" }, "geometry": { "type": "Point", "coordinates": [ 25.751737399798131, 42.365109612158122 ] } },
{ "type": "Feature", "properties": { "source_tile": "K-35-052-4_32635_x0_y2688.png" }, "geometry": { "type": "Point", "coordinates": [ 25.769307938003436, 42.366876309379911 ] } },
{ "type": "Feature", "properties": { "source_tile": "K-35-052-4_32635_x0_y2688.png" }, "geometry": { "type": "Point", "coordinates": [ 25.750711064137306, 42.372687485732619 ] } },
{ "type": "Feature", "properties": { "source_tile": "K-35-052-4_32635_x0_y3024.png" }, "geometry": { "type": "Point", "coordinates": [ 25.757171691933106, 42.354928614000372 ] } },
{ "type": "Feature", "properties": { "source_tile": "K-35-052-4_32635_x0_y336.png" }, "geometry": { "type": "Point", "coordinates": [ 25.767877771009903, 42.47102769815411 ] } },
{ "type": "Feature", "properties": { "source_tile": "K-35-052-4_32635_x0_y336.png" }, "geometry": { "type": "Point", "coordinates": [ 25.764014882220636, 42.469903206634456 ] } },
{ "type": "Feature", "properties": { "source_tile": "K-35-052-4_32635_x0_y672.png" }, "geometry": { "type": "Point", "coordinates": [ 25.761758207210853, 42.466846739069595 ] } },
{ "type": "Feature", "properties": { "source_tile": "K-35-052-4_32635_x1008_y336.png" }, "geometry": { "type": "Point", "coordinates": [ 25.826007633760838, 42.481938434996266 ] } },
{ "type": "Feature", "properties": { "source_tile": "K-35-052-4_32635_x1008_y336.png" }, "geometry": { "type": "Point", "coordinates": [ 25.826964318641839, 42.480848009941539 ] } },
{ "type": "Feature", "properties": { "source_tile": "K-35-052-4_32635_x1008_y3360.png" }, "geometry": { "type": "Point", "coordinates": [ 25.824410276171772, 42.338267792010342 ] } },
{ "type": "Feature", "properties": { "source_tile": "K-35-052-4_32635_x1008_y3360.png" }, "geometry": { "type": "Point", "coordinates": [ 25.82667554954476, 42.337017481621906 ] } },
{ "type": "Feature", "properties": { "source_tile": "K-35-052-4_32635_x1344_y336.png" }, "geometry": { "type": "Point", "coordinates": [ 25.835975045190025, 42.472701212506919 ] } },
{ "type": "Feature", "properties": { "source_tile": "K-35-052-4_32635_x1344_y672.png" }, "geometry": { "type": "Point", "coordinates": [ 25.834446050905832, 42.463026221731589 ] } },
{ "type": "Feature", "properties": { "source_tile": "K-35-052-4_32635_x1680_y0.png" }, "geometry": { "type": "Point", "coordinates": [ 25.86370756943214, 42.496075542524117 ] } },
{ "type": "Feature", "properties": { "source_tile": "K-35-052-4_32635_x1680_y0.png" }, "geometry": { "type": "Point", "coordinates": [ 25.863833608542578, 42.49493325614732 ] } },
{ "type": "Feature", "properties": { "source_tile": "K-35-052-4_32635_x1680_y0.png" }, "geometry": { "type": "Point", "coordinates": [ 25.864853129522075, 42.485812389246043 ] } },
{ "type": "Feature", "properties": { "source_tile": "K-35-052-4_32635_x1680_y336.png" }, "geometry": { "type": "Point", "coordinates": [ 25.870673307735132, 42.483695436895133 ] } },
{ "type": "Feature", "properties": { "source_tile": "K-35-052-4_32635_x2016_y0.png" }, "geometry": { "type": "Point", "coordinates": [ 25.870883681305568, 42.496726904968703 ] } },
{ "type": "Feature", "properties": { "source_tile": "K-35-052-4_32635_x2016_y0.png" }, "geometry": { "type": "Point", "coordinates": [ 25.871058453115772, 42.496122206184779 ] } },
{ "type": "Feature", "properties": { "source_tile": "K-35-052-4_32635_x2016_y0.png" }, "geometry": { "type": "Point", "coordinates": [ 25.869633617103784, 42.494635424396613 ] } },
{ "type": "Feature", "properties": { "source_tile": "K-35-052-4_32635_x2016_y0.png" }, "geometry": { "type": "Point", "coordinates": [ 25.871117056303898, 42.483751787985405 ] } },
{ "type": "Feature", "properties": { "source_tile": "K-35-052-4_32635_x2016_y1008.png" }, "geometry": { "type": "Point", "coordinates": [ 25.872786164790909, 42.451402520465777 ] } },
{ "type": "Feature", "properties": { "source_tile": "K-35-052-4_32635_x2016_y1008.png" }, "geometry": { "type": "Point", "coordinates": [ 25.879988775686915, 42.450286271306993 ] } },
{ "type": "Feature", "properties": { "source_tile": "K-35-052-4_32635_x2016_y1344.png" }, "geometry": { "type": "Point", "coordinates": [ 25.869795450648574, 42.431005806954204 ] } },
{ "type": "Feature", "properties": { "source_tile": "K-35-052-4_32635_x2016_y3024.png" }, "geometry": { "type": "Point", "coordinates": [ 25.890804454795052, 42.359669467666571 ] } },
{ "type": "Feature", "properties": { "source_tile": "K-35-052-4_32635_x2016_y3024.png" }, "geometry": { "type": "Point", "coordinates": [ 25.883871156684368, 42.363327418989975 ] } },
{ "type": "Feature", "properties": { "source_tile": "K-35-052-4_32635_x2016_y336.png" }, "geometry": { "type": "Point", "coordinates": [ 25.885725387900013, 42.481694311276989 ] } },
{ "type": "Feature", "properties": { "source_tile": "K-35-052-4_32635_x2016_y336.png" }, "geometry": { "type": "Point", "coordinates": [ 25.870651149793673, 42.483625913167721 ] } },
{ "type": "Feature", "properties": { "source_tile": "K-35-052-4_32635_x2352_y1008.png" }, "geometry": { "type": "Point", "coordinates": [ 25.904448483760554, 42.453693427373743 ] } },
{ "type": "Feature", "properties": { "source_tile": "K-35-052-4_32635_x2352_y3024.png" }, "geometry": { "type": "Point", "coordinates": [ 25.896066951814699, 42.363332881918055 ] } },
{ "type": "Feature", "properties": { "source_tile": "K-35-052-4_32635_x2352_y672.png" }, "geometry": { "type": "Point", "coordinates": [ 25.904306763978745, 42.453770041619549 ] } },
{ "type": "Feature", "properties": { "source_tile": "K-35-052-4_32635_x2688_y1008.png" }, "geometry": { "type": "Point", "coordinates": [ 25.918260001833232, 42.439686213634374 ] } },
{ "type": "Feature", "properties": { "source_tile": "K-35-052-4_32635_x2688_y1344.png" }, "geometry": { "type": "Point", "coordinates": [ 25.918318919726431, 42.43966077993683 ] } },
{ "type": "Feature", "properties": { "source_tile": "K-35-052-4_32635_x2688_y1344.png" }, "geometry": { "type": "Point", "coordinates": [ 25.926816227381494, 42.424917818058709 ] } },
{ "type": "Feature", "properties": { "source_tile": "K-35-052-4_32635_x2688_y1680.png" }, "geometry": { "type": "Point", "coordinates": [ 25.927048431792254, 42.425015287902703 ] } },
{ "type": "Feature", "properties": { "source_tile": "K-35-052-4_32635_x2688_y1680.png" }, "geometry": { "type": "Point", "coordinates": [ 25.921048269088754, 42.41419050974703 ] } },
{ "type": "Feature", "properties": { "source_tile": "K-35-052-4_32635_x2688_y336.png" }, "geometry": { "type": "Point", "coordinates": [ 25.916348293755107, 42.469166439252774 ] } },
{ "type": "Feature", "properties": { "source_tile": "K-35-052-4_32635_x2688_y672.png" }, "geometry": { "type": "Point", "coordinates": [ 25.915919143566381, 42.468945800538897 ] } },
{ "type": "Feature", "properties": { "source_tile": "K-35-052-4_32635_x3024_y2016.png" }, "geometry": { "type": "Point", "coordinates": [ 25.944356410836612, 42.408178625954086 ] } },
{ "type": "Feature", "properties": { "source_tile": "K-35-052-4_32635_x3024_y2016.png" }, "geometry": { "type": "Point", "coordinates": [ 25.948793764066547, 42.394470728927573 ] } },
{ "type": "Feature", "properties": { "source_tile": "K-35-052-4_32635_x3024_y2352.png" }, "geometry": { "type": "Point", "coordinates": [ 25.948805160820108, 42.394488160079483 ] } },
{ "type": "Feature", "properties": { "source_tile": "K-35-052-4_32635_x3024_y2352.png" }, "geometry": { "type": "Point", "coordinates": [ 25.939959098759314, 42.381896852262159 ] } },
{ "type": "Feature", "properties": { "source_tile": "K-35-052-4_32635_x3024_y3024.png" }, "geometry": { "type": "Point", "coordinates": [ 25.946107946383133, 42.357297629147162 ] } },
{ "type": "Feature", "properties": { "source_tile": "K-35-052-4_32635_x3024_y3024.png" }, "geometry": { "type": "Point", "coordinates": [ 25.946357139525983, 42.354267737272288 ] } },
{ "type": "Feature", "properties": { "source_tile": "K-35-052-4_32635_x3024_y3024.png" }, "geometry": { "type": "Point", "coordinates": [ 25.946364645751391, 42.351720771888736 ] } },
{ "type": "Feature", "properties": { "source_tile": "K-35-052-4_32635_x3024_y3024.png" }, "geometry": { "type": "Point", "coordinates": [ 25.946216348670387, 42.350809753523258 ] } },
{ "type": "Feature", "properties": { "source_tile": "K-35-052-4_32635_x3360_y2016.png" }, "geometry": { "type": "Point", "coordinates": [ 25.96741004416792, 42.399595352810849 ] } },
{ "type": "Feature", "properties": { "source_tile": "K-35-052-4_32635_x3360_y2352.png" }, "geometry": { "type": "Point", "coordinates": [ 25.97029976585765, 42.385136258009794 ] } },
{ "type": "Feature", "properties": { "source_tile": "K-35-052-4_32635_x3360_y2688.png" }, "geometry": { "type": "Point", "coordinates": [ 25.959154851843437, 42.370775736778398 ] } },
{ "type": "Feature", "properties": { "source_tile": "K-35-052-4_32635_x3360_y3360.png" }, "geometry": { "type": "Point", "coordinates": [ 25.959054711861743, 42.333669542621337 ] } },
{ "type": "Feature", "properties": { "source_tile": "K-35-052-4_32635_x3360_y3696.png" }, "geometry": { "type": "Point", "coordinates": [ 25.959240506807376, 42.333731873189564 ] } },
{ "type": "Feature", "properties": { "source_tile": "K-35-052-4_32635_x336_y1008.png" }, "geometry": { "type": "Point", "coordinates": [ 25.772120149327232, 42.446755685998191 ] } },
{ "type": "Feature", "properties": { "source_tile": "K-35-052-4_32635_x336_y1008.png" }, "geometry": { "type": "Point", "coordinates": [ 25.77493840274111, 42.446196747377932 ] } },
{ "type": "Feature", "properties": { "source_tile": "K-35-052-4_32635_x336_y1344.png" }, "geometry": { "type": "Point", "coordinates": [ 25.786185983247531, 42.437375989043652 ] } },
{ "type": "Feature", "properties": { "source_tile": "K-35-052-4_32635_x336_y1680.png" }, "geometry": { "type": "Point", "coordinates": [ 25.775115191007078, 42.421508469322653 ] } },
{ "type": "Feature", "properties": { "source_tile": "K-35-052-4_32635_x336_y1680.png" }, "geometry": { "type": "Point", "coordinates": [ 25.786303478038157, 42.41370928341555 ] } },
{ "type": "Feature", "properties": { "source_tile": "K-35-052-4_32635_x336_y1680.png" }, "geometry": { "type": "Point", "coordinates": [ 25.788243488121626, 42.413747135697605 ] } },
{ "type": "Feature", "properties": { "source_tile": "K-35-052-4_32635_x336_y2016.png" }, "geometry": { "type": "Point", "coordinates": [ 25.77261375595404, 42.405281440903117 ] } },
{ "type": "Feature", "properties": { "source_tile": "K-35-052-4_32635_x336_y2016.png" }, "geometry": { "type": "Point", "coordinates": [ 25.773714101985004, 42.393199298157597 ] } },
{ "type": "Feature", "properties": { "source_tile": "K-35-052-4_32635_x336_y2016.png" }, "geometry": { "type": "Point", "coordinates": [ 25.776060014159317, 42.392765216859061 ] } },
{ "type": "Feature", "properties": { "source_tile": "K-35-052-4_32635_x336_y2016.png" }, "geometry": { "type": "Point", "coordinates": [ 25.768403553384129, 42.393428251370253 ] } },
{ "type": "Feature", "properties": { "source_tile": "K-35-052-4_32635_x336_y2352.png" }, "geometry": { "type": "Point", "coordinates": [ 25.769381596627124, 42.385841059872341 ] } },
{ "type": "Feature", "properties": { "source_tile": "K-35-052-4_32635_x336_y2352.png" }, "geometry": { "type": "Point", "coordinates": [ 25.786144415955938, 42.384971532621918 ] } },
{ "type": "Feature", "properties": { "source_tile": "K-35-052-4_32635_x336_y2352.png" }, "geometry": { "type": "Point", "coordinates": [ 25.77732114083501, 42.39282199189001 ] } },
{ "type": "Feature", "properties": { "source_tile": "K-35-052-4_32635_x336_y2352.png" }, "geometry": { "type": "Point", "coordinates": [ 25.775446015782059, 42.387075547352488 ] } },
{ "type": "Feature", "properties": { "source_tile": "K-35-052-4_32635_x336_y2352.png" }, "geometry": { "type": "Point", "coordinates": [ 25.772373717093906, 42.387614462740139 ] } },
{ "type": "Feature", "properties": { "source_tile": "K-35-052-4_32635_x336_y2352.png" }, "geometry": { "type": "Point", "coordinates": [ 25.769578672200652, 42.384725611596856 ] } },
{ "type": "Feature", "properties": { "source_tile": "K-35-052-4_32635_x336_y2352.png" }, "geometry": { "type": "Point", "coordinates": [ 25.769692774306783, 42.383669915268094 ] } },
{ "type": "Feature", "properties": { "source_tile": "K-35-052-4_32635_x336_y2352.png" }, "geometry": { "type": "Point", "coordinates": [ 25.773502929562842, 42.393240355234113 ] } },
{ "type": "Feature", "properties": { "source_tile": "K-35-052-4_32635_x336_y2688.png" }, "geometry": { "type": "Point", "coordinates": [ 25.769131891685046, 42.366917735855388 ] } },
{ "type": "Feature", "properties": { "source_tile": "K-35-052-4_32635_x336_y336.png" }, "geometry": { "type": "Point", "coordinates": [ 25.767970415666063, 42.469287398596279 ] } },
{ "type": "Feature", "properties": { "source_tile": "K-35-052-4_32635_x336_y336.png" }, "geometry": { "type": "Point", "coordinates": [ 25.780523792933046, 42.477244500467279 ] } },
{ "type": "Feature", "properties": { "source_tile": "K-35-052-4_32635_x336_y336.png" }, "geometry": { "type": "Point", "coordinates": [ 25.7799659579678, 42.469814234394349 ] } },
{ "type": "Feature", "properties": { "source_tile": "K-35-052-4_32635_x336_y336.png" }, "geometry": { "type": "Point", "coordinates": [ 25.779327807821936, 42.4749533573005 ] } },
{ "type": "Feature", "properties": { "source_tile": "K-35-052-4_32635_x336_y3360.png" }, "geometry": { "type": "Point", "coordinates": [ 25.789276275679402, 42.341168237176987 ] } },
{ "type": "Feature", "properties": { "source_tile": "K-35-052-4_32635_x3696_y1344.png" }, "geometry": { "type": "Point", "coordinates": [ 25.972433561768682, 42.433410020641922 ] } },
{ "type": "Feature", "properties": { "source_tile": "K-35-052-4_32635_x3696_y1344.png" }, "geometry": { "type": "Point", "coordinates": [ 25.984091414471703, 42.427016481557885 ] } },
{ "type": "Feature", "properties": { "source_tile": "K-35-052-4_32635_x3696_y2016.png" }, "geometry": { "type": "Point", "coordinates": [ 25.986724364592376, 42.397125392712709 ] } },
{ "type": "Feature", "properties": { "source_tile": "K-35-052-4_32635_x3696_y2352.png" }, "geometry": { "type": "Point", "coordinates": [ 25.98928520545066, 42.384672794215909 ] } },
{ "type": "Feature", "properties": { "source_tile": "K-35-052-4_32635_x3696_y2688.png" }, "geometry": { "type": "Point", "coordinates": [ 25.984784879112436, 42.376047646394007 ] } },
{ "type": "Feature", "properties": { "source_tile": "K-35-052-4_32635_x3696_y672.png" }, "geometry": { "type": "Point", "coordinates": [ 25.975457401427253, 42.463871084047753 ] } },
{ "type": "Feature", "properties": { "source_tile": "K-35-052-4_32635_x672_y1008.png" }, "geometry": { "type": "Point", "coordinates": [ 25.803685893440697, 42.448882802774961 ] } },
{ "type": "Feature", "properties": { "source_tile": "K-35-052-4_32635_x672_y1008.png" }, "geometry": { "type": "Point", "coordinates": [ 25.800385365695547, 42.440393012457285 ] } },
{ "type": "Feature", "properties": { "source_tile": "K-35-052-4_32635_x672_y1008.png" }, "geometry": { "type": "Point", "coordinates": [ 25.805745725529743, 42.438976245258552 ] } },
{ "type": "Feature", "properties": { "source_tile": "K-35-052-4_32635_x672_y1344.png" }, "geometry": { "type": "Point", "coordinates": [ 25.805816709509934, 42.438933668787804 ] } },
{ "type": "Feature", "properties": { "source_tile": "K-35-052-4_32635_x672_y1344.png" }, "geometry": { "type": "Point", "coordinates": [ 25.799521569159243, 42.43295092559574 ] } },
{ "type": "Feature", "properties": { "source_tile": "K-35-052-4_32635_x672_y1344.png" }, "geometry": { "type": "Point", "coordinates": [ 25.795435707667945, 42.422798066579865 ] } },
{ "type": "Feature", "properties": { "source_tile": "K-35-052-4_32635_x672_y1680.png" }, "geometry": { "type": "Point", "coordinates": [ 25.795377254978462, 42.422797452267808 ] } },
{ "type": "Feature", "properties": { "source_tile": "K-35-052-4_32635_x672_y1680.png" }, "geometry": { "type": "Point", "coordinates": [ 25.78819573220412, 42.413798610318374 ] } },
{ "type": "Feature", "properties": { "source_tile": "K-35-052-4_32635_x672_y1680.png" }, "geometry": { "type": "Point", "coordinates": [ 25.793129773792934, 42.410731896608041 ] } },
{ "type": "Feature", "properties": { "source_tile": "K-35-052-4_32635_x672_y1680.png" }, "geometry": { "type": "Point", "coordinates": [ 25.793454588553494, 42.409643745833506 ] } },
{ "type": "Feature", "properties": { "source_tile": "K-35-052-4_32635_x672_y2016.png" }, "geometry": { "type": "Point", "coordinates": [ 25.809149863823098, 42.392602620037238 ] } },
{ "type": "Feature", "properties": { "source_tile": "K-35-052-4_32635_x672_y2352.png" }, "geometry": { "type": "Point", "coordinates": [ 25.794493478536069, 42.386523734481877 ] } },
{ "type": "Feature", "properties": { "source_tile": "K-35-052-4_32635_x672_y2352.png" }, "geometry": { "type": "Point", "coordinates": [ 25.798177865873068, 42.388191120288575 ] } },
{ "type": "Feature", "properties": { "source_tile": "K-35-052-4_32635_x672_y2352.png" }, "geometry": { "type": "Point", "coordinates": [ 25.800526567129914, 42.387591963690667 ] } },
{ "type": "Feature", "properties": { "source_tile": "K-35-052-4_32635_x672_y2352.png" }, "geometry": { "type": "Point", "coordinates": [ 25.802742267282351, 42.385379997098219 ] } },
{ "type": "Feature", "properties": { "source_tile": "K-35-052-4_32635_x672_y3360.png" }, "geometry": { "type": "Point", "coordinates": [ 25.789543147790972, 42.341257688693169 ] } },
{ "type": "Feature", "properties": { "source_tile": "K-35-053-3_Elenovo_x0_y1008.png" }, "geometry": { "type": "Point", "coordinates": [ 26.004118438937233, 42.452479703612113 ] } },
{ "type": "Feature", "properties": { "source_tile": "K-35-053-3_Elenovo_x0_y1344.png" }, "geometry": { "type": "Point", "coordinates": [ 26.014770561795157, 42.428896035332819 ] } },
{ "type": "Feature", "properties": { "source_tile": "K-35-053-3_Elenovo_x0_y1680.png" }, "geometry": { "type": "Point", "coordinates": [ 26.010433323866121, 42.417674825760393 ] } },
{ "type": "Feature", "properties": { "source_tile": "K-35-053-3_Elenovo_x0_y1680.png" }, "geometry": { "type": "Point", "coordinates": [ 26.007363148391125, 42.415153352316402 ] } },
{ "type": "Feature", "properties": { "source_tile": "K-35-053-3_Elenovo_x0_y1680.png" }, "geometry": { "type": "Point", "coordinates": [ 26.003091943939051, 42.414665812218011 ] } },
{ "type": "Feature", "properties": { "source_tile": "K-35-053-3_Elenovo_x0_y1680.png" }, "geometry": { "type": "Point", "coordinates": [ 26.003333137858405, 42.414200110608228 ] } },
{ "type": "Feature", "properties": { "source_tile": "K-35-053-3_Elenovo_x0_y1680.png" }, "geometry": { "type": "Point", "coordinates": [ 26.002942563435024, 42.4137635666929 ] } },
{ "type": "Feature", "properties": { "source_tile": "K-35-053-3_Elenovo_x0_y1680.png" }, "geometry": { "type": "Point", "coordinates": [ 26.003580635869586, 42.413335967731001 ] } },
{ "type": "Feature", "properties": { "source_tile": "K-35-053-3_Elenovo_x0_y1680.png" }, "geometry": { "type": "Point", "coordinates": [ 26.004055053188253, 42.412906943365869 ] } },
{ "type": "Feature", "properties": { "source_tile": "K-35-053-3_Elenovo_x0_y1680.png" }, "geometry": { "type": "Point", "coordinates": [ 26.004823790452239, 42.413086878919344 ] } },
{ "type": "Feature", "properties": { "source_tile": "K-35-053-3_Elenovo_x0_y1680.png" }, "geometry": { "type": "Point", "coordinates": [ 26.005332963933601, 42.410457761817945 ] } },
{ "type": "Feature", "properties": { "source_tile": "K-35-053-3_Elenovo_x0_y2016.png" }, "geometry": { "type": "Point", "coordinates": [ 26.001977955863723, 42.405291468530756 ] } },
{ "type": "Feature", "properties": { "source_tile": "K-35-053-3_Elenovo_x0_y2016.png" }, "geometry": { "type": "Point", "coordinates": [ 26.002819956704577, 42.396410594646746 ] } },
{ "type": "Feature", "properties": { "source_tile": "K-35-053-3_Elenovo_x0_y336.png" }, "geometry": { "type": "Point", "coordinates": [ 26.003122371031054, 42.479135355461544 ] } },
{ "type": "Feature", "properties": { "source_tile": "K-35-053-3_Elenovo_x0_y672.png" }, "geometry": { "type": "Point", "coordinates": [ 26.003513686137328, 42.461847685510755 ] } },
{ "type": "Feature", "properties": { "source_tile": "K-35-053-3_Elenovo_x0_y672.png" }, "geometry": { "type": "Point", "coordinates": [ 25.999761390657326, 42.460169053319753 ] } },
{ "type": "Feature", "properties": { "source_tile": "K-35-053-3_Elenovo_x0_y672.png" }, "geometry": { "type": "Point", "coordinates": [ 26.00412848849864, 42.452583745597849 ] } },
{ "type": "Feature", "properties": { "source_tile": "K-35-053-3_Elenovo_x1008_y0.png" }, "geometry": { "type": "Point", "coordinates": [ 26.059055952183776, 42.499099642186295 ] } },
{ "type": "Feature", "properties": { "source_tile": "K-35-053-3_Elenovo_x1008_y0.png" }, "geometry": { "type": "Point", "coordinates": [ 26.077504427018987, 42.497595030383515 ] } },
{ "type": "Feature", "properties": { "source_tile": "K-35-053-3_Elenovo_x1008_y0.png" }, "geometry": { "type": "Point", "coordinates": [ 26.071069381379662, 42.492613892861925 ] } },
{ "type": "Feature", "properties": { "source_tile": "K-35-053-3_Elenovo_x1008_y0.png" }, "geometry": { "type": "Point", "coordinates": [ 26.076627373721259, 42.484004619882725 ] } },
{ "type": "Feature", "properties": { "source_tile": "K-35-053-3_Elenovo_x1008_y2016.png" }, "geometry": { "type": "Point", "coordinates": [ 26.075115923673341, 42.397441172350788 ] } },
{ "type": "Feature", "properties": { "source_tile": "K-35-053-3_Elenovo_x1008_y2016.png" }, "geometry": { "type": "Point", "coordinates": [ 26.07544008191444, 42.405612977920271 ] } },
{ "type": "Feature", "properties": { "source_tile": "K-35-053-3_Elenovo_x1008_y3024.png" }, "geometry": { "type": "Point", "coordinates": [ 26.06307820679741, 42.360456317122775 ] } },
{ "type": "Feature", "properties": { "source_tile": "K-35-053-3_Elenovo_x1008_y3024.png" }, "geometry": { "type": "Point", "coordinates": [ 26.080071259770914, 42.347027588512738 ] } },
{ "type": "Feature", "properties": { "source_tile": "K-35-053-3_Elenovo_x1008_y3024.png" }, "geometry": { "type": "Point", "coordinates": [ 26.075331258891932, 42.346928817145958 ] } },
{ "type": "Feature", "properties": { "source_tile": "K-35-053-3_Elenovo_x1008_y336.png" }, "geometry": { "type": "Point", "coordinates": [ 26.076534263263163, 42.483969218215506 ] } },
{ "type": "Feature", "properties": { "source_tile": "K-35-053-3_Elenovo_x1008_y3360.png" }, "geometry": { "type": "Point", "coordinates": [ 26.075447775469243, 42.346947082911548 ] } },
{ "type": "Feature", "properties": { "source_tile": "K-35-053-3_Elenovo_x1008_y3360.png" }, "geometry": { "type": "Point", "coordinates": [ 26.080108185489113, 42.346897938845935 ] } },
{ "type": "Feature", "properties": { "source_tile": "K-35-053-3_Elenovo_x1008_y3360.png" }, "geometry": { "type": "Point", "coordinates": [ 26.08138661828675, 42.335291010465561 ] } },
{ "type": "Feature", "properties": { "source_tile": "K-35-053-3_Elenovo_x1008_y672.png" }, "geometry": { "type": "Point", "coordinates": [ 26.058173176185651, 42.461183712476924 ] } },
{ "type": "Feature", "properties": { "source_tile": "K-35-053-3_Elenovo_x1344_y0.png" }, "geometry": { "type": "Point", "coordinates": [ 26.090887952932437, 42.49415021566822 ] } },
{ "type": "Feature", "properties": { "source_tile": "K-35-053-3_Elenovo_x1344_y0.png" }, "geometry": { "type": "Point", "coordinates": [ 26.094345810227285, 42.493016772254165 ] } },
{ "type": "Feature", "properties": { "source_tile": "K-35-053-3_Elenovo_x1344_y0.png" }, "geometry": { "type": "Point", "coordinates": [ 26.097696589215811, 42.490366381795759 ] } },
{ "type": "Feature", "properties": { "source_tile": "K-35-053-3_Elenovo_x1344_y2016.png" }, "geometry": { "type": "Point", "coordinates": [ 26.08297271210732, 42.404486656777216 ] } },
{ "type": "Feature", "properties": { "source_tile": "K-35-053-3_Elenovo_x1344_y2016.png" }, "geometry": { "type": "Point", "coordinates": [ 26.089375735888339, 42.402242010396172 ] } },
{ "type": "Feature", "properties": { "source_tile": "K-35-053-3_Elenovo_x1344_y2016.png" }, "geometry": { "type": "Point", "coordinates": [ 26.096700047166248, 42.396036618352177 ] } },
{ "type": "Feature", "properties": { "source_tile": "K-35-053-3_Elenovo_x1344_y2352.png" }, "geometry": { "type": "Point", "coordinates": [ 26.100213466790212, 42.38817225635745 ] } },
{ "type": "Feature", "properties": { "source_tile": "K-35-053-3_Elenovo_x1344_y2352.png" }, "geometry": { "type": "Point", "coordinates": [ 26.098889602759105, 42.377783567953657 ] } },
{ "type": "Feature", "properties": { "source_tile": "K-35-053-3_Elenovo_x1344_y2688.png" }, "geometry": { "type": "Point", "coordinates": [ 26.099741799529159, 42.375381942865474 ] } },
{ "type": "Feature", "properties": { "source_tile": "K-35-053-3_Elenovo_x1344_y2688.png" }, "geometry": { "type": "Point", "coordinates": [ 26.099710123773374, 42.3775994280101 ] } },
{ "type": "Feature", "properties": { "source_tile": "K-35-053-3_Elenovo_x1344_y3024.png" }, "geometry": { "type": "Point", "coordinates": [ 26.080363313031111, 42.347021268400994 ] } },
{ "type": "Feature", "properties": { "source_tile": "K-35-053-3_Elenovo_x1344_y3360.png" }, "geometry": { "type": "Point", "coordinates": [ 26.08056886984302, 42.335319108194376 ] } },
{ "type": "Feature", "properties": { "source_tile": "K-35-053-3_Elenovo_x1344_y672.png" }, "geometry": { "type": "Point", "coordinates": [ 26.090535759473635, 42.466746772115464 ] } },
{ "type": "Feature", "properties": { "source_tile": "K-35-053-3_Elenovo_x1344_y672.png" }, "geometry": { "type": "Point", "coordinates": [ 26.091088214917914, 42.465763585369039 ] } },
{ "type": "Feature", "properties": { "source_tile": "K-35-053-3_Elenovo_x1680_y0.png" }, "geometry": { "type": "Point", "coordinates": [ 26.120988566210979, 42.496299534327648 ] } },
{ "type": "Feature", "properties": { "source_tile": "K-35-053-3_Elenovo_x1680_y0.png" }, "geometry": { "type": "Point", "coordinates": [ 26.11247580531839, 42.492326977972667 ] } },
{ "type": "Feature", "properties": { "source_tile": "K-35-053-3_Elenovo_x1680_y1344.png" }, "geometry": { "type": "Point", "coordinates": [ 26.100143457034775, 42.428237971757802 ] } },
{ "type": "Feature", "properties": { "source_tile": "K-35-053-3_Elenovo_x1680_y1680.png" }, "geometry": { "type": "Point", "coordinates": [ 26.11750106155468, 42.417085087924605 ] } },
{ "type": "Feature", "properties": { "source_tile": "K-35-053-3_Elenovo_x1680_y1680.png" }, "geometry": { "type": "Point", "coordinates": [ 26.109364522695866, 42.413730230155934 ] } },
{ "type": "Feature", "properties": { "source_tile": "K-35-053-3_Elenovo_x1680_y3024.png" }, "geometry": { "type": "Point", "coordinates": [ 26.115185243215372, 42.348915282460382 ] } },
{ "type": "Feature", "properties": { "source_tile": "K-35-053-3_Elenovo_x1680_y3024.png" }, "geometry": { "type": "Point", "coordinates": [ 26.114458672481607, 42.347428288298843 ] } },
{ "type": "Feature", "properties": { "source_tile": "K-35-053-3_Elenovo_x1680_y336.png" }, "geometry": { "type": "Point", "coordinates": [ 26.11789469255336, 42.480717263489602 ] } },
{ "type": "Feature", "properties": { "source_tile": "K-35-053-3_Elenovo_x1680_y3360.png" }, "geometry": { "type": "Point", "coordinates": [ 26.114809233500559, 42.347413669238009 ] } },
{ "type": "Feature", "properties": { "source_tile": "K-35-053-3_Elenovo_x1680_y3360.png" }, "geometry": { "type": "Point", "coordinates": [ 26.113392204809909, 42.341875679492453 ] } },
{ "type": "Feature", "properties": { "source_tile": "K-35-053-3_Elenovo_x1680_y3360.png" }, "geometry": { "type": "Point", "coordinates": [ 26.113493646423255, 42.341304700749255 ] } },
{ "type": "Feature", "properties": { "source_tile": "K-35-053-3_Elenovo_x1680_y3360.png" }, "geometry": { "type": "Point", "coordinates": [ 26.118108703882637, 42.338620083631248 ] } },
{ "type": "Feature", "properties": { "source_tile": "K-35-053-3_Elenovo_x1680_y3360.png" }, "geometry": { "type": "Point", "coordinates": [ 26.115280850155383, 42.348760085042763 ] } },
{ "type": "Feature", "properties": { "source_tile": "K-35-053-3_Elenovo_x1680_y672.png" }, "geometry": { "type": "Point", "coordinates": [ 26.107688008056044, 42.465166342768015 ] } },
{ "type": "Feature", "properties": { "source_tile": "K-35-053-3_Elenovo_x1680_y672.png" }, "geometry": { "type": "Point", "coordinates": [ 26.103297047782995, 42.458019833595507 ] } },
{ "type": "Feature", "properties": { "source_tile": "K-35-053-3_Elenovo_x2016_y0.png" }, "geometry": { "type": "Point", "coordinates": [ 26.120895897323553, 42.496229520701455 ] } },
{ "type": "Feature", "properties": { "source_tile": "K-35-053-3_Elenovo_x2016_y0.png" }, "geometry": { "type": "Point", "coordinates": [ 26.122213742830446, 42.491561681090829 ] } },
{ "type": "Feature", "properties": { "source_tile": "K-35-053-3_Elenovo_x2016_y1008.png" }, "geometry": { "type": "Point", "coordinates": [ 26.137172980229831, 42.45068248348359 ] } },
{ "type": "Feature", "properties": { "source_tile": "K-35-053-3_Elenovo_x2016_y336.png" }, "geometry": { "type": "Point", "coordinates": [ 26.129184190596305, 42.479330911416191 ] } },
{ "type": "Feature", "properties": { "source_tile": "K-35-053-3_Elenovo_x2352_y0.png" }, "geometry": { "type": "Point", "coordinates": [ 26.145365530029903, 42.498537012552461 ] } },
{ "type": "Feature", "properties": { "source_tile": "K-35-053-3_Elenovo_x2352_y0.png" }, "geometry": { "type": "Point", "coordinates": [ 26.142484322907197, 42.490926827170121 ] } },
{ "type": "Feature", "properties": { "source_tile": "K-35-053-3_Elenovo_x2352_y0.png" }, "geometry": { "type": "Point", "coordinates": [ 26.155578100579415, 42.499080511329126 ] } },
{ "type": "Feature", "properties": { "source_tile": "K-35-053-3_Elenovo_x2352_y0.png" }, "geometry": { "type": "Point", "coordinates": [ 26.156622754452037, 42.499746580743064 ] } },
{ "type": "Feature", "properties": { "source_tile": "K-35-053-3_Elenovo_x2688_y1008.png" }, "geometry": { "type": "Point", "coordinates": [ 26.170218287461669, 42.453395414286419 ] } },
{ "type": "Feature", "properties": { "source_tile": "K-35-053-3_Elenovo_x2688_y1680.png" }, "geometry": { "type": "Point", "coordinates": [ 26.173313774961766, 42.418150910602975 ] } },
{ "type": "Feature", "properties": { "source_tile": "K-35-053-3_Elenovo_x2688_y336.png" }, "geometry": { "type": "Point", "coordinates": [ 26.175870415978842, 42.473768043296936 ] } },
{ "type": "Feature", "properties": { "source_tile": "K-35-053-3_Elenovo_x2688_y672.png" }, "geometry": { "type": "Point", "coordinates": [ 26.170041115303846, 42.453524075351346 ] } },
{ "type": "Feature", "properties": { "source_tile": "K-35-053-3_Elenovo_x3024_y1008.png" }, "geometry": { "type": "Point", "coordinates": [ 26.189441828675676, 42.453134477927819 ] } },
{ "type": "Feature", "properties": { "source_tile": "K-35-053-3_Elenovo_x3024_y1680.png" }, "geometry": { "type": "Point", "coordinates": [ 26.186171329836501, 42.419308462068031 ] } },
{ "type": "Feature", "properties": { "source_tile": "K-35-053-3_Elenovo_x3024_y1680.png" }, "geometry": { "type": "Point", "coordinates": [ 26.203895390544474, 42.42307137726678 ] } },
{ "type": "Feature", "properties": { "source_tile": "K-35-053-3_Elenovo_x3024_y1680.png" }, "geometry": { "type": "Point", "coordinates": [ 26.200238314615714, 42.416418740663829 ] } },
{ "type": "Feature", "properties": { "source_tile": "K-35-053-3_Elenovo_x3024_y1680.png" }, "geometry": { "type": "Point", "coordinates": [ 26.196196856907729, 42.411547862677743 ] } },
{ "type": "Feature", "properties": { "source_tile": "K-35-053-3_Elenovo_x3024_y2016.png" }, "geometry": { "type": "Point", "coordinates": [ 26.197161767940717, 42.407387724272994 ] } },
{ "type": "Feature", "properties": { "source_tile": "K-35-053-3_Elenovo_x3024_y2016.png" }, "geometry": { "type": "Point", "coordinates": [ 26.198564403563051, 42.407397539067205 ] } },
{ "type": "Feature", "properties": { "source_tile": "K-35-053-3_Elenovo_x3024_y2016.png" }, "geometry": { "type": "Point", "coordinates": [ 26.199363833313253, 42.405202723423145 ] } },
{ "type": "Feature", "properties": { "source_tile": "K-35-053-3_Elenovo_x3024_y2016.png" }, "geometry": { "type": "Point", "coordinates": [ 26.186335415006823, 42.398475128362072 ] } },
{ "type": "Feature", "properties": { "source_tile": "K-35-053-3_Elenovo_x3024_y2352.png" }, "geometry": { "type": "Point", "coordinates": [ 26.186378985113418, 42.38967381418459 ] } },
{ "type": "Feature", "properties": { "source_tile": "K-35-053-3_Elenovo_x3024_y2352.png" }, "geometry": { "type": "Point", "coordinates": [ 26.189256510939952, 42.387649726835271 ] } },
{ "type": "Feature", "properties": { "source_tile": "K-35-053-3_Elenovo_x3024_y2352.png" }, "geometry": { "type": "Point", "coordinates": [ 26.191863567966976, 42.381188187544801 ] } },
{ "type": "Feature", "properties": { "source_tile": "K-35-053-3_Elenovo_x3024_y336.png" }, "geometry": { "type": "Point", "coordinates": [ 26.201711490841451, 42.468926461605889 ] } },
{ "type": "Feature", "properties": { "source_tile": "K-35-053-3_Elenovo_x3024_y672.png" }, "geometry": { "type": "Point", "coordinates": [ 26.202930168097723, 42.46878767392343 ] } },
{ "type": "Feature", "properties": { "source_tile": "K-35-053-3_Elenovo_x3360_y0.png" }, "geometry": { "type": "Point", "coordinates": [ 26.20399453795843, 42.492825926923871 ] } },
{ "type": "Feature", "properties": { "source_tile": "K-35-053-3_Elenovo_x3360_y0.png" }, "geometry": { "type": "Point", "coordinates": [ 26.215461765081432, 42.493164887043172 ] } },
{ "type": "Feature", "properties": { "source_tile": "K-35-053-3_Elenovo_x3360_y0.png" }, "geometry": { "type": "Point", "coordinates": [ 26.221546913299658, 42.489533322127308 ] } },
{ "type": "Feature", "properties": { "source_tile": "K-35-053-3_Elenovo_x3360_y1008.png" }, "geometry": { "type": "Point", "coordinates": [ 26.221496914191476, 42.452966851540651 ] } },
{ "type": "Feature", "properties": { "source_tile": "K-35-053-3_Elenovo_x3360_y1680.png" }, "geometry": { "type": "Point", "coordinates": [ 26.204246137344942, 42.423073812700288 ] } },
{ "type": "Feature", "properties": { "source_tile": "K-35-053-3_Elenovo_x3360_y1680.png" }, "geometry": { "type": "Point", "coordinates": [ 26.212492266517753, 42.417239933605437 ] } },
{ "type": "Feature", "properties": { "source_tile": "K-35-053-3_Elenovo_x3360_y1680.png" }, "geometry": { "type": "Point", "coordinates": [ 26.219342907839835, 42.417286792555842 ] } },
{ "type": "Feature", "properties": { "source_tile": "K-35-053-3_Elenovo_x3360_y1680.png" }, "geometry": { "type": "Point", "coordinates": [ 26.2100704075302, 42.410855972182297 ] } },
{ "type": "Feature", "properties": { "source_tile": "K-35-053-3_Elenovo_x3360_y1680.png" }, "geometry": { "type": "Point", "coordinates": [ 26.214772714863955, 42.408757181818785 ] } },
{ "type": "Feature", "properties": { "source_tile": "K-35-053-3_Elenovo_x3360_y2016.png" }, "geometry": { "type": "Point", "coordinates": [ 26.221544781948133, 42.400902708241098 ] } },
{ "type": "Feature", "properties": { "source_tile": "K-35-053-3_Elenovo_x3360_y2016.png" }, "geometry": { "type": "Point", "coordinates": [ 26.205555128964683, 42.401815247854707 ] } },
{ "type": "Feature", "properties": { "source_tile": "K-35-053-3_Elenovo_x3360_y2016.png" }, "geometry": { "type": "Point", "coordinates": [ 26.214983007616649, 42.408767285108112 ] } },
{ "type": "Feature", "properties": { "source_tile": "K-35-053-3_Elenovo_x3360_y2352.png" }, "geometry": { "type": "Point", "coordinates": [ 26.206033276363044, 42.383357662189155 ] } },
{ "type": "Feature", "properties": { "source_tile": "K-35-053-3_Elenovo_x3360_y2352.png" }, "geometry": { "type": "Point", "coordinates": [ 26.217521402938523, 42.384173006825769 ] } },
{ "type": "Feature", "properties": { "source_tile": "K-35-053-3_Elenovo_x3360_y336.png" }, "geometry": { "type": "Point", "coordinates": [ 26.209707670919247, 42.481603720613435 ] } },
{ "type": "Feature", "properties": { "source_tile": "K-35-053-3_Elenovo_x3360_y336.png" }, "geometry": { "type": "Point", "coordinates": [ 26.216291816525725, 42.481059856463851 ] } },
{ "type": "Feature", "properties": { "source_tile": "K-35-053-3_Elenovo_x3360_y336.png" }, "geometry": { "type": "Point", "coordinates": [ 26.221913152458789, 42.480760305170264 ] } },
{ "type": "Feature", "properties": { "source_tile": "K-35-053-3_Elenovo_x3360_y672.png" }, "geometry": { "type": "Point", "coordinates": [ 26.202813607173407, 42.468752211613889 ] } },
{ "type": "Feature", "properties": { "source_tile": "K-35-053-3_Elenovo_x336_y0.png" }, "geometry": { "type": "Point", "coordinates": [ 26.037018190129153, 42.484978069776837 ] } },
{ "type": "Feature", "properties": { "source_tile": "K-35-053-3_Elenovo_x336_y1008.png" }, "geometry": { "type": "Point", "coordinates": [ 26.025696210709018, 42.439974008506738 ] } },
{ "type": "Feature", "properties": { "source_tile": "K-35-053-3_Elenovo_x336_y1680.png" }, "geometry": { "type": "Point", "coordinates": [ 26.035190082080547, 42.415772117272986 ] } },
{ "type": "Feature", "properties": { "source_tile": "K-35-053-3_Elenovo_x336_y2016.png" }, "geometry": { "type": "Point", "coordinates": [ 26.040084638920703, 42.403771695100531 ] } },
{ "type": "Feature", "properties": { "source_tile": "K-35-053-3_Elenovo_x336_y2016.png" }, "geometry": { "type": "Point", "coordinates": [ 26.040116391747901, 42.39938849696604 ] } },
{ "type": "Feature", "properties": { "source_tile": "K-35-053-3_Elenovo_x336_y2352.png" }, "geometry": { "type": "Point", "coordinates": [ 26.034093698798426, 42.391983037821547 ] } },
{ "type": "Feature", "properties": { "source_tile": "K-35-053-3_Elenovo_x336_y2352.png" }, "geometry": { "type": "Point", "coordinates": [ 26.039637005931951, 42.39173506946598 ] } },
{ "type": "Feature", "properties": { "source_tile": "K-35-053-3_Elenovo_x336_y2352.png" }, "geometry": { "type": "Point", "coordinates": [ 26.041059280439438, 42.384288139128479 ] } },
{ "type": "Feature", "properties": { "source_tile": "K-35-053-3_Elenovo_x336_y2352.png" }, "geometry": { "type": "Point", "coordinates": [ 26.02616076187401, 42.380489435222472 ] } },
{ "type": "Feature", "properties": { "source_tile": "K-35-053-3_Elenovo_x336_y2688.png" }, "geometry": { "type": "Point", "coordinates": [ 26.040540703267656, 42.371531853244633 ] } },
{ "type": "Feature", "properties": { "source_tile": "K-35-053-3_Elenovo_x336_y2688.png" }, "geometry": { "type": "Point", "coordinates": [ 26.036564379161703, 42.365685619484601 ] } },
{ "type": "Feature", "properties": { "source_tile": "K-35-053-3_Elenovo_x336_y3024.png" }, "geometry": { "type": "Point", "coordinates": [ 26.038680391209024, 42.357152970332535 ] } },
{ "type": "Feature", "properties": { "source_tile": "K-35-053-3_Elenovo_x336_y336.png" }, "geometry": { "type": "Point", "coordinates": [ 26.025229420782757, 42.479879941294271 ] } },
{ "type": "Feature", "properties": { "source_tile": "K-35-053-3_Elenovo_x336_y336.png" }, "geometry": { "type": "Point", "coordinates": [ 26.027794634312105, 42.474444130333637 ] } },
{ "type": "Feature", "properties": { "source_tile": "K-35-053-3_Elenovo_x336_y336.png" }, "geometry": { "type": "Point", "coordinates": [ 26.033914929485015, 42.471394579102117 ] } },
{ "type": "Feature", "properties": { "source_tile": "K-35-053-3_Elenovo_x336_y672.png" }, "geometry": { "type": "Point", "coordinates": [ 26.033768899201597, 42.468716521231194 ] } },
{ "type": "Feature", "properties": { "source_tile": "K-35-053-3_Elenovo_x3696_y0.png" }, "geometry": { "type": "Point", "coordinates": [ 26.221791730416133, 42.489612950688155 ] } },
{ "type": "Feature", "properties": { "source_tile": "K-35-053-3_Elenovo_x3696_y1680.png" }, "geometry": { "type": "Point", "coordinates": [ 26.229681228499068, 42.408442509902208 ] } },
{ "type": "Feature", "properties": { "source_tile": "K-35-053-3_Elenovo_x3696_y2016.png" }, "geometry": { "type": "Point", "coordinates": [ 26.230151327365878, 42.408237755860085 ] } },
{ "type": "Feature", "properties": { "source_tile": "K-35-053-3_Elenovo_x3696_y2352.png" }, "geometry": { "type": "Point", "coordinates": [ 26.227620361071601, 42.392523349649458 ] } },
{ "type": "Feature", "properties": { "source_tile": "K-35-053-3_Elenovo_x3696_y2352.png" }, "geometry": { "type": "Point", "coordinates": [ 26.231154484609906, 42.390225414755378 ] } },
{ "type": "Feature", "properties": { "source_tile": "K-35-053-3_Elenovo_x3696_y2352.png" }, "geometry": { "type": "Point", "coordinates": [ 26.24168673174437, 42.391941542102487 ] } },
{ "type": "Feature", "properties": { "source_tile": "K-35-053-3_Elenovo_x3696_y2352.png" }, "geometry": { "type": "Point", "coordinates": [ 26.245092561342453, 42.390551946195231 ] } },
{ "type": "Feature", "properties": { "source_tile": "K-35-053-3_Elenovo_x3696_y2352.png" }, "geometry": { "type": "Point", "coordinates": [ 26.236222498569319, 42.381873472247754 ] } },
{ "type": "Feature", "properties": { "source_tile": "K-35-053-3_Elenovo_x3696_y2352.png" }, "geometry": { "type": "Point", "coordinates": [ 26.23192489727283, 42.384547628728356 ] } },
{ "type": "Feature", "properties": { "source_tile": "K-35-053-3_Elenovo_x3696_y2688.png" }, "geometry": { "type": "Point", "coordinates": [ 26.23756030367603, 42.372708207169055 ] } },
{ "type": "Feature", "properties": { "source_tile": "K-35-053-3_Elenovo_x3696_y2688.png" }, "geometry": { "type": "Point", "coordinates": [ 26.228847540640245, 42.372468009005203 ] } },
{ "type": "Feature", "properties": { "source_tile": "K-35-053-3_Elenovo_x3696_y2688.png" }, "geometry": { "type": "Point", "coordinates": [ 26.232942687775999, 42.370052498842831 ] } },
{ "type": "Feature", "properties": { "source_tile": "K-35-053-3_Elenovo_x3696_y2688.png" }, "geometry": { "type": "Point", "coordinates": [ 26.233191285835964, 42.368824007183925 ] } },
{ "type": "Feature", "properties": { "source_tile": "K-35-053-3_Elenovo_x3696_y2688.png" }, "geometry": { "type": "Point", "coordinates": [ 26.241142066992573, 42.368270494841227 ] } },
{ "type": "Feature", "properties": { "source_tile": "K-35-053-3_Elenovo_x3696_y2688.png" }, "geometry": { "type": "Point", "coordinates": [ 26.22730641536964, 42.363803233795544 ] } },
{ "type": "Feature", "properties": { "source_tile": "K-35-053-3_Elenovo_x3696_y3024.png" }, "geometry": { "type": "Point", "coordinates": [ 26.239710937749845, 42.359069495168896 ] } },
{ "type": "Feature", "properties": { "source_tile": "K-35-053-3_Elenovo_x3696_y3024.png" }, "geometry": { "type": "Point", "coordinates": [ 26.245695242512131, 42.358753836491303 ] } },
{ "type": "Feature", "properties": { "source_tile": "K-35-053-3_Elenovo_x3696_y3024.png" }, "geometry": { "type": "Point", "coordinates": [ 26.24293541913671, 42.362911248564295 ] } },
{ "type": "Feature", "properties": { "source_tile": "K-35-053-3_Elenovo_x3696_y3024.png" }, "geometry": { "type": "Point", "coordinates": [ 26.227271055013038, 42.363828984680545 ] } },
{ "type": "Feature", "properties": { "source_tile": "K-35-053-3_Elenovo_x3696_y3024.png" }, "geometry": { "type": "Point", "coordinates": [ 26.243072766555112, 42.351468225366212 ] } },
{ "type": "Feature", "properties": { "source_tile": "K-35-053-3_Elenovo_x3696_y3024.png" }, "geometry": { "type": "Point", "coordinates": [ 26.242144739775735, 42.350942309552401 ] } },
{ "type": "Feature", "properties": { "source_tile": "K-35-053-3_Elenovo_x3696_y3024.png" }, "geometry": { "type": "Point", "coordinates": [ 26.242620191472234, 42.350252403997175 ] } },
{ "type": "Feature", "properties": { "source_tile": "K-35-053-3_Elenovo_x3696_y336.png" }, "geometry": { "type": "Point", "coordinates": [ 26.225609872325705, 42.481833552861474 ] } },
{ "type": "Feature", "properties": { "source_tile": "K-35-053-3_Elenovo_x3696_y336.png" }, "geometry": { "type": "Point", "coordinates": [ 26.22188910376342, 42.480812119254985 ] } },
{ "type": "Feature", "properties": { "source_tile": "K-35-053-3_Elenovo_x3696_y3360.png" }, "geometry": { "type": "Point", "coordinates": [ 26.240495711803131, 42.347249583406708 ] } },
{ "type": "Feature", "properties": { "source_tile": "K-35-053-3_Elenovo_x3696_y672.png" }, "geometry": { "type": "Point", "coordinates": [ 26.233820817057698, 42.464970082949847 ] } },
{ "type": "Feature", "properties": { "source_tile": "K-35-053-3_Elenovo_x3696_y672.png" }, "geometry": { "type": "Point", "coordinates": [ 26.231955149137271, 42.468275492879293 ] } },
{ "type": "Feature", "properties": { "source_tile": "K-35-053-3_Elenovo_x4032_y1680.png" }, "geometry": { "type": "Point", "coordinates": [ 26.247749957393321, 42.409740672921544 ] } },
{ "type": "Feature", "properties": { "source_tile": "K-35-053-3_Elenovo_x4032_y2016.png" }, "geometry": { "type": "Point", "coordinates": [ 26.247924260597475, 42.409828446636482 ] } },
{ "type": "Feature", "properties": { "source_tile": "K-35-053-3_Elenovo_x4032_y2016.png" }, "geometry": { "type": "Point", "coordinates": [ 26.24808667561015, 42.406017789273406 ] } },
{ "type": "Feature", "properties": { "source_tile": "K-35-053-3_Elenovo_x4032_y2016.png" }, "geometry": { "type": "Point", "coordinates": [ 26.24731031562915, 42.402512837633033 ] } },
{ "type": "Feature", "properties": { "source_tile": "K-35-053-3_Elenovo_x4032_y2352.png" }, "geometry": { "type": "Point", "coordinates": [ 26.245080460472675, 42.390586518633839 ] } },
{ "type": "Feature", "properties": { "source_tile": "K-35-053-3_Elenovo_x4032_y3024.png" }, "geometry": { "type": "Point", "coordinates": [ 26.245590642924451, 42.358709832875029 ] } },
{ "type": "Feature", "properties": { "source_tile": "K-35-053-3_Elenovo_x4032_y3024.png" }, "geometry": { "type": "Point", "coordinates": [ 26.246585894305522, 42.351664626389947 ] } },
{ "type": "Feature", "properties": { "source_tile": "K-35-053-3_Elenovo_x672_y0.png" }, "geometry": { "type": "Point", "coordinates": [ 26.041786253635209, 42.4961844379581 ] } },
{ "type": "Feature", "properties": { "source_tile": "K-35-053-3_Elenovo_x672_y0.png" }, "geometry": { "type": "Point", "coordinates": [ 26.058985850497937, 42.499090403745882 ] } },
{ "type": "Feature", "properties": { "source_tile": "K-35-053-3_Elenovo_x672_y0.png" }, "geometry": { "type": "Point", "coordinates": [ 26.049603781351788, 42.48627860512422 ] } },
{ "type": "Feature", "properties": { "source_tile": "K-35-053-3_Elenovo_x672_y0.png" }, "geometry": { "type": "Point", "coordinates": [ 26.054152922748752, 42.484202504509213 ] } },
{ "type": "Feature", "properties": { "source_tile": "K-35-053-3_Elenovo_x672_y2016.png" }, "geometry": { "type": "Point", "coordinates": [ 26.040074139978465, 42.40369364045717 ] } },
{ "type": "Feature", "properties": { "source_tile": "K-35-053-3_Elenovo_x672_y2016.png" }, "geometry": { "type": "Point", "coordinates": [ 26.043235989574534, 42.405617264289027 ] } },
{ "type": "Feature", "properties": { "source_tile": "K-35-053-3_Elenovo_x672_y2016.png" }, "geometry": { "type": "Point", "coordinates": [ 26.05071581459957, 42.401053423121297 ] } },
{ "type": "Feature", "properties": { "source_tile": "K-35-053-3_Elenovo_x672_y2016.png" }, "geometry": { "type": "Point", "coordinates": [ 26.040220779491399, 42.399441348862474 ] } },
{ "type": "Feature", "properties": { "source_tile": "K-35-053-3_Elenovo_x672_y2016.png" }, "geometry": { "type": "Point", "coordinates": [ 26.044834306022857, 42.392722757657801 ] } },
{ "type": "Feature", "properties": { "source_tile": "K-35-053-3_Elenovo_x672_y2352.png" }, "geometry": { "type": "Point", "coordinates": [ 26.039582151013708, 42.389967360340584 ] } },
{ "type": "Feature", "properties": { "source_tile": "K-35-053-3_Elenovo_x672_y2352.png" }, "geometry": { "type": "Point", "coordinates": [ 26.045010769396914, 42.392646260969556 ] } },
{ "type": "Feature", "properties": { "source_tile": "K-35-053-3_Elenovo_x672_y2352.png" }, "geometry": { "type": "Point", "coordinates": [ 26.050440514647793, 42.390629574156534 ] } },
{ "type": "Feature", "properties": { "source_tile": "K-35-053-3_Elenovo_x672_y2352.png" }, "geometry": { "type": "Point", "coordinates": [ 26.052070427463793, 42.391041561080947 ] } },
{ "type": "Feature", "properties": { "source_tile": "K-35-053-3_Elenovo_x672_y2352.png" }, "geometry": { "type": "Point", "coordinates": [ 26.048298501813779, 42.388532693297904 ] } },
{ "type": "Feature", "properties": { "source_tile": "K-35-053-3_Elenovo_x672_y2352.png" }, "geometry": { "type": "Point", "coordinates": [ 26.046942513075209, 42.38701406703737 ] } },
{ "type": "Feature", "properties": { "source_tile": "K-35-053-3_Elenovo_x672_y2352.png" }, "geometry": { "type": "Point", "coordinates": [ 26.041069250499444, 42.384400841505041 ] } },
{ "type": "Feature", "properties": { "source_tile": "K-35-053-3_Elenovo_x672_y2688.png" }, "geometry": { "type": "Point", "coordinates": [ 26.040565120964029, 42.371462753463469 ] } },
{ "type": "Feature", "properties": { "source_tile": "K-35-053-3_Elenovo_x672_y2688.png" }, "geometry": { "type": "Point", "coordinates": [ 26.058803931523652, 42.372913393936209 ] } },
{ "type": "Feature", "properties": { "source_tile": "K-35-053-3_Elenovo_x672_y3024.png" }, "geometry": { "type": "Point", "coordinates": [ 26.04205001399011, 42.358316032856742 ] } },
{ "type": "Feature", "properties": { "source_tile": "K-35-053-3_Elenovo_x672_y336.png" }, "geometry": { "type": "Point", "coordinates": [ 26.05418789967522, 42.484211456027985 ] } },
{ "type": "Feature", "properties": { "source_tile": "K-35-053-3_Elenovo_x672_y336.png" }, "geometry": { "type": "Point", "coordinates": [ 26.052323332817323, 42.477473674838031 ] } },
{ "type": "Feature", "properties": { "source_tile": "K-35-053-3_Elenovo_x672_y336.png" }, "geometry": { "type": "Point", "coordinates": [ 26.048194033001796, 42.473497851722193 ] } },
{ "type": "Feature", "properties": { "source_tile": "K-35-053-3_Elenovo_x672_y672.png" }, "geometry": { "type": "Point", "coordinates": [ 26.057602562818996, 42.46100576426165 ] } },
{ "type": "Feature", "properties": { "source_tile": "K-35-053-3_Elenovo_x672_y672.png" }, "geometry": { "type": "Point", "coordinates": [ 26.043664203175958, 42.454358489152774 ] } },
{ "type": "Feature", "properties": { "source_tile": "K-35-062-2_Rakovski_x0_y0.png" }, "geometry": { "type": "Point", "coordinates": [ 24.748935088438866, 42.322648720954732 ] } },
{ "type": "Feature", "properties": { "source_tile": "K-35-062-2_Rakovski_x0_y1008.png" }, "geometry": { "type": "Point", "coordinates": [ 24.76193756854402, 42.283089218766712 ] } },
{ "type": "Feature", "properties": { "source_tile": "K-35-062-2_Rakovski_x0_y1008.png" }, "geometry": { "type": "Point", "coordinates": [ 24.759651090204002, 42.271763259723343 ] } },
{ "type": "Feature", "properties": { "source_tile": "K-35-062-2_Rakovski_x0_y1344.png" }, "geometry": { "type": "Point", "coordinates": [ 24.75962743031409, 42.271771475236157 ] } },
{ "type": "Feature", "properties": { "source_tile": "K-35-062-2_Rakovski_x0_y1344.png" }, "geometry": { "type": "Point", "coordinates": [ 24.765695263222, 42.270015472560942 ] } },
{ "type": "Feature", "properties": { "source_tile": "K-35-062-2_Rakovski_x0_y1344.png" }, "geometry": { "type": "Point", "coordinates": [ 24.764379532188084, 42.261954051806349 ] } },
{ "type": "Feature", "properties": { "source_tile": "K-35-062-2_Rakovski_x0_y1344.png" }, "geometry": { "type": "Point", "coordinates": [ 24.763421868988278, 42.261284525846968 ] } },
{ "type": "Feature", "properties": { "source_tile": "K-35-062-2_Rakovski_x0_y1344.png" }, "geometry": { "type": "Point", "coordinates": [ 24.751297794043566, 42.258261721185555 ] } },
{ "type": "Feature", "properties": { "source_tile": "K-35-062-2_Rakovski_x0_y2352.png" }, "geometry": { "type": "Point", "coordinates": [ 24.748772085239484, 42.213338390595965 ] } },
{ "type": "Feature", "properties": { "source_tile": "K-35-062-2_Rakovski_x0_y2352.png" }, "geometry": { "type": "Point", "coordinates": [ 24.750651187733677, 42.215978669872655 ] } },
{ "type": "Feature", "properties": { "source_tile": "K-35-062-2_Rakovski_x0_y2352.png" }, "geometry": { "type": "Point", "coordinates": [ 24.761580432047872, 42.225825140276271 ] } },
{ "type": "Feature", "properties": { "source_tile": "K-35-062-2_Rakovski_x0_y2352.png" }, "geometry": { "type": "Point", "coordinates": [ 24.764984163314029, 42.226646529772665 ] } },
{ "type": "Feature", "properties": { "source_tile": "K-35-062-2_Rakovski_x0_y2352.png" }, "geometry": { "type": "Point", "coordinates": [ 24.767702040043275, 42.223740286812344 ] } },
{ "type": "Feature", "properties": { "source_tile": "K-35-062-2_Rakovski_x0_y2352.png" }, "geometry": { "type": "Point", "coordinates": [ 24.768505970630358, 42.220805419057207 ] } },
{ "type": "Feature", "properties": { "source_tile": "K-35-062-2_Rakovski_x0_y336.png" }, "geometry": { "type": "Point", "coordinates": [ 24.76004615341586, 42.301831246857468 ] } },
{ "type": "Feature", "properties": { "source_tile": "K-35-062-2_Rakovski_x0_y672.png" }, "geometry": { "type": "Point", "coordinates": [ 24.760429502891053, 42.301899482996703 ] } },
{ "type": "Feature", "properties": { "source_tile": "K-35-062-2_Rakovski_x0_y672.png" }, "geometry": { "type": "Point", "coordinates": [ 24.761907939213405, 42.289866086068265 ] } },
{ "type": "Feature", "properties": { "source_tile": "K-35-062-2_Rakovski_x1008_y0.png" }, "geometry": { "type": "Point", "coordinates": [ 24.813806473269402, 42.320797783857763 ] } },
{ "type": "Feature", "properties": { "source_tile": "K-35-062-2_Rakovski_x1008_y0.png" }, "geometry": { "type": "Point", "coordinates": [ 24.806410359875976, 42.317263415912301 ] } },
{ "type": "Feature", "properties": { "source_tile": "K-35-062-2_Rakovski_x1008_y1008.png" }, "geometry": { "type": "Point", "coordinates": [ 24.823752268190368, 42.273787808412756 ] } },
{ "type": "Feature", "properties": { "source_tile": "K-35-062-2_Rakovski_x1008_y1008.png" }, "geometry": { "type": "Point", "coordinates": [ 24.824231216099253, 42.272772900699046 ] } },
{ "type": "Feature", "properties": { "source_tile": "K-35-062-2_Rakovski_x1008_y1008.png" }, "geometry": { "type": "Point", "coordinates": [ 24.825504768932486, 42.271755710406325 ] } },
{ "type": "Feature", "properties": { "source_tile": "K-35-062-2_Rakovski_x1008_y1344.png" }, "geometry": { "type": "Point", "coordinates": [ 24.824184209639174, 42.272780686459974 ] } },
{ "type": "Feature", "properties": { "source_tile": "K-35-062-2_Rakovski_x1008_y1344.png" }, "geometry": { "type": "Point", "coordinates": [ 24.82572002140763, 42.271612267954616 ] } },
{ "type": "Feature", "properties": { "source_tile": "K-35-062-2_Rakovski_x1008_y1680.png" }, "geometry": { "type": "Point", "coordinates": [ 24.823263012008926, 42.25099883945029 ] } },
{ "type": "Feature", "properties": { "source_tile": "K-35-062-2_Rakovski_x1008_y336.png" }, "geometry": { "type": "Point", "coordinates": [ 24.806380728642814, 42.317106646738765 ] } },
{ "type": "Feature", "properties": { "source_tile": "K-35-062-2_Rakovski_x1008_y336.png" }, "geometry": { "type": "Point", "coordinates": [ 24.810854141096726, 42.31623760610097 ] } },
{ "type": "Feature", "properties": { "source_tile": "K-35-062-2_Rakovski_x1008_y336.png" }, "geometry": { "type": "Point", "coordinates": [ 24.816166427552623, 42.313423170536169 ] } },
{ "type": "Feature", "properties": { "source_tile": "K-35-062-2_Rakovski_x1008_y336.png" }, "geometry": { "type": "Point", "coordinates": [ 24.810423970187095, 42.31110942850416 ] } },
{ "type": "Feature", "properties": { "source_tile": "K-35-062-2_Rakovski_x1008_y336.png" }, "geometry": { "type": "Point", "coordinates": [ 24.824989878699991, 42.309130497947251 ] } },
{ "type": "Feature", "properties": { "source_tile": "K-35-062-2_Rakovski_x1008_y336.png" }, "geometry": { "type": "Point", "coordinates": [ 24.823558976096159, 42.307905784582601 ] } },
{ "type": "Feature", "properties": { "source_tile": "K-35-062-2_Rakovski_x1008_y336.png" }, "geometry": { "type": "Point", "coordinates": [ 24.819673450043656, 42.306669099505932 ] } },
{ "type": "Feature", "properties": { "source_tile": "K-35-062-2_Rakovski_x1008_y336.png" }, "geometry": { "type": "Point", "coordinates": [ 24.811152322368077, 42.302914038436143 ] } },
{ "type": "Feature", "properties": { "source_tile": "K-35-062-2_Rakovski_x1008_y672.png" }, "geometry": { "type": "Point", "coordinates": [ 24.815561356808434, 42.289000655732792 ] } },
{ "type": "Feature", "properties": { "source_tile": "K-35-062-2_Rakovski_x1344_y0.png" }, "geometry": { "type": "Point", "coordinates": [ 24.846364778894763, 42.327549453754877 ] } },
{ "type": "Feature", "properties": { "source_tile": "K-35-062-2_Rakovski_x1344_y0.png" }, "geometry": { "type": "Point", "coordinates": [ 24.844490773290577, 42.32044173333243 ] } },
{ "type": "Feature", "properties": { "source_tile": "K-35-062-2_Rakovski_x1344_y1344.png" }, "geometry": { "type": "Point", "coordinates": [ 24.842340096756629, 42.27181348227306 ] } },
{ "type": "Feature", "properties": { "source_tile": "K-35-062-2_Rakovski_x1344_y1344.png" }, "geometry": { "type": "Point", "coordinates": [ 24.834490704655082, 42.265938011615212 ] } },
{ "type": "Feature", "properties": { "source_tile": "K-35-062-2_Rakovski_x1344_y1680.png" }, "geometry": { "type": "Point", "coordinates": [ 24.832279361247373, 42.241823475325575 ] } },
{ "type": "Feature", "properties": { "source_tile": "K-35-062-2_Rakovski_x1344_y2016.png" }, "geometry": { "type": "Point", "coordinates": [ 24.831872051826313, 42.241781061197415 ] } },
{ "type": "Feature", "properties": { "source_tile": "K-35-062-2_Rakovski_x1344_y336.png" }, "geometry": { "type": "Point", "coordinates": [ 24.829064477834976, 42.318137312914011 ] } },
{ "type": "Feature", "properties": { "source_tile": "K-35-062-2_Rakovski_x1344_y336.png" }, "geometry": { "type": "Point", "coordinates": [ 24.833524935223739, 42.315253865443481 ] } },
{ "type": "Feature", "properties": { "source_tile": "K-35-062-2_Rakovski_x1344_y336.png" }, "geometry": { "type": "Point", "coordinates": [ 24.833587701425923, 42.312061580121231 ] } },
{ "type": "Feature", "properties": { "source_tile": "K-35-062-2_Rakovski_x1344_y336.png" }, "geometry": { "type": "Point", "coordinates": [ 24.841170273406235, 42.312222001536675 ] } },
{ "type": "Feature", "properties": { "source_tile": "K-35-062-2_Rakovski_x1344_y336.png" }, "geometry": { "type": "Point", "coordinates": [ 24.841831667544387, 42.312711742210467 ] } },
{ "type": "Feature", "properties": { "source_tile": "K-35-062-2_Rakovski_x1344_y336.png" }, "geometry": { "type": "Point", "coordinates": [ 24.847792461511968, 42.308658418525503 ] } },
{ "type": "Feature", "properties": { "source_tile": "K-35-062-2_Rakovski_x1344_y336.png" }, "geometry": { "type": "Point", "coordinates": [ 24.843081947547226, 42.3058883954509 ] } },
{ "type": "Feature", "properties": { "source_tile": "K-35-062-2_Rakovski_x1680_y0.png" }, "geometry": { "type": "Point", "coordinates": [ 24.846237698396845, 42.327503676318962 ] } },
{ "type": "Feature", "properties": { "source_tile": "K-35-062-2_Rakovski_x1680_y0.png" }, "geometry": { "type": "Point", "coordinates": [ 24.849167481718535, 42.326638835366452 ] } },
{ "type": "Feature", "properties": { "source_tile": "K-35-062-2_Rakovski_x1680_y0.png" }, "geometry": { "type": "Point", "coordinates": [ 24.852292207378341, 42.326228823188778 ] } },
{ "type": "Feature", "properties": { "source_tile": "K-35-062-2_Rakovski_x1680_y0.png" }, "geometry": { "type": "Point", "coordinates": [ 24.848431496652715, 42.321470345235909 ] } },
{ "type": "Feature", "properties": { "source_tile": "K-35-062-2_Rakovski_x1680_y1008.png" }, "geometry": { "type": "Point", "coordinates": [ 24.859661703221963, 42.280633936285845 ] } },
{ "type": "Feature", "properties": { "source_tile": "K-35-062-2_Rakovski_x1680_y1008.png" }, "geometry": { "type": "Point", "coordinates": [ 24.847129770614426, 42.280763738643394 ] } },
{ "type": "Feature", "properties": { "source_tile": "K-35-062-2_Rakovski_x1680_y1008.png" }, "geometry": { "type": "Point", "coordinates": [ 24.848088272803558, 42.280070142936488 ] } },
{ "type": "Feature", "properties": { "source_tile": "K-35-062-2_Rakovski_x1680_y1680.png" }, "geometry": { "type": "Point", "coordinates": [ 24.866046335427836, 42.246579022393618 ] } },
{ "type": "Feature", "properties": { "source_tile": "K-35-062-2_Rakovski_x1680_y2016.png" }, "geometry": { "type": "Point", "coordinates": [ 24.860016067061625, 42.23735469840512 ] } },
{ "type": "Feature", "properties": { "source_tile": "K-35-062-2_Rakovski_x1680_y336.png" }, "geometry": { "type": "Point", "coordinates": [ 24.849875788046603, 42.314772063707579 ] } },
{ "type": "Feature", "properties": { "source_tile": "K-35-062-2_Rakovski_x1680_y336.png" }, "geometry": { "type": "Point", "coordinates": [ 24.856050239807523, 42.311303738966956 ] } },
{ "type": "Feature", "properties": { "source_tile": "K-35-062-2_Rakovski_x1680_y336.png" }, "geometry": { "type": "Point", "coordinates": [ 24.847837719020788, 42.308702657929672 ] } },
{ "type": "Feature", "properties": { "source_tile": "K-35-062-2_Rakovski_x1680_y336.png" }, "geometry": { "type": "Point", "coordinates": [ 24.854740652885372, 42.303390996102166 ] } },
{ "type": "Feature", "properties": { "source_tile": "K-35-062-2_Rakovski_x1680_y336.png" }, "geometry": { "type": "Point", "coordinates": [ 24.868771257710044, 42.304711436330521 ] } },
{ "type": "Feature", "properties": { "source_tile": "K-35-062-2_Rakovski_x1680_y336.png" }, "geometry": { "type": "Point", "coordinates": [ 24.866016837609379, 42.302846499957717 ] } },
{ "type": "Feature", "properties": { "source_tile": "K-35-062-2_Rakovski_x1680_y672.png" }, "geometry": { "type": "Point", "coordinates": [ 24.854624413020662, 42.303371464674392 ] } },
{ "type": "Feature", "properties": { "source_tile": "K-35-062-2_Rakovski_x1680_y672.png" }, "geometry": { "type": "Point", "coordinates": [ 24.8555885583133, 42.300109244919355 ] } },
{ "type": "Feature", "properties": { "source_tile": "K-35-062-2_Rakovski_x1680_y672.png" }, "geometry": { "type": "Point", "coordinates": [ 24.864874311979818, 42.299987535742616 ] } },
{ "type": "Feature", "properties": { "source_tile": "K-35-062-2_Rakovski_x1680_y672.png" }, "geometry": { "type": "Point", "coordinates": [ 24.866854582992495, 42.298809492024255 ] } },
{ "type": "Feature", "properties": { "source_tile": "K-35-062-2_Rakovski_x1680_y672.png" }, "geometry": { "type": "Point", "coordinates": [ 24.866719861313882, 42.302798840421147 ] } },
{ "type": "Feature", "properties": { "source_tile": "K-35-062-2_Rakovski_x1680_y672.png" }, "geometry": { "type": "Point", "coordinates": [ 24.868528836192908, 42.304620149276865 ] } },
{ "type": "Feature", "properties": { "source_tile": "K-35-062-2_Rakovski_x2016_y0.png" }, "geometry": { "type": "Point", "coordinates": [ 24.868999709161344, 42.325655527110591 ] } },
{ "type": "Feature", "properties": { "source_tile": "K-35-062-2_Rakovski_x2016_y0.png" }, "geometry": { "type": "Point", "coordinates": [ 24.873090525629362, 42.323293016621484 ] } },
{ "type": "Feature", "properties": { "source_tile": "K-35-062-2_Rakovski_x2016_y0.png" }, "geometry": { "type": "Point", "coordinates": [ 24.872756309380648, 42.321412383120283 ] } },
{ "type": "Feature", "properties": { "source_tile": "K-35-062-2_Rakovski_x2016_y0.png" }, "geometry": { "type": "Point", "coordinates": [ 24.880955186392463, 42.318926164589314 ] } },
{ "type": "Feature", "properties": { "source_tile": "K-35-062-2_Rakovski_x2016_y1008.png" }, "geometry": { "type": "Point", "coordinates": [ 24.875124040681051, 42.278500437225055 ] } },
{ "type": "Feature", "properties": { "source_tile": "K-35-062-2_Rakovski_x2016_y2016.png" }, "geometry": { "type": "Point", "coordinates": [ 24.870947561784753, 42.239762438600884 ] } },
{ "type": "Feature", "properties": { "source_tile": "K-35-062-2_Rakovski_x2016_y2016.png" }, "geometry": { "type": "Point", "coordinates": [ 24.877553904590538, 42.230816379149957 ] } },
{ "type": "Feature", "properties": { "source_tile": "K-35-062-2_Rakovski_x2016_y2352.png" }, "geometry": { "type": "Point", "coordinates": [ 24.882944732288454, 42.226741905312124 ] } },
{ "type": "Feature", "properties": { "source_tile": "K-35-062-2_Rakovski_x2016_y336.png" }, "geometry": { "type": "Point", "coordinates": [ 24.880954021937136, 42.318960854787441 ] } },
{ "type": "Feature", "properties": { "source_tile": "K-35-062-2_Rakovski_x2016_y336.png" }, "geometry": { "type": "Point", "coordinates": [ 24.871014977802794, 42.306471364790667 ] } },
{ "type": "Feature", "properties": { "source_tile": "K-35-062-2_Rakovski_x2016_y336.png" }, "geometry": { "type": "Point", "coordinates": [ 24.868459322163165, 42.304601500739686 ] } },
{ "type": "Feature", "properties": { "source_tile": "K-35-062-2_Rakovski_x2016_y672.png" }, "geometry": { "type": "Point", "coordinates": [ 24.866811954303778, 42.29868720742553 ] } },
{ "type": "Feature", "properties": { "source_tile": "K-35-062-2_Rakovski_x2016_y672.png" }, "geometry": { "type": "Point", "coordinates": [ 24.868178046547275, 42.304622303669412 ] } },
{ "type": "Feature", "properties": { "source_tile": "K-35-062-2_Rakovski_x2352_y1344.png" }, "geometry": { "type": "Point", "coordinates": [ 24.902573908464333, 42.259827565025731 ] } },
{ "type": "Feature", "properties": { "source_tile": "K-35-062-2_Rakovski_x2352_y1344.png" }, "geometry": { "type": "Point", "coordinates": [ 24.903041762123458, 42.258048451195698 ] } },
{ "type": "Feature", "properties": { "source_tile": "K-35-062-2_Rakovski_x2352_y1680.png" }, "geometry": { "type": "Point", "coordinates": [ 24.90430494959751, 42.258002125166001 ] } },
{ "type": "Feature", "properties": { "source_tile": "K-35-062-2_Rakovski_x2352_y1680.png" }, "geometry": { "type": "Point", "coordinates": [ 24.907930732969312, 42.256810033673169 ] } },
{ "type": "Feature", "properties": { "source_tile": "K-35-062-2_Rakovski_x2352_y1680.png" }, "geometry": { "type": "Point", "coordinates": [ 24.902519270619717, 42.259713751137426 ] } },
{ "type": "Feature", "properties": { "source_tile": "K-35-062-2_Rakovski_x2352_y2016.png" }, "geometry": { "type": "Point", "coordinates": [ 24.89704480200567, 42.234620723616963 ] } },
{ "type": "Feature", "properties": { "source_tile": "K-35-062-2_Rakovski_x2352_y2016.png" }, "geometry": { "type": "Point", "coordinates": [ 24.901921802036064, 42.231577296402563 ] } },
{ "type": "Feature", "properties": { "source_tile": "K-35-062-2_Rakovski_x2352_y2016.png" }, "geometry": { "type": "Point", "coordinates": [ 24.892478863037436, 42.227603120008538 ] } },
{ "type": "Feature", "properties": { "source_tile": "K-35-062-2_Rakovski_x2352_y2352.png" }, "geometry": { "type": "Point", "coordinates": [ 24.892406467949776, 42.221006462782199 ] } },
{ "type": "Feature", "properties": { "source_tile": "K-35-062-2_Rakovski_x2352_y2688.png" }, "geometry": { "type": "Point", "coordinates": [ 24.901607298972568, 42.205823696599943 ] } },
{ "type": "Feature", "properties": { "source_tile": "K-35-062-2_Rakovski_x2352_y2688.png" }, "geometry": { "type": "Point", "coordinates": [ 24.898296400182296, 42.203237733273731 ] } },
{ "type": "Feature", "properties": { "source_tile": "K-35-062-2_Rakovski_x2352_y2688.png" }, "geometry": { "type": "Point", "coordinates": [ 24.907213543819282, 42.202888823272005 ] } },
{ "type": "Feature", "properties": { "source_tile": "K-35-062-2_Rakovski_x2352_y3024.png" }, "geometry": { "type": "Point", "coordinates": [ 24.902869196892045, 42.182849801471122 ] } },
{ "type": "Feature", "properties": { "source_tile": "K-35-062-2_Rakovski_x2352_y3360.png" }, "geometry": { "type": "Point", "coordinates": [ 24.902903606565609, 42.182867786993938 ] } },
{ "type": "Feature", "properties": { "source_tile": "K-35-062-2_Rakovski_x2352_y3360.png" }, "geometry": { "type": "Point", "coordinates": [ 24.899876763401647, 42.174906620807981 ] } },
{ "type": "Feature", "properties": { "source_tile": "K-35-062-2_Rakovski_x2688_y0.png" }, "geometry": { "type": "Point", "coordinates": [ 24.927768940252932, 42.33193119357594 ] } },
{ "type": "Feature", "properties": { "source_tile": "K-35-062-2_Rakovski_x2688_y0.png" }, "geometry": { "type": "Point", "coordinates": [ 24.926651903302361, 42.328552629928396 ] } },
{ "type": "Feature", "properties": { "source_tile": "K-35-062-2_Rakovski_x2688_y0.png" }, "geometry": { "type": "Point", "coordinates": [ 24.918777702202849, 42.327238400543308 ] } },
{ "type": "Feature", "properties": { "source_tile": "K-35-062-2_Rakovski_x2688_y0.png" }, "geometry": { "type": "Point", "coordinates": [ 24.911959716954669, 42.32193366830387 ] } },
{ "type": "Feature", "properties": { "source_tile": "K-35-062-2_Rakovski_x2688_y0.png" }, "geometry": { "type": "Point", "coordinates": [ 24.928592540116746, 42.319666786311664 ] } },
{ "type": "Feature", "properties": { "source_tile": "K-35-062-2_Rakovski_x2688_y1008.png" }, "geometry": { "type": "Point", "coordinates": [ 24.930956703807858, 42.276415021094785 ] } },
{ "type": "Feature", "properties": { "source_tile": "K-35-062-2_Rakovski_x2688_y1344.png" }, "geometry": { "type": "Point", "coordinates": [ 24.914523765562439, 42.268011991229692 ] } },
{ "type": "Feature", "properties": { "source_tile": "K-35-062-2_Rakovski_x2688_y1344.png" }, "geometry": { "type": "Point", "coordinates": [ 24.920422839605465, 42.268405526746086 ] } },
{ "type": "Feature", "properties": { "source_tile": "K-35-062-2_Rakovski_x2688_y1344.png" }, "geometry": { "type": "Point", "coordinates": [ 24.917878798177217, 42.263699252900167 ] } },
{ "type": "Feature", "properties": { "source_tile": "K-35-062-2_Rakovski_x2688_y1344.png" }, "geometry": { "type": "Point", "coordinates": [ 24.928300803436116, 42.261536316354629 ] } },
{ "type": "Feature", "properties": { "source_tile": "K-35-062-2_Rakovski_x2688_y1680.png" }, "geometry": { "type": "Point", "coordinates": [ 24.931306149046353, 42.247870601520788 ] } },
{ "type": "Feature", "properties": { "source_tile": "K-35-062-2_Rakovski_x2688_y2688.png" }, "geometry": { "type": "Point", "coordinates": [ 24.926366815059925, 42.20467736228634 ] } },
{ "type": "Feature", "properties": { "source_tile": "K-35-062-2_Rakovski_x2688_y2688.png" }, "geometry": { "type": "Point", "coordinates": [ 24.931044223013931, 42.200839348673952 ] } },
{ "type": "Feature", "properties": { "source_tile": "K-35-062-2_Rakovski_x2688_y3024.png" }, "geometry": { "type": "Point", "coordinates": [ 24.927521418007508, 42.197209026889489 ] } },
{ "type": "Feature", "properties": { "source_tile": "K-35-062-2_Rakovski_x2688_y3024.png" }, "geometry": { "type": "Point", "coordinates": [ 24.915643391225483, 42.185052640169474 ] } },
{ "type": "Feature", "properties": { "source_tile": "K-35-062-2_Rakovski_x2688_y336.png" }, "geometry": { "type": "Point", "coordinates": [ 24.917038774658639, 42.316498227079485 ] } },
{ "type": "Feature", "properties": { "source_tile": "K-35-062-2_Rakovski_x2688_y336.png" }, "geometry": { "type": "Point", "coordinates": [ 24.921670316823043, 42.317172400232508 ] } },
{ "type": "Feature", "properties": { "source_tile": "K-35-062-2_Rakovski_x2688_y336.png" }, "geometry": { "type": "Point", "coordinates": [ 24.91651430306095, 42.312548903303366 ] } },
{ "type": "Feature", "properties": { "source_tile": "K-35-062-2_Rakovski_x2688_y336.png" }, "geometry": { "type": "Point", "coordinates": [ 24.921509317798908, 42.311407316638942 ] } },
{ "type": "Feature", "properties": { "source_tile": "K-35-062-2_Rakovski_x2688_y336.png" }, "geometry": { "type": "Point", "coordinates": [ 24.929659711764941, 42.311728376994324 ] } },
{ "type": "Feature", "properties": { "source_tile": "K-35-062-2_Rakovski_x2688_y336.png" }, "geometry": { "type": "Point", "coordinates": [ 24.928371920325858, 42.319619409372685 ] } },
{ "type": "Feature", "properties": { "source_tile": "K-35-062-2_Rakovski_x2688_y3360.png" }, "geometry": { "type": "Point", "coordinates": [ 24.925942689960113, 42.174825619796103 ] } },
{ "type": "Feature", "properties": { "source_tile": "K-35-062-2_Rakovski_x3024_y0.png" }, "geometry": { "type": "Point", "coordinates": [ 24.936755626027217, 42.332154061428106 ] } },
{ "type": "Feature", "properties": { "source_tile": "K-35-062-2_Rakovski_x3024_y0.png" }, "geometry": { "type": "Point", "coordinates": [ 24.934279909329188, 42.330252389486397 ] } },
{ "type": "Feature", "properties": { "source_tile": "K-35-062-2_Rakovski_x3024_y0.png" }, "geometry": { "type": "Point", "coordinates": [ 24.937396885995163, 42.326490225913027 ] } },
{ "type": "Feature", "properties": { "source_tile": "K-35-062-2_Rakovski_x3024_y0.png" }, "geometry": { "type": "Point", "coordinates": [ 24.930865429595009, 42.323100918437838 ] } },
{ "type": "Feature", "properties": { "source_tile": "K-35-062-2_Rakovski_x3024_y0.png" }, "geometry": { "type": "Point", "coordinates": [ 24.928449171929444, 42.319759652830534 ] } },
{ "type": "Feature", "properties": { "source_tile": "K-35-062-2_Rakovski_x3024_y0.png" }, "geometry": { "type": "Point", "coordinates": [ 24.9275619612438, 42.331823316048421 ] } },
{ "type": "Feature", "properties": { "source_tile": "K-35-062-2_Rakovski_x3024_y1008.png" }, "geometry": { "type": "Point", "coordinates": [ 24.931093510706368, 42.274733955390722 ] } },
{ "type": "Feature", "properties": { "source_tile": "K-35-062-2_Rakovski_x3024_y1680.png" }, "geometry": { "type": "Point", "coordinates": [ 24.931271412862827, 42.247861296689742 ] } },
{ "type": "Feature", "properties": { "source_tile": "K-35-062-2_Rakovski_x3024_y1680.png" }, "geometry": { "type": "Point", "coordinates": [ 24.943498728878719, 42.249712749312046 ] } },
{ "type": "Feature", "properties": { "source_tile": "K-35-062-2_Rakovski_x3024_y1680.png" }, "geometry": { "type": "Point", "coordinates": [ 24.95032744734176, 42.244437280860659 ] } },
{ "type": "Feature", "properties": { "source_tile": "K-35-062-2_Rakovski_x3024_y2016.png" }, "geometry": { "type": "Point", "coordinates": [ 24.950697605183471, 42.244548034556132 ] } },
{ "type": "Feature", "properties": { "source_tile": "K-35-062-2_Rakovski_x3024_y3024.png" }, "geometry": { "type": "Point", "coordinates": [ 24.949517779701836, 42.187919676354156 ] } },
{ "type": "Feature", "properties": { "source_tile": "K-35-062-2_Rakovski_x3024_y336.png" }, "geometry": { "type": "Point", "coordinates": [ 24.928558334469763, 42.319640134295334 ] } },
{ "type": "Feature", "properties": { "source_tile": "K-35-062-2_Rakovski_x3024_y336.png" }, "geometry": { "type": "Point", "coordinates": [ 24.944904558901115, 42.316801630021807 ] } },
{ "type": "Feature", "properties": { "source_tile": "K-35-062-2_Rakovski_x3024_y336.png" }, "geometry": { "type": "Point", "coordinates": [ 24.945674710069376, 42.316850147349825 ] } },
{ "type": "Feature", "properties": { "source_tile": "K-35-062-2_Rakovski_x3024_y336.png" }, "geometry": { "type": "Point", "coordinates": [ 24.945440195426173, 42.316151706652931 ] } },
{ "type": "Feature", "properties": { "source_tile": "K-35-062-2_Rakovski_x3024_y336.png" }, "geometry": { "type": "Point", "coordinates": [ 24.929636910465447, 42.311710609229834 ] } },
{ "type": "Feature", "properties": { "source_tile": "K-35-062-2_Rakovski_x3024_y3360.png" }, "geometry": { "type": "Point", "coordinates": [ 24.938607673894637, 42.174620074297522 ] } },
{ "type": "Feature", "properties": { "source_tile": "K-35-062-2_Rakovski_x3024_y672.png" }, "geometry": { "type": "Point", "coordinates": [ 24.937762845957625, 42.296670627075663 ] } },
{ "type": "Feature", "properties": { "source_tile": "K-35-062-2_Rakovski_x3360_y1344.png" }, "geometry": { "type": "Point", "coordinates": [ 24.972106433059917, 42.27041616283158 ] } },
{ "type": "Feature", "properties": { "source_tile": "K-35-062-2_Rakovski_x3360_y1344.png" }, "geometry": { "type": "Point", "coordinates": [ 24.965118131073044, 42.261371304062948 ] } },
{ "type": "Feature", "properties": { "source_tile": "K-35-062-2_Rakovski_x3360_y1680.png" }, "geometry": { "type": "Point", "coordinates": [ 24.955896592436183, 42.249561307730474 ] } },
{ "type": "Feature", "properties": { "source_tile": "K-35-062-2_Rakovski_x3360_y1680.png" }, "geometry": { "type": "Point", "coordinates": [ 24.970678323296724, 42.253381907952082 ] } },
{ "type": "Feature", "properties": { "source_tile": "K-35-062-2_Rakovski_x3360_y2016.png" }, "geometry": { "type": "Point", "coordinates": [ 24.95044024292168, 42.24456079023151 ] } },
{ "type": "Feature", "properties": { "source_tile": "K-35-062-2_Rakovski_x3360_y2352.png" }, "geometry": { "type": "Point", "coordinates": [ 24.969711956593788, 42.21613579802375 ] } },
{ "type": "Feature", "properties": { "source_tile": "K-35-062-2_Rakovski_x3360_y2352.png" }, "geometry": { "type": "Point", "coordinates": [ 24.971048736361936, 42.21595118539387 ] } },
{ "type": "Feature", "properties": { "source_tile": "K-35-062-2_Rakovski_x3360_y3360.png" }, "geometry": { "type": "Point", "coordinates": [ 24.975256806135775, 42.179238930092531 ] } },
{ "type": "Feature", "properties": { "source_tile": "K-35-062-2_Rakovski_x336_y0.png" }, "geometry": { "type": "Point", "coordinates": [ 24.776760360835734, 42.329127508891851 ] } },
{ "type": "Feature", "properties": { "source_tile": "K-35-062-2_Rakovski_x336_y0.png" }, "geometry": { "type": "Point", "coordinates": [ 24.780395996513143, 42.332495562731751 ] } },
{ "type": "Feature", "properties": { "source_tile": "K-35-062-2_Rakovski_x336_y1008.png" }, "geometry": { "type": "Point", "coordinates": [ 24.77775047875927, 42.279734786401896 ] } },
{ "type": "Feature", "properties": { "source_tile": "K-35-062-2_Rakovski_x336_y1008.png" }, "geometry": { "type": "Point", "coordinates": [ 24.771259167750571, 42.278237647347055 ] } },
{ "type": "Feature", "properties": { "source_tile": "K-35-062-2_Rakovski_x336_y1008.png" }, "geometry": { "type": "Point", "coordinates": [ 24.768966821174295, 42.274982222265841 ] } },
{ "type": "Feature", "properties": { "source_tile": "K-35-062-2_Rakovski_x336_y1344.png" }, "geometry": { "type": "Point", "coordinates": [ 24.774991775374776, 42.268469384962941 ] } },
{ "type": "Feature", "properties": { "source_tile": "K-35-062-2_Rakovski_x336_y1344.png" }, "geometry": { "type": "Point", "coordinates": [ 24.77595102372252, 42.268435932146289 ] } },
{ "type": "Feature", "properties": { "source_tile": "K-35-062-2_Rakovski_x336_y1344.png" }, "geometry": { "type": "Point", "coordinates": [ 24.779796230882734, 42.2680678951413 ] } },
{ "type": "Feature", "properties": { "source_tile": "K-35-062-2_Rakovski_x336_y1344.png" }, "geometry": { "type": "Point", "coordinates": [ 24.778139293051225, 42.267341556576824 ] } },
{ "type": "Feature", "properties": { "source_tile": "K-35-062-2_Rakovski_x336_y1344.png" }, "geometry": { "type": "Point", "coordinates": [ 24.773351838630965, 42.266597819393532 ] } },
{ "type": "Feature", "properties": { "source_tile": "K-35-062-2_Rakovski_x336_y1344.png" }, "geometry": { "type": "Point", "coordinates": [ 24.777770306420841, 42.263212380831277 ] } },
{ "type": "Feature", "properties": { "source_tile": "K-35-062-2_Rakovski_x336_y1344.png" }, "geometry": { "type": "Point", "coordinates": [ 24.775051530606671, 42.256807385685597 ] } },
{ "type": "Feature", "properties": { "source_tile": "K-35-062-2_Rakovski_x336_y1344.png" }, "geometry": { "type": "Point", "coordinates": [ 24.771055590036248, 42.255835931494751 ] } },
{ "type": "Feature", "properties": { "source_tile": "K-35-062-2_Rakovski_x336_y336.png" }, "geometry": { "type": "Point", "coordinates": [ 24.77500207735417, 42.306018918727027 ] } },
{ "type": "Feature", "properties": { "source_tile": "K-35-062-2_Rakovski_x336_y336.png" }, "geometry": { "type": "Point", "coordinates": [ 24.770646257624463, 42.301907739501246 ] } },
{ "type": "Feature", "properties": { "source_tile": "K-35-062-2_Rakovski_x336_y672.png" }, "geometry": { "type": "Point", "coordinates": [ 24.770692985503963, 42.301908648337147 ] } },
{ "type": "Feature", "properties": { "source_tile": "K-35-062-2_Rakovski_x336_y672.png" }, "geometry": { "type": "Point", "coordinates": [ 24.770735834198607, 42.300694576633276 ] } },
{ "type": "Feature", "properties": { "source_tile": "K-35-062-2_Rakovski_x336_y672.png" }, "geometry": { "type": "Point", "coordinates": [ 24.77635529930987, 42.300456615761135 ] } },
{ "type": "Feature", "properties": { "source_tile": "K-35-062-2_Rakovski_x3696_y0.png" }, "geometry": { "type": "Point", "coordinates": [ 24.984188382272695, 42.327921466841886 ] } },
{ "type": "Feature", "properties": { "source_tile": "K-35-062-2_Rakovski_x3696_y1008.png" }, "geometry": { "type": "Point", "coordinates": [ 24.98378730096735, 42.287379478722023 ] } },
{ "type": "Feature", "properties": { "source_tile": "K-35-062-2_Rakovski_x3696_y1008.png" }, "geometry": { "type": "Point", "coordinates": [ 24.976064723243987, 42.290575754457699 ] } },
{ "type": "Feature", "properties": { "source_tile": "K-35-062-2_Rakovski_x3696_y1008.png" }, "geometry": { "type": "Point", "coordinates": [ 24.984839860834892, 42.282225880273621 ] } },
{ "type": "Feature", "properties": { "source_tile": "K-35-062-2_Rakovski_x3696_y1008.png" }, "geometry": { "type": "Point", "coordinates": [ 24.989915334952386, 42.276969314150008 ] } },
{ "type": "Feature", "properties": { "source_tile": "K-35-062-2_Rakovski_x3696_y1008.png" }, "geometry": { "type": "Point", "coordinates": [ 24.982495584714751, 42.275120725552547 ] } },
{ "type": "Feature", "properties": { "source_tile": "K-35-062-2_Rakovski_x3696_y1344.png" }, "geometry": { "type": "Point", "coordinates": [ 24.972313572310757, 42.270515285173119 ] } },
{ "type": "Feature", "properties": { "source_tile": "K-35-062-2_Rakovski_x3696_y1344.png" }, "geometry": { "type": "Point", "coordinates": [ 24.982991620639211, 42.274955893099616 ] } },
{ "type": "Feature", "properties": { "source_tile": "K-35-062-2_Rakovski_x3696_y1680.png" }, "geometry": { "type": "Point", "coordinates": [ 24.970714181331267, 42.253356508453507 ] } },
{ "type": "Feature", "properties": { "source_tile": "K-35-062-2_Rakovski_x3696_y1680.png" }, "geometry": { "type": "Point", "coordinates": [ 24.982351076162917, 42.252546556921857 ] } },
{ "type": "Feature", "properties": { "source_tile": "K-35-062-2_Rakovski_x3696_y2016.png" }, "geometry": { "type": "Point", "coordinates": [ 24.98370277591345, 42.242017792211115 ] } },
{ "type": "Feature", "properties": { "source_tile": "K-35-062-2_Rakovski_x3696_y2016.png" }, "geometry": { "type": "Point", "coordinates": [ 24.986909603542021, 42.241805121964738 ] } },
{ "type": "Feature", "properties": { "source_tile": "K-35-062-2_Rakovski_x3696_y2352.png" }, "geometry": { "type": "Point", "coordinates": [ 24.97617663821088, 42.222073097326202 ] } },
{ "type": "Feature", "properties": { "source_tile": "K-35-062-2_Rakovski_x3696_y2688.png" }, "geometry": { "type": "Point", "coordinates": [ 24.990467715725277, 42.209177092622227 ] } },
{ "type": "Feature", "properties": { "source_tile": "K-35-062-2_Rakovski_x3696_y336.png" }, "geometry": { "type": "Point", "coordinates": [ 24.978392050462837, 42.317926489502725 ] } },
{ "type": "Feature", "properties": { "source_tile": "K-35-062-2_Rakovski_x3696_y336.png" }, "geometry": { "type": "Point", "coordinates": [ 24.983806634041162, 42.316806938765836 ] } },
{ "type": "Feature", "properties": { "source_tile": "K-35-062-2_Rakovski_x3696_y3360.png" }, "geometry": { "type": "Point", "coordinates": [ 24.975707116338246, 42.17902124761919 ] } },
{ "type": "Feature", "properties": { "source_tile": "K-35-062-2_Rakovski_x3696_y3360.png" }, "geometry": { "type": "Point", "coordinates": [ 24.995039495691412, 42.170917004727357 ] } },
{ "type": "Feature", "properties": { "source_tile": "K-35-062-2_Rakovski_x3696_y672.png" }, "geometry": { "type": "Point", "coordinates": [ 24.975959312550316, 42.290582571350242 ] } },
{ "type": "Feature", "properties": { "source_tile": "K-35-062-2_Rakovski_x4032_y1008.png" }, "geometry": { "type": "Point", "coordinates": [ 24.990149191102205, 42.27696473625226 ] } },
{ "type": "Feature", "properties": { "source_tile": "K-35-062-2_Rakovski_x4032_y3024.png" }, "geometry": { "type": "Point", "coordinates": [ 24.997285559662341, 42.187722488601587 ] } },
{ "type": "Feature", "properties": { "source_tile": "K-35-062-2_Rakovski_x4032_y3360.png" }, "geometry": { "type": "Point", "coordinates": [ 24.994954113480411, 42.169188552515635 ] } },
{ "type": "Feature", "properties": { "source_tile": "K-35-062-2_Rakovski_x4032_y3360.png" }, "geometry": { "type": "Point", "coordinates": [ 24.997899625757885, 42.169005701709523 ] } },
{ "type": "Feature", "properties": { "source_tile": "K-35-062-2_Rakovski_x4032_y672.png" }, "geometry": { "type": "Point", "coordinates": [ 24.994883842863032, 42.30305569551534 ] } },
{ "type": "Feature", "properties": { "source_tile": "K-35-062-2_Rakovski_x672_y0.png" }, "geometry": { "type": "Point", "coordinates": [ 24.80608167046767, 42.317300514295987 ] } },
{ "type": "Feature", "properties": { "source_tile": "K-35-062-2_Rakovski_x672_y1008.png" }, "geometry": { "type": "Point", "coordinates": [ 24.788513288556832, 42.285410027438303 ] } },
{ "type": "Feature", "properties": { "source_tile": "K-35-062-2_Rakovski_x672_y1008.png" }, "geometry": { "type": "Point", "coordinates": [ 24.798690636728324, 42.28446043792232 ] } },
{ "type": "Feature", "properties": { "source_tile": "K-35-062-2_Rakovski_x672_y1008.png" }, "geometry": { "type": "Point", "coordinates": [ 24.79533060465441, 42.272567835284534 ] } },
{ "type": "Feature", "properties": { "source_tile": "K-35-062-2_Rakovski_x672_y1344.png" }, "geometry": { "type": "Point", "coordinates": [ 24.795530016402267, 42.272545636457053 ] } },
{ "type": "Feature", "properties": { "source_tile": "K-35-062-2_Rakovski_x672_y1344.png" }, "geometry": { "type": "Point", "coordinates": [ 24.788972913485992, 42.260573950997141 ] } },
{ "type": "Feature", "properties": { "source_tile": "K-35-062-2_Rakovski_x672_y1680.png" }, "geometry": { "type": "Point", "coordinates": [ 24.791058489501019, 42.250027040557327 ] } },
{ "type": "Feature", "properties": { "source_tile": "K-35-062-2_Rakovski_x672_y336.png" }, "geometry": { "type": "Point", "coordinates": [ 24.806586238886908, 42.31724942604086 ] } },
{ "type": "Feature", "properties": { "source_tile": "K-35-062-2_Rakovski_x672_y336.png" }, "geometry": { "type": "Point", "coordinates": [ 24.806824050798422, 42.316125850607392 ] } },
{ "type": "Feature", "properties": { "source_tile": "K-35-062-2_Rakovski_x672_y672.png" }, "geometry": { "type": "Point", "coordinates": [ 24.790794483024015, 42.291363679767642 ] } },
{ "type": "Feature", "properties": { "source_tile": "K-35-078-1_Lesovo_x0_y3024.png" }, "geometry": { "type": "Point", "coordinates": [ 26.520539495289043, 41.853057275833137 ] } },
{ "type": "Feature", "properties": { "source_tile": "K-35-078-1_Lesovo_x0_y3360.png" }, "geometry": { "type": "Point", "coordinates": [ 26.506796841439069, 41.842227220884141 ] } },
{ "type": "Feature", "properties": { "source_tile": "K-35-078-1_Lesovo_x0_y3360.png" }, "geometry": { "type": "Point", "coordinates": [ 26.509457713533035, 41.838149130568439 ] } },
{ "type": "Feature", "properties": { "source_tile": "K-35-078-1_Lesovo_x2016_y0.png" }, "geometry": { "type": "Point", "coordinates": [ 26.641810541266075, 41.994019398316311 ] } },
{ "type": "Feature", "properties": { "source_tile": "K-35-078-1_Lesovo_x2352_y0.png" }, "geometry": { "type": "Point", "coordinates": [ 26.641553946934263, 41.994018597400242 ] } },
{ "type": "Feature", "properties": { "source_tile": "K-35-078-1_Lesovo_x2352_y0.png" }, "geometry": { "type": "Point", "coordinates": [ 26.650125481546642, 41.985718353690821 ] } },
{ "type": "Feature", "properties": { "source_tile": "K-35-078-1_Lesovo_x2352_y0.png" }, "geometry": { "type": "Point", "coordinates": [ 26.659462962527623, 41.984249888660969 ] } },
{ "type": "Feature", "properties": { "source_tile": "K-35-078-1_Lesovo_x2352_y336.png" }, "geometry": { "type": "Point", "coordinates": [ 26.659416408793867, 41.984232348890373 ] } },
{ "type": "Feature", "properties": { "source_tile": "K-35-078-1_Lesovo_x2352_y336.png" }, "geometry": { "type": "Point", "coordinates": [ 26.653293626747733, 41.975695899880364 ] } },
{ "type": "Feature", "properties": { "source_tile": "K-35-078-1_Lesovo_x2352_y336.png" }, "geometry": { "type": "Point", "coordinates": [ 26.659637299003084, 41.975601771407142 ] } },
{ "type": "Feature", "properties": { "source_tile": "K-35-078-1_Lesovo_x336_y2016.png" }, "geometry": { "type": "Point", "coordinates": [ 26.539477658880188, 41.901251196053884 ] } },
{ "type": "Feature", "properties": { "source_tile": "K-35-078-1_Lesovo_x336_y3024.png" }, "geometry": { "type": "Point", "coordinates": [ 26.520563420163636, 41.852970365558633 ] } },
{ "type": "Feature", "properties": { "source_tile": "K-35-078-1_Lesovo_x336_y3024.png" }, "geometry": { "type": "Point", "coordinates": [ 26.529662115827083, 41.858028469910309 ] } },
{ "type": "Feature", "properties": { "source_tile": "K-35-078-1_Lesovo_x336_y3360.png" }, "geometry": { "type": "Point", "coordinates": [ 26.538916554447642, 41.841603661638885 ] } },
{ "type": "Feature", "properties": { "source_tile": "K-35-078-1_Lesovo_x336_y3360.png" }, "geometry": { "type": "Point", "coordinates": [ 26.536854348731069, 41.83713173244832 ] } },
{ "type": "Feature", "properties": { "source_tile": "K-35-078-1_Lesovo_x336_y3360.png" }, "geometry": { "type": "Point", "coordinates": [ 26.536137171738567, 41.831716788421993 ] } },
{ "type": "Feature", "properties": { "source_tile": "K-35-078-1_Lesovo_x336_y672.png" }, "geometry": { "type": "Point", "coordinates": [ 26.529518416979609, 41.966441426161907 ] } },
{ "type": "Feature", "properties": { "source_tile": "K-35-078-1_Lesovo_x3696_y0.png" }, "geometry": { "type": "Point", "coordinates": [ 26.727798128087024, 41.995908649429396 ] } },
{ "type": "Feature", "properties": { "source_tile": "K-35-078-1_Lesovo_x3696_y336.png" }, "geometry": { "type": "Point", "coordinates": [ 26.744246940609848, 41.977761726807032 ] } },
{ "type": "Feature", "properties": { "source_tile": "K-35-078-1_Lesovo_x4032_y336.png" }, "geometry": { "type": "Point", "coordinates": [ 26.743874222219372, 41.9776564856882 ] } },
{ "type": "Feature", "properties": { "source_tile": "K-35-078-1_Lesovo_x672_y0.png" }, "geometry": { "type": "Point", "coordinates": [ 26.545449959978512, 41.983637550344064 ] } },
{ "type": "Feature", "properties": { "source_tile": "K-35-078-1_Lesovo_x672_y336.png" }, "geometry": { "type": "Point", "coordinates": [ 26.54526275935655, 41.983723817176283 ] } }
]
}
