{"type": "FeatureCollection", "crs": {"type": "name", "properties": {"name": "urn:ogc:def:crs:EPSG::32635"}}, "processed_tiles": ["K-35-052-4_32635_x0_y0.png", "K-35-052-4_32635_x0_y1344.png", "K-35-052-4_32635_x0_y1792.png", "K-35-052-4_32635_x0_y2240.png", "K-35-052-4_32635_x0_y2688.png", "K-35-052-4_32635_x0_y3136.png", "K-35-052-4_32635_x0_y3584.png", "K-35-052-4_32635_x0_y448.png", "K-35-052-4_32635_x0_y896.png", "K-35-052-4_32635_x1344_y0.png", "K-35-052-4_32635_x1344_y1792.png", "K-35-052-4_32635_x1344_y2688.png", "K-35-052-4_32635_x1344_y3136.png", "K-35-052-4_32635_x1344_y3584.png", "K-35-052-4_32635_x1344_y448.png", "K-35-052-4_32635_x1344_y896.png", "K-35-052-4_32635_x1792_y0.png", "K-35-052-4_32635_x1792_y1344.png", "K-35-052-4_32635_x1792_y1792.png", "K-35-052-4_32635_x1792_y2240.png", "K-35-052-4_32635_x1792_y2688.png", "K-35-052-4_32635_x1792_y3136.png", "K-35-052-4_32635_x1792_y3584.png", "K-35-052-4_32635_x1792_y448.png", "K-35-052-4_32635_x1792_y896.png", "K-35-052-4_32635_x2240_y0.png", "K-35-052-4_32635_x2240_y1344.png", "K-35-052-4_32635_x2240_y1792.png", "K-35-052-4_32635_x2240_y2688.png", "K-35-052-4_32635_x2240_y3136.png", "K-35-052-4_32635_x2240_y448.png", "K-35-052-4_32635_x2240_y896.png", "K-35-052-4_32635_x2688_y0.png", "K-35-052-4_32635_x2688_y1344.png", "K-35-052-4_32635_x2688_y1792.png", "K-35-052-4_32635_x2688_y2240.png", "K-35-052-4_32635_x2688_y2688.png", "K-35-052-4_32635_x2688_y3136.png", "K-35-052-4_32635_x2688_y3584.png", "K-35-052-4_32635_x2688_y448.png", "K-35-052-4_32635_x2688_y896.png", "K-35-052-4_32635_x3136_y0.png", "K-35-052-4_32635_x3136_y1344.png", "K-35-052-4_32635_x3136_y1792.png", "K-35-052-4_32635_x3136_y2240.png", "K-35-052-4_32635_x3136_y2688.png", "K-35-052-4_32635_x3136_y3136.png", "K-35-052-4_32635_x3136_y3584.png", "K-35-052-4_32635_x3136_y448.png", "K-35-052-4_32635_x3584_y0.png", "K-35-052-4_32635_x3584_y1344.png", "K-35-052-4_32635_x3584_y1792.png", "K-35-052-4_32635_x3584_y2240.png", "K-35-052-4_32635_x3584_y2688.png", "K-35-052-4_32635_x3584_y3136.png", "K-35-052-4_32635_x3584_y3584.png", "K-35-052-4_32635_x3584_y448.png", "K-35-052-4_32635_x3584_y896.png", "K-35-052-4_32635_x4032_y0.png", "K-35-052-4_32635_x4032_y1344.png", "K-35-052-4_32635_x4032_y1792.png", "K-35-052-4_32635_x4032_y2240.png", "K-35-052-4_32635_x4032_y2688.png", "K-35-052-4_32635_x4032_y3136.png", "K-35-052-4_32635_x4032_y3584.png", "K-35-052-4_32635_x4032_y448.png", "K-35-052-4_32635_x4032_y896.png", "K-35-052-4_32635_x448_y0.png", "K-35-052-4_32635_x448_y1344.png", "K-35-052-4_32635_x448_y1792.png", "K-35-052-4_32635_x448_y2240.png", "K-35-052-4_32635_x448_y2688.png", "K-35-052-4_32635_x448_y3136.png", "K-35-052-4_32635_x448_y3584.png", "K-35-052-4_32635_x448_y448.png", "K-35-052-4_32635_x448_y896.png", "K-35-052-4_32635_x896_y0.png", "K-35-052-4_32635_x896_y1344.png", "K-35-052-4_32635_x896_y1792.png", "K-35-052-4_32635_x896_y2240.png", "K-35-052-4_32635_x896_y2688.png", "K-35-052-4_32635_x896_y3136.png", "K-35-052-4_32635_x896_y3584.png", "K-35-052-4_32635_x896_y448.png", "K-35-052-4_32635_x896_y896.png", "K-35-053-3_Elenovo_x0_y0.png", "K-35-053-3_Elenovo_x0_y1344.png", "K-35-053-3_Elenovo_x0_y1792.png", "K-35-053-3_Elenovo_x0_y2240.png", "K-35-053-3_Elenovo_x0_y2688.png", "K-35-053-3_Elenovo_x0_y3136.png", "K-35-053-3_Elenovo_x0_y3584.png", "K-35-053-3_Elenovo_x0_y448.png", "K-35-053-3_Elenovo_x0_y896.png", "K-35-053-3_Elenovo_x1344_y0.png", "K-35-053-3_Elenovo_x1344_y1344.png", "K-35-053-3_Elenovo_x1344_y1792.png", "K-35-053-3_Elenovo_x1344_y2240.png", "K-35-053-3_Elenovo_x1344_y2688.png", "K-35-053-3_Elenovo_x1344_y3136.png", "K-35-053-3_Elenovo_x1344_y3584.png", "K-35-053-3_Elenovo_x1344_y448.png", "K-35-053-3_Elenovo_x1344_y896.png", "K-35-053-3_Elenovo_x1792_y0.png", "K-35-053-3_Elenovo_x1792_y1344.png", "K-35-053-3_Elenovo_x1792_y1792.png", "K-35-053-3_Elenovo_x1792_y2688.png", "K-35-053-3_Elenovo_x1792_y3136.png", "K-35-053-3_Elenovo_x1792_y3584.png", "K-35-053-3_Elenovo_x1792_y448.png", "K-35-053-3_Elenovo_x1792_y896.png", "K-35-053-3_Elenovo_x2240_y0.png", "K-35-053-3_Elenovo_x2240_y1344.png", "K-35-053-3_Elenovo_x2240_y1792.png", "K-35-053-3_Elenovo_x2240_y2688.png", "K-35-053-3_Elenovo_x2240_y3136.png", "K-35-053-3_Elenovo_x2240_y448.png", "K-35-053-3_Elenovo_x2240_y896.png", "K-35-053-3_Elenovo_x2688_y0.png", "K-35-053-3_Elenovo_x2688_y1344.png", "K-35-053-3_Elenovo_x2688_y1792.png", "K-35-053-3_Elenovo_x2688_y2240.png", "K-35-053-3_Elenovo_x2688_y2688.png", "K-35-053-3_Elenovo_x2688_y3136.png", "K-35-053-3_Elenovo_x2688_y3584.png", "K-35-053-3_Elenovo_x2688_y448.png", "K-35-053-3_Elenovo_x2688_y896.png", "K-35-053-3_Elenovo_x3136_y0.png", "K-35-053-3_Elenovo_x3136_y1344.png", "K-35-053-3_Elenovo_x3136_y1792.png", "K-35-053-3_Elenovo_x3136_y2240.png", "K-35-053-3_Elenovo_x3136_y2688.png", "K-35-053-3_Elenovo_x3136_y3584.png", "K-35-053-3_Elenovo_x3136_y448.png", "K-35-053-3_Elenovo_x3136_y896.png", "K-35-053-3_Elenovo_x3584_y0.png", "K-35-053-3_Elenovo_x3584_y1344.png", "K-35-053-3_Elenovo_x3584_y1792.png", "K-35-053-3_Elenovo_x3584_y2240.png", "K-35-053-3_Elenovo_x3584_y2688.png", "K-35-053-3_Elenovo_x3584_y3136.png", "K-35-053-3_Elenovo_x3584_y3584.png", "K-35-053-3_Elenovo_x3584_y448.png", "K-35-053-3_Elenovo_x3584_y896.png", "K-35-053-3_Elenovo_x4032_y0.png", "K-35-053-3_Elenovo_x4032_y1344.png", "K-35-053-3_Elenovo_x4032_y1792.png", "K-35-053-3_Elenovo_x4032_y2240.png", "K-35-053-3_Elenovo_x4032_y2688.png", "K-35-053-3_Elenovo_x4032_y3136.png", "K-35-053-3_Elenovo_x4032_y3584.png", "K-35-053-3_Elenovo_x4032_y448.png", "K-35-053-3_Elenovo_x4032_y896.png", "K-35-053-3_Elenovo_x448_y0.png", "K-35-053-3_Elenovo_x448_y1344.png", "K-35-053-3_Elenovo_x448_y1792.png", "K-35-053-3_Elenovo_x448_y2240.png", "K-35-053-3_Elenovo_x448_y2688.png", "K-35-053-3_Elenovo_x448_y3136.png", "K-35-053-3_Elenovo_x448_y3584.png", "K-35-053-3_Elenovo_x448_y448.png", "K-35-053-3_Elenovo_x448_y896.png", "K-35-053-3_Elenovo_x896_y0.png", "K-35-053-3_Elenovo_x896_y1792.png", "K-35-053-3_Elenovo_x896_y2240.png", "K-35-053-3_Elenovo_x896_y2688.png", "K-35-053-3_Elenovo_x896_y3136.png", "K-35-053-3_Elenovo_x896_y3584.png", "K-35-053-3_Elenovo_x896_y448.png", "K-35-053-3_Elenovo_x896_y896.png", "K-35-062-2_Rakovski_x0_y0.png", "K-35-062-2_Rakovski_x0_y1344.png", "K-35-062-2_Rakovski_x0_y2240.png", "K-35-062-2_Rakovski_x0_y2688.png", "K-35-062-2_Rakovski_x0_y3584.png", "K-35-062-2_Rakovski_x0_y448.png", "K-35-062-2_Rakovski_x0_y896.png", "K-35-062-2_Rakovski_x1344_y0.png", "K-35-062-2_Rakovski_x1344_y1344.png", "K-35-062-2_Rakovski_x1344_y1792.png", "K-35-062-2_Rakovski_x1344_y2240.png", "K-35-062-2_Rakovski_x1344_y2688.png", "K-35-062-2_Rakovski_x1344_y3136.png", "K-35-062-2_Rakovski_x1344_y3584.png", "K-35-062-2_Rakovski_x1344_y448.png", "K-35-062-2_Rakovski_x1344_y896.png", "K-35-062-2_Rakovski_x1792_y0.png", "K-35-062-2_Rakovski_x1792_y1344.png", "K-35-062-2_Rakovski_x1792_y1792.png", "K-35-062-2_Rakovski_x1792_y2240.png", "K-35-062-2_Rakovski_x1792_y2688.png", "K-35-062-2_Rakovski_x1792_y3136.png", "K-35-062-2_Rakovski_x1792_y3584.png", "K-35-062-2_Rakovski_x1792_y448.png", "K-35-062-2_Rakovski_x1792_y896.png", "K-35-062-2_Rakovski_x2240_y0.png", "K-35-062-2_Rakovski_x2240_y1344.png", "K-35-062-2_Rakovski_x2240_y1792.png", "K-35-062-2_Rakovski_x2240_y2240.png", "K-35-062-2_Rakovski_x2240_y2688.png", "K-35-062-2_Rakovski_x2240_y3136.png", "K-35-062-2_Rakovski_x2240_y3584.png", "K-35-062-2_Rakovski_x2240_y448.png", "K-35-062-2_Rakovski_x2240_y896.png", "K-35-062-2_Rakovski_x2688_y0.png", "K-35-062-2_Rakovski_x2688_y1344.png", "K-35-062-2_Rakovski_x2688_y1792.png", "K-35-062-2_Rakovski_x2688_y2240.png", "K-35-062-2_Rakovski_x2688_y2688.png", "K-35-062-2_Rakovski_x2688_y3136.png", "K-35-062-2_Rakovski_x2688_y3584.png", "K-35-062-2_Rakovski_x2688_y448.png", "K-35-062-2_Rakovski_x2688_y896.png", "K-35-062-2_Rakovski_x3136_y0.png", "K-35-062-2_Rakovski_x3136_y1344.png", "K-35-062-2_Rakovski_x3136_y1792.png", "K-35-062-2_Rakovski_x3136_y2240.png", "K-35-062-2_Rakovski_x3136_y2688.png", "K-35-062-2_Rakovski_x3136_y3136.png", "K-35-062-2_Rakovski_x3136_y3584.png", "K-35-062-2_Rakovski_x3136_y448.png", "K-35-062-2_Rakovski_x3136_y896.png", "K-35-062-2_Rakovski_x3584_y0.png", "K-35-062-2_Rakovski_x3584_y1344.png", "K-35-062-2_Rakovski_x3584_y1792.png", "K-35-062-2_Rakovski_x3584_y2240.png", "K-35-062-2_Rakovski_x3584_y2688.png", "K-35-062-2_Rakovski_x3584_y3136.png", "K-35-062-2_Rakovski_x3584_y3584.png", "K-35-062-2_Rakovski_x3584_y448.png", "K-35-062-2_Rakovski_x3584_y896.png", "K-35-062-2_Rakovski_x4032_y0.png", "K-35-062-2_Rakovski_x4032_y1344.png", "K-35-062-2_Rakovski_x4032_y1792.png", "K-35-062-2_Rakovski_x4032_y2240.png", "K-35-062-2_Rakovski_x4032_y2688.png", "K-35-062-2_Rakovski_x4032_y3136.png", "K-35-062-2_Rakovski_x4032_y3584.png", "K-35-062-2_Rakovski_x4032_y448.png", "K-35-062-2_Rakovski_x4032_y896.png", "K-35-062-2_Rakovski_x448_y0.png", "K-35-062-2_Rakovski_x448_y1344.png", "K-35-062-2_Rakovski_x448_y1792.png", "K-35-062-2_Rakovski_x448_y2240.png", "K-35-062-2_Rakovski_x448_y3136.png", "K-35-062-2_Rakovski_x448_y3584.png", "K-35-062-2_Rakovski_x448_y448.png", "K-35-062-2_Rakovski_x448_y896.png", "K-35-062-2_Rakovski_x896_y0.png", "K-35-062-2_Rakovski_x896_y1344.png", "K-35-062-2_Rakovski_x896_y1792.png", "K-35-062-2_Rakovski_x896_y2240.png", "K-35-062-2_Rakovski_x896_y3584.png", "K-35-062-2_Rakovski_x896_y448.png", "K-35-062-2_Rakovski_x896_y896.png", "K-35-078-1_Lesovo_x0_y0.png", "K-35-078-1_Lesovo_x0_y1344.png", "K-35-078-1_Lesovo_x0_y1792.png", "K-35-078-1_Lesovo_x0_y2240.png", "K-35-078-1_Lesovo_x0_y2688.png", "K-35-078-1_Lesovo_x0_y3136.png", "K-35-078-1_Lesovo_x0_y3584.png", "K-35-078-1_Lesovo_x0_y448.png", "K-35-078-1_Lesovo_x0_y896.png", "K-35-078-1_Lesovo_x1344_y1344.png", "K-35-078-1_Lesovo_x1344_y1792.png", "K-35-078-1_Lesovo_x1344_y2240.png", "K-35-078-1_Lesovo_x1344_y2688.png", "K-35-078-1_Lesovo_x1344_y3136.png", "K-35-078-1_Lesovo_x1344_y3584.png", "K-35-078-1_Lesovo_x1344_y448.png", "K-35-078-1_Lesovo_x1792_y0.png", "K-35-078-1_Lesovo_x1792_y1344.png", "K-35-078-1_Lesovo_x1792_y1792.png", "K-35-078-1_Lesovo_x1792_y2240.png", "K-35-078-1_Lesovo_x1792_y2688.png", "K-35-078-1_Lesovo_x1792_y3136.png", "K-35-078-1_Lesovo_x1792_y3584.png", "K-35-078-1_Lesovo_x1792_y448.png", "K-35-078-1_Lesovo_x1792_y896.png", "K-35-078-1_Lesovo_x2240_y0.png", "K-35-078-1_Lesovo_x2240_y1344.png", "K-35-078-1_Lesovo_x2240_y1792.png", "K-35-078-1_Lesovo_x2240_y2240.png", "K-35-078-1_Lesovo_x2240_y2688.png", "K-35-078-1_Lesovo_x2240_y3136.png", "K-35-078-1_Lesovo_x2240_y3584.png", "K-35-078-1_Lesovo_x2240_y448.png", "K-35-078-1_Lesovo_x2240_y896.png", "K-35-078-1_Lesovo_x2688_y0.png", "K-35-078-1_Lesovo_x2688_y1344.png", "K-35-078-1_Lesovo_x2688_y1792.png", "K-35-078-1_Lesovo_x2688_y2240.png", "K-35-078-1_Lesovo_x2688_y2688.png", "K-35-078-1_Lesovo_x2688_y3136.png", "K-35-078-1_Lesovo_x2688_y3584.png", "K-35-078-1_Lesovo_x2688_y448.png", "K-35-078-1_Lesovo_x2688_y896.png", "K-35-078-1_Lesovo_x3136_y0.png", "K-35-078-1_Lesovo_x3136_y1344.png", "K-35-078-1_Lesovo_x3136_y1792.png", "K-35-078-1_Lesovo_x3136_y2240.png", "K-35-078-1_Lesovo_x3136_y3136.png", "K-35-078-1_Lesovo_x3136_y3584.png", "K-35-078-1_Lesovo_x3136_y448.png", "K-35-078-1_Lesovo_x3136_y896.png", "K-35-078-1_Lesovo_x3584_y0.png", "K-35-078-1_Lesovo_x3584_y1344.png", "K-35-078-1_Lesovo_x3584_y1792.png", "K-35-078-1_Lesovo_x3584_y2240.png", "K-35-078-1_Lesovo_x3584_y2688.png", "K-35-078-1_Lesovo_x3584_y3584.png", "K-35-078-1_Lesovo_x3584_y448.png", "K-35-078-1_Lesovo_x3584_y896.png", "K-35-078-1_Lesovo_x4032_y0.png", "K-35-078-1_Lesovo_x4032_y1344.png", "K-35-078-1_Lesovo_x4032_y1792.png", "K-35-078-1_Lesovo_x4032_y2240.png", "K-35-078-1_Lesovo_x4032_y2688.png", "K-35-078-1_Lesovo_x4032_y3136.png", "K-35-078-1_Lesovo_x4032_y3584.png", "K-35-078-1_Lesovo_x4032_y448.png", "K-35-078-1_Lesovo_x4032_y896.png", "K-35-078-1_Lesovo_x448_y0.png", "K-35-078-1_Lesovo_x448_y1344.png", "K-35-078-1_Lesovo_x448_y1792.png", "K-35-078-1_Lesovo_x448_y2240.png", "K-35-078-1_Lesovo_x448_y2688.png", "K-35-078-1_Lesovo_x448_y3136.png", "K-35-078-1_Lesovo_x448_y3584.png", "K-35-078-1_Lesovo_x448_y448.png", "K-35-078-1_Lesovo_x448_y896.png", "K-35-078-1_Lesovo_x896_y0.png", "K-35-078-1_Lesovo_x896_y1344.png", "K-35-078-1_Lesovo_x896_y1792.png", "K-35-078-1_Lesovo_x896_y2240.png", "K-35-078-1_Lesovo_x896_y2688.png", "K-35-078-1_Lesovo_x896_y3584.png", "K-35-078-1_Lesovo_x896_y448.png", "K-35-078-1_Lesovo_x896_y896.png"], "features": [{"type": "Feature", "geometry": {"type": "Point", "coordinates": [399205.84277283336, 4693482.259631167]}, "properties": {"source_tile": "K-35-052-4_32635_x0_y2240.png", "label": "burial_mound", "subtype": "burial_mound", "votes": 3}}, {"type": "Feature", "geometry": {"type": "Point", "coordinates": [405987.23407875, 4695975.232723333]}, "properties": {"source_tile": "K-35-052-4_32635_x1344_y1792.png", "label": "burial_mound", "subtype": "burial_mound", "votes": 3}}, {"type": "Feature", "geometry": {"type": "Point", "coordinates": [411034.74571108335, 4699165.947556]}, "properties": {"source_tile": "K-35-052-4_32635_x2688_y896.png", "label": "triangulation_mound", "subtype": "triangulation_mound", "votes": 3}}, {"type": "Feature", "geometry": {"type": "Point", "coordinates": [412856.91194675, 4699087.708132501]}, "properties": {"source_tile": "K-35-052-4_32635_x3136_y1344.png", "label": "burial_mound", "subtype": "burial_mound", "votes": 1}}, {"type": "Feature", "geometry": {"type": "Point", "coordinates": [412737.628892, 4692725.94520825]}, "properties": {"source_tile": "K-35-052-4_32635_x2688_y2240.png", "label": "triangulation_mound", "subtype": "triangulation_mound", "votes": 1}}, {"type": "Feature", "geometry": {"type": "Point", "coordinates": [415023.7449303889, 4694662.406557278]}, "properties": {"source_tile": "K-35-052-4_32635_x3584_y1792.png", "label": "burial_mound", "subtype": "burial_mound", "votes": 3}}, {"type": "Feature", "geometry": {"type": "Point", "coordinates": [417178.357457625, 4689368.063083501]}, "properties": {"source_tile": "K-35-052-4_32635_x3584_y3136.png", "label": "benchmark_mound", "subtype": "benchmark_mound", "votes": 2}}, {"type": "Feature", "geometry": {"type": "Point", "coordinates": [400184.9044058334, 4699054.146413083]}, "properties": {"source_tile": "K-35-052-4_32635_x448_y1344.png", "label": "burial_mound", "subtype": "burial_mound", "votes": 3}}, {"type": "Feature", "geometry": {"type": "Point", "coordinates": [401623.5692071666, 4700313.031556333]}, "properties": {"source_tile": "K-35-052-4_32635_x896_y896.png", "label": "burial_mound", "subtype": "burial_mound", "votes": 3}}, {"type": "Feature", "geometry": {"type": "Point", "coordinates": [403584.25769999996, 4703647.3991]}, "properties": {"source_tile": "K-35-052-4_32635_x896_y0.png", "label": "burial_mound", "subtype": "burial_mound", "votes": 2}}, {"type": "Feature", "geometry": {"type": "Point", "coordinates": [401779.40674658335, 4699208.060032416]}, "properties": {"source_tile": "K-35-052-4_32635_x896_y896.png", "label": "burial_mound", "subtype": "burial_mound", "votes": 3}}, {"type": "Feature", "geometry": {"type": "Point", "coordinates": [418586.96205491666, 4696630.848513249]}, "properties": {"source_tile": "K-35-052-4_32635_x4032_y1792.png", "label": "burial_mound", "subtype": "burial_mound", "votes": 3}}, {"type": "Feature", "geometry": {"type": "Point", "coordinates": [417941.83439883334, 4694275.213400417]}, "properties": {"source_tile": "K-35-052-4_32635_x4032_y2240.png", "label": "burial_mound", "subtype": "burial_mound", "votes": 3}}, {"type": "Feature", "geometry": {"type": "Point", "coordinates": [425839.945466375, 4692118.588840375]}, "properties": {"source_tile": "K-35-053-3_Elenovo_x1344_y2240.png", "label": "burial_mound", "subtype": "burial_mound", "votes": 2}}, {"type": "Feature", "geometry": {"type": "Point", "coordinates": [426636.7358365, 4701806.4054415]}, "properties": {"source_tile": "K-35-053-3_Elenovo_x1792_y448.png", "label": "burial_mound", "subtype": "burial_mound", "votes": 3}}, {"type": "Feature", "geometry": {"type": "Point", "coordinates": [428436.80872975, 4703360.22682375]}, "properties": {"source_tile": "K-35-053-3_Elenovo_x1792_y0.png", "label": "triangulation_mound", "subtype": "triangulation_mound", "votes": 1}}, {"type": "Feature", "geometry": {"type": "Point", "coordinates": [427339.57869075, 4687739.6085225]}, "properties": {"source_tile": "K-35-053-3_Elenovo_x1792_y3584.png", "label": "burial_mound", "subtype": "burial_mound", "votes": 2}}, {"type": "Feature", "geometry": {"type": "Point", "coordinates": [431989.28603825, 4696536.580356668]}, "properties": {"source_tile": "K-35-053-3_Elenovo_x2688_y1792.png", "label": "triangulation_mound", "subtype": "triangulation_mound", "votes": 3}}, {"type": "Feature", "geometry": {"type": "Point", "coordinates": [433031.57975962496, 4694329.7221985]}, "properties": {"source_tile": "K-35-053-3_Elenovo_x2688_y2240.png", "label": "burial_mound", "subtype": "burial_mound", "votes": 2}}, {"type": "Feature", "geometry": {"type": "Point", "coordinates": [436043.45804833336, 4703454.70874025]}, "properties": {"source_tile": "K-35-053-3_Elenovo_x3584_y0.png", "label": "burial_mound", "subtype": "burial_mound", "votes": 3}}, {"type": "Feature", "geometry": {"type": "Point", "coordinates": [437383.5194385, 4689930.327801417]}, "properties": {"source_tile": "K-35-053-3_Elenovo_x3584_y2688.png", "label": "burial_mound", "subtype": "burial_mound", "votes": 3}}, {"type": "Feature", "geometry": {"type": "Point", "coordinates": [437873.63547383336, 4689881.982416278]}, "properties": {"source_tile": "K-35-053-3_Elenovo_x4032_y2688.png", "label": "burial_mound", "subtype": "burial_mound", "votes": 3}}, {"type": "Feature", "geometry": {"type": "Point", "coordinates": [422258.396799, 4703981.947760875]}, "properties": {"source_tile": "K-35-053-3_Elenovo_x896_y0.png", "label": "burial_mound", "subtype": "burial_mound", "votes": 2}}, {"type": "Feature", "geometry": {"type": "Point", "coordinates": [422142.36074986117, 4703221.995362333]}, "properties": {"source_tile": "K-35-053-3_Elenovo_x896_y448.png", "label": "burial_mound", "subtype": "burial_mound", "votes": 3}}, {"type": "Feature", "geometry": {"type": "Point", "coordinates": [422205.49120075, 4695850.8383019995]}, "properties": {"source_tile": "K-35-053-3_Elenovo_x896_y1792.png", "label": "burial_mound", "subtype": "burial_mound", "votes": 1}}, {"type": "Feature", "geometry": {"type": "Point", "coordinates": [420828.4493319167, 4689870.9025235]}, "properties": {"source_tile": "K-35-053-3_Elenovo_x448_y2688.png", "label": "burial_mound", "subtype": "burial_mound", "votes": 3}}, {"type": "Feature", "geometry": {"type": "Point", "coordinates": [423878.59065887495, 4694326.515798625]}, "properties": {"source_tile": "K-35-053-3_Elenovo_x896_y2240.png", "label": "burial_mound", "subtype": "burial_mound", "votes": 2}}, {"type": "Feature", "geometry": {"type": "Point", "coordinates": [315251.5518776667, 4682386.48016725]}, "properties": {"source_tile": "K-35-062-2_Rakovski_x0_y896.png", "label": "triangulation_mound", "subtype": "triangulation_mound", "votes": 3}}, {"type": "Feature", "geometry": {"type": "Point", "coordinates": [316474.9174015, 4680679.807101667]}, "properties": {"source_tile": "K-35-062-2_Rakovski_x448_y1344.png", "label": "burial_mound", "subtype": "burial_mound", "votes": 3}}, {"type": "Feature", "geometry": {"type": "Point", "coordinates": [323038.86338450003, 4688225.786043084]}, "properties": {"source_tile": "K-35-062-2_Rakovski_x1344_y0.png", "label": "burial_mound", "subtype": "burial_mound", "votes": 3}}, {"type": "Feature", "geometry": {"type": "Point", "coordinates": [321460.45846991666, 4686699.844729667]}, "properties": {"source_tile": "K-35-062-2_Rakovski_x1344_y448.png", "label": "burial_mound", "subtype": "burial_mound", "votes": 3}}, {"type": "Feature", "geometry": {"type": "Point", "coordinates": [322134.88341600006, 4686752.736605376]}, "properties": {"source_tile": "K-35-062-2_Rakovski_x1344_y448.png", "label": "burial_mound", "subtype": "burial_mound", "votes": 2}}, {"type": "Feature", "geometry": {"type": "Point", "coordinates": [322072.8907118333, 4682213.457352]}, "properties": {"source_tile": "K-35-062-2_Rakovski_x1344_y1344.png", "label": "burial_mound", "subtype": "burial_mound", "votes": 3}}, {"type": "Feature", "geometry": {"type": "Point", "coordinates": [323297.96933291666, 4686565.794875417]}, "properties": {"source_tile": "K-35-062-2_Rakovski_x1792_y448.png", "label": "burial_mound", "subtype": "burial_mound", "votes": 3}}, {"type": "Feature", "geometry": {"type": "Point", "coordinates": [323179.5514904167, 4685690.402216334]}, "properties": {"source_tile": "K-35-062-2_Rakovski_x1792_y448.png", "label": "burial_mound", "subtype": "burial_mound", "votes": 3}}, {"type": "Feature", "geometry": {"type": "Point", "coordinates": [323245.2915946666, 4685331.080082834]}, "properties": {"source_tile": "K-35-062-2_Rakovski_x1792_y448.png", "label": "burial_mound", "subtype": "burial_mound", "votes": 3}}, {"type": "Feature", "geometry": {"type": "Point", "coordinates": [325380.98843550007, 4687365.5971215]}, "properties": {"source_tile": "K-35-062-2_Rakovski_x1792_y0.png", "label": "burial_mound", "subtype": "burial_mound", "votes": 2}}, {"type": "Feature", "geometry": {"type": "Point", "coordinates": [327590.56259216665, 4676139.243025499]}, "properties": {"source_tile": "K-35-062-2_Rakovski_x2240_y2240.png", "label": "benchmark_mound", "subtype": "benchmark_mound", "votes": 3}}, {"type": "Feature", "geometry": {"type": "Point", "coordinates": [329999.60550199996, 4684776.036596499]}, "properties": {"source_tile": "K-35-062-2_Rakovski_x3136_y448.png", "label": "burial_mound", "subtype": "burial_mound", "votes": 2}}, {"type": "Feature", "geometry": {"type": "Point", "coordinates": [332164.31792616664, 4680799.7239040835]}, "properties": {"source_tile": "K-35-062-2_Rakovski_x3584_y1344.png", "label": "burial_mound", "subtype": "burial_mound", "votes": 3}}, {"type": "Feature", "geometry": {"type": "Point", "coordinates": [333675.48377625, 4682273.84402775]}, "properties": {"source_tile": "K-35-062-2_Rakovski_x3584_y1344.png", "label": "burial_mound", "subtype": "burial_mound", "votes": 3}}, {"type": "Feature", "geometry": {"type": "Point", "coordinates": [334487.06356525, 4675431.948027167]}, "properties": {"source_tile": "K-35-062-2_Rakovski_x4032_y2688.png", "label": "burial_mound", "subtype": "burial_mound", "votes": 3}}, {"type": "Feature", "geometry": {"type": "Point", "coordinates": [318202.14763333334, 4682387.33671575]}, "properties": {"source_tile": "K-35-062-2_Rakovski_x448_y896.png", "label": "triangulation_mound", "subtype": "triangulation_mound", "votes": 3}}, {"type": "Feature", "geometry": {"type": "Point", "coordinates": [317786.72156700003, 4679912.6607705]}, "properties": {"source_tile": "K-35-062-2_Rakovski_x448_y1792.png", "label": "burial_mound", "subtype": "burial_mound", "votes": 2}}, {"type": "Feature", "geometry": {"type": "Point", "coordinates": [317866.38058608334, 4684494.232110333]}, "properties": {"source_tile": "K-35-062-2_Rakovski_x448_y896.png", "label": "burial_mound", "subtype": "burial_mound", "votes": 3}}, {"type": "Feature", "geometry": {"type": "Point", "coordinates": [319180.11198600003, 4686814.622240833]}, "properties": {"source_tile": "K-35-062-2_Rakovski_x896_y0.png", "label": "burial_mound", "subtype": "burial_mound", "votes": 3}}, {"type": "Feature", "geometry": {"type": "Point", "coordinates": [320570.61155350006, 4682355.4302808745]}, "properties": {"source_tile": "K-35-062-2_Rakovski_x896_y896.png", "label": "burial_mound", "subtype": "burial_mound", "votes": 2}}, {"type": "Feature", "geometry": {"type": "Point", "coordinates": [320696.84540183336, 4682222.022837915]}, "properties": {"source_tile": "K-35-062-2_Rakovski_x896_y1344.png", "label": "burial_mound", "subtype": "burial_mound", "votes": 3}}, {"type": "Feature", "geometry": {"type": "Point", "coordinates": [320435.8122190833, 4679940.17739375]}, "properties": {"source_tile": "K-35-062-2_Rakovski_x896_y1792.png", "label": "burial_mound", "subtype": "burial_mound", "votes": 3}}, {"type": "Feature", "geometry": {"type": "Point", "coordinates": [459283.529014625, 4647559.02655425]}, "properties": {"source_tile": "K-35-078-1_Lesovo_x0_y0.png", "label": "triangulation_mound", "subtype": "triangulation_mound", "votes": 2}}, {"type": "Feature", "geometry": {"type": "Point", "coordinates": [474271.03680658335, 4631802.012117]}, "properties": {"source_tile": "K-35-078-1_Lesovo_x2688_y3584.png", "label": "burial_mound", "subtype": "burial_mound", "votes": 3}}, {"type": "Feature", "geometry": {"type": "Point", "coordinates": [475037.75266212504, 4642971.289976999]}, "properties": {"source_tile": "K-35-078-1_Lesovo_x3136_y896.png", "label": "triangulation_mound", "subtype": "triangulation_mound", "votes": 2}}, {"type": "Feature", "geometry": {"type": "Point", "coordinates": [479091.5896643333, 4645210.898869582]}, "properties": {"source_tile": "K-35-078-1_Lesovo_x4032_y448.png", "label": "burial_mound", "subtype": "burial_mound", "votes": 3}}, {"type": "Feature", "geometry": {"type": "Point", "coordinates": [463329.63767574995, 4638483.37780725]}, "properties": {"source_tile": "K-35-078-1_Lesovo_x896_y1792.png", "label": "burial_mound", "subtype": "burial_mound", "votes": 1}}, {"type": "Feature", "geometry": {"type": "Point", "coordinates": [399258.32304187503, 4694117.580848]}, "properties": {"source_tile": "K-35-052-4_32635_x0_y2240.png", "label": "burial_mound", "subtype": "burial_mound", "votes": 2}}, {"type": "Feature", "geometry": {"type": "Point", "coordinates": [419833.39656875003, 4692487.9661065005]}, "properties": {"source_tile": "K-35-053-3_Elenovo_x0_y2240.png", "label": "burial_mound", "subtype": "burial_mound", "votes": 2}}, {"type": "Feature", "geometry": {"type": "Point", "coordinates": [424349.61080150004, 4696545.66515625]}, "properties": {"source_tile": "K-35-053-3_Elenovo_x896_y1792.png", "label": "burial_mound", "subtype": "burial_mound", "votes": 2}}, {"type": "Feature", "geometry": {"type": "Point", "coordinates": [431214.51294712495, 4691743.119414125]}, "properties": {"source_tile": "K-35-053-3_Elenovo_x2688_y2688.png", "label": "triangulation_mound", "subtype": "triangulation_mound", "votes": 2}}, {"type": "Feature", "geometry": {"type": "Point", "coordinates": [430992.95071537496, 4690652.302174499]}, "properties": {"source_tile": "K-35-053-3_Elenovo_x2240_y2688.png", "label": "burial_mound", "subtype": "burial_mound", "votes": 2}}, {"type": "Feature", "geometry": {"type": "Point", "coordinates": [433055.94839875004, 4696653.72083225]}, "properties": {"source_tile": "K-35-053-3_Elenovo_x2688_y1344.png", "label": "burial_mound", "subtype": "burial_mound", "votes": 2}}, {"type": "Feature", "geometry": {"type": "Point", "coordinates": [435587.40110537503, 4703492.651139]}, "properties": {"source_tile": "K-35-053-3_Elenovo_x3136_y0.png", "label": "burial_mound", "subtype": "burial_mound", "votes": 2}}, {"type": "Feature", "geometry": {"type": "Point", "coordinates": [316375.34362775006, 4681785.932537001]}, "properties": {"source_tile": "K-35-062-2_Rakovski_x0_y1344.png", "label": "burial_mound", "subtype": "burial_mound", "votes": 2}}, {"type": "Feature", "geometry": {"type": "Point", "coordinates": [322083.16929525, 4686700.0588667495]}, "properties": {"source_tile": "K-35-062-2_Rakovski_x1344_y448.png", "label": "burial_mound", "subtype": "burial_mound", "votes": 1}}, {"type": "Feature", "geometry": {"type": "Point", "coordinates": [329828.724058, 4688514.228780501]}, "properties": {"source_tile": "K-35-062-2_Rakovski_x2688_y0.png", "label": "burial_mound", "subtype": "burial_mound", "votes": 1}}, {"type": "Feature", "geometry": {"type": "Point", "coordinates": [320035.8040275, 4686885.07336225]}, "properties": {"source_tile": "K-35-062-2_Rakovski_x896_y0.png", "label": "burial_mound", "subtype": "burial_mound", "votes": 1}}, {"type": "Feature", "geometry": {"type": "Point", "coordinates": [478688.105848, 4640278.607078]}, "properties": {"source_tile": "K-35-078-1_Lesovo_x4032_y1792.png", "label": "burial_mound", "subtype": "burial_mound", "votes": 2}}, {"type": "Feature", "geometry": {"type": "Point", "coordinates": [463075.89047124994, 4644123.134838]}, "properties": {"source_tile": "K-35-078-1_Lesovo_x896_y896.png", "label": "burial_mound", "subtype": "burial_mound", "votes": 1}}, {"type": "Feature", "geometry": {"type": "Point", "coordinates": [463303.87653825, 4638491.750177249]}, "properties": {"source_tile": "K-35-078-1_Lesovo_x896_y1792.png", "label": "burial_mound", "subtype": "burial_mound", "votes": 1}}, {"type": "Feature", "geometry": {"type": "Point", "coordinates": [419871.23208725, 4703538.50265725]}, "properties": {"source_tile": "K-35-053-3_Elenovo_x0_y0.png", "label": "burial_mound", "subtype": "burial_mound", "votes": 1}}, {"type": "Feature", "geometry": {"type": "Point", "coordinates": [419864.1780075001, 4699097.638821751]}, "properties": {"source_tile": "K-35-053-3_Elenovo_x0_y896.png", "label": "burial_mound", "subtype": "burial_mound", "votes": 1}}, {"type": "Feature", "geometry": {"type": "Point", "coordinates": [437869.39590049995, 4693420.387192]}, "properties": {"source_tile": "K-35-053-3_Elenovo_x4032_y2240.png", "label": "burial_mound", "subtype": "burial_mound", "votes": 1}}, {"type": "Feature", "geometry": {"type": "Point", "coordinates": [316300.18148875004, 4676947.61075725]}, "properties": {"source_tile": "K-35-062-2_Rakovski_x0_y2240.png", "label": "burial_mound", "subtype": "burial_mound", "votes": 1}}, {"type": "Feature", "geometry": {"type": "Point", "coordinates": [475236.43543525, 4632681.96963925]}, "properties": {"source_tile": "K-35-078-1_Lesovo_x3136_y3136.png", "label": "burial_mound", "subtype": "burial_mound", "votes": 1}}]}