{"type": "FeatureCollection", "features": [{"type": "Feature", "geometry": {"type": "Polygon", "coordinates": [[[316580.915289, 4686624.896728], [316580.915289, 4689194.542498], [314011.269519, 4689194.542498], [314011.269519, 4686624.896728], [316580.915289, 4686624.896728]]]}, "properties": {"tile_name": "K-35-062-2_Rakovski_x0_y0.png", "type": "processed_tile_bbox"}}, {"type": "Feature", "geometry": {"type": "Polygon", "coordinates": [[[316580.915289, 4679879.576581], [316580.915289, 4682449.222351], [314011.269519, 4682449.222351], [314011.269519, 4679879.576581], [316580.915289, 4679879.576581]]]}, "properties": {"tile_name": "K-35-062-2_Rakovski_x0_y1344.png", "type": "processed_tile_bbox"}}, {"type": "Feature", "geometry": {"type": "Polygon", "coordinates": [[[316580.915289, 4677631.136532], [316580.915289, 4680200.782302], [314011.269519, 4680200.782302], [314011.269519, 4677631.136532], [316580.915289, 4677631.136532]]]}, "properties": {"tile_name": "K-35-062-2_Rakovski_x0_y1792.png", "type": "processed_tile_bbox"}}, {"type": "Feature", "geometry": {"type": "Polygon", "coordinates": [[[316580.915289, 4675382.696483], [316580.915289, 4677952.342253], [314011.269519, 4677952.342253], [314011.269519, 4675382.696483], [316580.915289, 4675382.696483]]]}, "properties": {"tile_name": "K-35-062-2_Rakovski_x0_y2240.png", "type": "processed_tile_bbox"}}, {"type": "Feature", "geometry": {"type": "Polygon", "coordinates": [[[316580.915289, 4673134.256434], [316580.915289, 4675703.902204], [314011.269519, 4675703.902204], [314011.269519, 4673134.256434], [316580.915289, 4673134.256434]]]}, "properties": {"tile_name": "K-35-062-2_Rakovski_x0_y2688.png", "type": "processed_tile_bbox"}}, {"type": "Feature", "geometry": {"type": "Polygon", "coordinates": [[[316580.915289, 4670885.816385], [316580.915289, 4673455.462156], [314011.269519, 4673455.462156], [314011.269519, 4670885.816385], [316580.915289, 4670885.816385]]]}, "properties": {"tile_name": "K-35-062-2_Rakovski_x0_y3136.png", "type": "processed_tile_bbox"}}, {"type": "Feature", "geometry": {"type": "Polygon", "coordinates": [[[316580.915289, 4668637.376336], [316580.915289, 4671207.022107], [314011.269519, 4671207.022107], [314011.269519, 4668637.376336], [316580.915289, 4668637.376336]]]}, "properties": {"tile_name": "K-35-062-2_Rakovski_x0_y3584.png", "type": "processed_tile_bbox"}}, {"type": "Feature", "geometry": {"type": "Polygon", "coordinates": [[[316580.915289, 4684376.456679], [316580.915289, 4686946.102449], [314011.269519, 4686946.102449], [314011.269519, 4684376.456679], [316580.915289, 4684376.456679]]]}, "properties": {"tile_name": "K-35-062-2_Rakovski_x0_y448.png", "type": "processed_tile_bbox"}}, {"type": "Feature", "geometry": {"type": "Polygon", "coordinates": [[[316580.915289, 4682128.01663], [316580.915289, 4684697.6624], [314011.269519, 4684697.6624], [314011.269519, 4682128.01663], [316580.915289, 4682128.01663]]]}, "properties": {"tile_name": "K-35-062-2_Rakovski_x0_y896.png", "type": "processed_tile_bbox"}}, {"type": "Feature", "geometry": {"type": "Polygon", "coordinates": [[[323326.235436, 4686624.896728], [323326.235436, 4689194.542498], [320756.589666, 4689194.542498], [320756.589666, 4686624.896728], [323326.235436, 4686624.896728]]]}, "properties": {"tile_name": "K-35-062-2_Rakovski_x1344_y0.png", "type": "processed_tile_bbox"}}, {"type": "Feature", "geometry": {"type": "Polygon", "coordinates": [[[323326.235436, 4679879.576581], [323326.235436, 4682449.222351], [320756.589666, 4682449.222351], [320756.589666, 4679879.576581], [323326.235436, 4679879.576581]]]}, "properties": {"tile_name": "K-35-062-2_Rakovski_x1344_y1344.png", "type": "processed_tile_bbox"}}, {"type": "Feature", "geometry": {"type": "Polygon", "coordinates": [[[323326.235436, 4677631.136532], [323326.235436, 4680200.782302], [320756.589666, 4680200.782302], [320756.589666, 4677631.136532], [323326.235436, 4677631.136532]]]}, "properties": {"tile_name": "K-35-062-2_Rakovski_x1344_y1792.png", "type": "processed_tile_bbox"}}, {"type": "Feature", "geometry": {"type": "Polygon", "coordinates": [[[323326.235436, 4675382.696483], [323326.235436, 4677952.342253], [320756.589666, 4677952.342253], [320756.589666, 4675382.696483], [323326.235436, 4675382.696483]]]}, "properties": {"tile_name": "K-35-062-2_Rakovski_x1344_y2240.png", "type": "processed_tile_bbox"}}, {"type": "Feature", "geometry": {"type": "Polygon", "coordinates": [[[323326.235436, 4673134.256434], [323326.235436, 4675703.902204], [320756.589666, 4675703.902204], [320756.589666, 4673134.256434], [323326.235436, 4673134.256434]]]}, "properties": {"tile_name": "K-35-062-2_Rakovski_x1344_y2688.png", "type": "processed_tile_bbox"}}, {"type": "Feature", "geometry": {"type": "Polygon", "coordinates": [[[323326.235436, 4670885.816385], [323326.235436, 4673455.462156], [320756.589666, 4673455.462156], [320756.589666, 4670885.816385], [323326.235436, 4670885.816385]]]}, "properties": {"tile_name": "K-35-062-2_Rakovski_x1344_y3136.png", "type": "processed_tile_bbox"}}, {"type": "Feature", "geometry": {"type": "Polygon", "coordinates": [[[323326.235436, 4668637.376336], [323326.235436, 4671207.022107], [320756.589666, 4671207.022107], [320756.589666, 4668637.376336], [323326.235436, 4668637.376336]]]}, "properties": {"tile_name": "K-35-062-2_Rakovski_x1344_y3584.png", "type": "processed_tile_bbox"}}, {"type": "Feature", "geometry": {"type": "Polygon", "coordinates": [[[323326.235436, 4684376.456679], [323326.235436, 4686946.102449], [320756.589666, 4686946.102449], [320756.589666, 4684376.456679], [323326.235436, 4684376.456679]]]}, "properties": {"tile_name": "K-35-062-2_Rakovski_x1344_y448.png", "type": "processed_tile_bbox"}}, {"type": "Feature", "geometry": {"type": "Polygon", "coordinates": [[[323326.235436, 4682128.01663], [323326.235436, 4684697.6624], [320756.589666, 4684697.6624], [320756.589666, 4682128.01663], [323326.235436, 4682128.01663]]]}, "properties": {"tile_name": "K-35-062-2_Rakovski_x1344_y896.png", "type": "processed_tile_bbox"}}, {"type": "Feature", "geometry": {"type": "Polygon", "coordinates": [[[325574.675485, 4686624.896728], [325574.675485, 4689194.542498], [323005.029715, 4689194.542498], [323005.029715, 4686624.896728], [325574.675485, 4686624.896728]]]}, "properties": {"tile_name": "K-35-062-2_Rakovski_x1792_y0.png", "type": "processed_tile_bbox"}}, {"type": "Feature", "geometry": {"type": "Polygon", "coordinates": [[[325574.675485, 4677631.136532], [325574.675485, 4680200.782302], [323005.029715, 4680200.782302], [323005.029715, 4677631.136532], [325574.675485, 4677631.136532]]]}, "properties": {"tile_name": "K-35-062-2_Rakovski_x1792_y1792.png", "type": "processed_tile_bbox"}}, {"type": "Feature", "geometry": {"type": "Polygon", "coordinates": [[[325574.675485, 4675382.696483], [325574.675485, 4677952.342253], [323005.029715, 4677952.342253], [323005.029715, 4675382.696483], [325574.675485, 4675382.696483]]]}, "properties": {"tile_name": "K-35-062-2_Rakovski_x1792_y2240.png", "type": "processed_tile_bbox"}}, {"type": "Feature", "geometry": {"type": "Polygon", "coordinates": [[[325574.675485, 4684376.456679], [325574.675485, 4686946.102449], [323005.029715, 4686946.102449], [323005.029715, 4684376.456679], [325574.675485, 4684376.456679]]]}, "properties": {"tile_name": "K-35-062-2_Rakovski_x1792_y448.png", "type": "processed_tile_bbox"}}, {"type": "Feature", "geometry": {"type": "Polygon", "coordinates": [[[325574.675485, 4682128.01663], [325574.675485, 4684697.6624], [323005.029715, 4684697.6624], [323005.029715, 4682128.01663], [325574.675485, 4682128.01663]]]}, "properties": {"tile_name": "K-35-062-2_Rakovski_x1792_y896.png", "type": "processed_tile_bbox"}}, {"type": "Feature", "geometry": {"type": "Polygon", "coordinates": [[[327823.115534, 4686624.896728], [327823.115534, 4689194.542498], [325253.469764, 4689194.542498], [325253.469764, 4686624.896728], [327823.115534, 4686624.896728]]]}, "properties": {"tile_name": "K-35-062-2_Rakovski_x2240_y0.png", "type": "processed_tile_bbox"}}, {"type": "Feature", "geometry": {"type": "Polygon", "coordinates": [[[327823.115534, 4679879.576581], [327823.115534, 4682449.222351], [325253.469764, 4682449.222351], [325253.469764, 4679879.576581], [327823.115534, 4679879.576581]]]}, "properties": {"tile_name": "K-35-062-2_Rakovski_x2240_y1344.png", "type": "processed_tile_bbox"}}, {"type": "Feature", "geometry": {"type": "Polygon", "coordinates": [[[327823.115534, 4677631.136532], [327823.115534, 4680200.782302], [325253.469764, 4680200.782302], [325253.469764, 4677631.136532], [327823.115534, 4677631.136532]]]}, "properties": {"tile_name": "K-35-062-2_Rakovski_x2240_y1792.png", "type": "processed_tile_bbox"}}, {"type": "Feature", "geometry": {"type": "Polygon", "coordinates": [[[327823.115534, 4675382.696483], [327823.115534, 4677952.342253], [325253.469764, 4677952.342253], [325253.469764, 4675382.696483], [327823.115534, 4675382.696483]]]}, "properties": {"tile_name": "K-35-062-2_Rakovski_x2240_y2240.png", "type": "processed_tile_bbox"}}, {"type": "Feature", "geometry": {"type": "Polygon", "coordinates": [[[327823.115534, 4673134.256434], [327823.115534, 4675703.902204], [325253.469764, 4675703.902204], [325253.469764, 4673134.256434], [327823.115534, 4673134.256434]]]}, "properties": {"tile_name": "K-35-062-2_Rakovski_x2240_y2688.png", "type": "processed_tile_bbox"}}, {"type": "Feature", "geometry": {"type": "Polygon", "coordinates": [[[327823.115534, 4670885.816385], [327823.115534, 4673455.462156], [325253.469764, 4673455.462156], [325253.469764, 4670885.816385], [327823.115534, 4670885.816385]]]}, "properties": {"tile_name": "K-35-062-2_Rakovski_x2240_y3136.png", "type": "processed_tile_bbox"}}, {"type": "Feature", "geometry": {"type": "Polygon", "coordinates": [[[327823.115534, 4668637.376336], [327823.115534, 4671207.022107], [325253.469764, 4671207.022107], [325253.469764, 4668637.376336], [327823.115534, 4668637.376336]]]}, "properties": {"tile_name": "K-35-062-2_Rakovski_x2240_y3584.png", "type": "processed_tile_bbox"}}, {"type": "Feature", "geometry": {"type": "Polygon", "coordinates": [[[327823.115534, 4684376.456679], [327823.115534, 4686946.102449], [325253.469764, 4686946.102449], [325253.469764, 4684376.456679], [327823.115534, 4684376.456679]]]}, "properties": {"tile_name": "K-35-062-2_Rakovski_x2240_y448.png", "type": "processed_tile_bbox"}}, {"type": "Feature", "geometry": {"type": "Polygon", "coordinates": [[[330071.555583, 4686624.896728], [330071.555583, 4689194.542498], [327501.909813, 4689194.542498], [327501.909813, 4686624.896728], [330071.555583, 4686624.896728]]]}, "properties": {"tile_name": "K-35-062-2_Rakovski_x2688_y0.png", "type": "processed_tile_bbox"}}, {"type": "Feature", "geometry": {"type": "Polygon", "coordinates": [[[330071.555583, 4679879.576581], [330071.555583, 4682449.222351], [327501.909813, 4682449.222351], [327501.909813, 4679879.576581], [330071.555583, 4679879.576581]]]}, "properties": {"tile_name": "K-35-062-2_Rakovski_x2688_y1344.png", "type": "processed_tile_bbox"}}, {"type": "Feature", "geometry": {"type": "Polygon", "coordinates": [[[330071.555583, 4677631.136532], [330071.555583, 4680200.782302], [327501.909813, 4680200.782302], [327501.909813, 4677631.136532], [330071.555583, 4677631.136532]]]}, "properties": {"tile_name": "K-35-062-2_Rakovski_x2688_y1792.png", "type": "processed_tile_bbox"}}, {"type": "Feature", "geometry": {"type": "Polygon", "coordinates": [[[330071.555583, 4675382.696483], [330071.555583, 4677952.342253], [327501.909813, 4677952.342253], [327501.909813, 4675382.696483], [330071.555583, 4675382.696483]]]}, "properties": {"tile_name": "K-35-062-2_Rakovski_x2688_y2240.png", "type": "processed_tile_bbox"}}, {"type": "Feature", "geometry": {"type": "Polygon", "coordinates": [[[330071.555583, 4673134.256434], [330071.555583, 4675703.902204], [327501.909813, 4675703.902204], [327501.909813, 4673134.256434], [330071.555583, 4673134.256434]]]}, "properties": {"tile_name": "K-35-062-2_Rakovski_x2688_y2688.png", "type": "processed_tile_bbox"}}, {"type": "Feature", "geometry": {"type": "Polygon", "coordinates": [[[330071.555583, 4670885.816385], [330071.555583, 4673455.462156], [327501.909813, 4673455.462156], [327501.909813, 4670885.816385], [330071.555583, 4670885.816385]]]}, "properties": {"tile_name": "K-35-062-2_Rakovski_x2688_y3136.png", "type": "processed_tile_bbox"}}, {"type": "Feature", "geometry": {"type": "Polygon", "coordinates": [[[330071.555583, 4684376.456679], [330071.555583, 4686946.102449], [327501.909813, 4686946.102449], [327501.909813, 4684376.456679], [330071.555583, 4684376.456679]]]}, "properties": {"tile_name": "K-35-062-2_Rakovski_x2688_y448.png", "type": "processed_tile_bbox"}}, {"type": "Feature", "geometry": {"type": "Polygon", "coordinates": [[[330071.555583, 4682128.01663], [330071.555583, 4684697.6624], [327501.909813, 4684697.6624], [327501.909813, 4682128.01663], [330071.555583, 4682128.01663]]]}, "properties": {"tile_name": "K-35-062-2_Rakovski_x2688_y896.png", "type": "processed_tile_bbox"}}, {"type": "Feature", "geometry": {"type": "Polygon", "coordinates": [[[332319.995632, 4686624.896728], [332319.995632, 4689194.542498], [329750.349862, 4689194.542498], [329750.349862, 4686624.896728], [332319.995632, 4686624.896728]]]}, "properties": {"tile_name": "K-35-062-2_Rakovski_x3136_y0.png", "type": "processed_tile_bbox"}}, {"type": "Feature", "geometry": {"type": "Polygon", "coordinates": [[[332319.995632, 4679879.576581], [332319.995632, 4682449.222351], [329750.349862, 4682449.222351], [329750.349862, 4679879.576581], [332319.995632, 4679879.576581]]]}, "properties": {"tile_name": "K-35-062-2_Rakovski_x3136_y1344.png", "type": "processed_tile_bbox"}}, {"type": "Feature", "geometry": {"type": "Polygon", "coordinates": [[[332319.995632, 4677631.136532], [332319.995632, 4680200.782302], [329750.349862, 4680200.782302], [329750.349862, 4677631.136532], [332319.995632, 4677631.136532]]]}, "properties": {"tile_name": "K-35-062-2_Rakovski_x3136_y1792.png", "type": "processed_tile_bbox"}}, {"type": "Feature", "geometry": {"type": "Polygon", "coordinates": [[[332319.995632, 4670885.816385], [332319.995632, 4673455.462156], [329750.349862, 4673455.462156], [329750.349862, 4670885.816385], [332319.995632, 4670885.816385]]]}, "properties": {"tile_name": "K-35-062-2_Rakovski_x3136_y3136.png", "type": "processed_tile_bbox"}}, {"type": "Feature", "geometry": {"type": "Polygon", "coordinates": [[[332319.995632, 4668637.376336], [332319.995632, 4671207.022107], [329750.349862, 4671207.022107], [329750.349862, 4668637.376336], [332319.995632, 4668637.376336]]]}, "properties": {"tile_name": "K-35-062-2_Rakovski_x3136_y3584.png", "type": "processed_tile_bbox"}}, {"type": "Feature", "geometry": {"type": "Polygon", "coordinates": [[[332319.995632, 4684376.456679], [332319.995632, 4686946.102449], [329750.349862, 4686946.102449], [329750.349862, 4684376.456679], [332319.995632, 4684376.456679]]]}, "properties": {"tile_name": "K-35-062-2_Rakovski_x3136_y448.png", "type": "processed_tile_bbox"}}, {"type": "Feature", "geometry": {"type": "Polygon", "coordinates": [[[332319.995632, 4682128.01663], [332319.995632, 4684697.6624], [329750.349862, 4684697.6624], [329750.349862, 4682128.01663], [332319.995632, 4682128.01663]]]}, "properties": {"tile_name": "K-35-062-2_Rakovski_x3136_y896.png", "type": "processed_tile_bbox"}}, {"type": "Feature", "geometry": {"type": "Polygon", "coordinates": [[[334568.435681, 4686624.896728], [334568.435681, 4689194.542498], [331998.789911, 4689194.542498], [331998.789911, 4686624.896728], [334568.435681, 4686624.896728]]]}, "properties": {"tile_name": "K-35-062-2_Rakovski_x3584_y0.png", "type": "processed_tile_bbox"}}, {"type": "Feature", "geometry": {"type": "Polygon", "coordinates": [[[334568.435681, 4679879.576581], [334568.435681, 4682449.222351], [331998.789911, 4682449.222351], [331998.789911, 4679879.576581], [334568.435681, 4679879.576581]]]}, "properties": {"tile_name": "K-35-062-2_Rakovski_x3584_y1344.png", "type": "processed_tile_bbox"}}, {"type": "Feature", "geometry": {"type": "Polygon", "coordinates": [[[334568.435681, 4677631.136532], [334568.435681, 4680200.782302], [331998.789911, 4680200.782302], [331998.789911, 4677631.136532], [334568.435681, 4677631.136532]]]}, "properties": {"tile_name": "K-35-062-2_Rakovski_x3584_y1792.png", "type": "processed_tile_bbox"}}, {"type": "Feature", "geometry": {"type": "Polygon", "coordinates": [[[334568.435681, 4675382.696483], [334568.435681, 4677952.342253], [331998.789911, 4677952.342253], [331998.789911, 4675382.696483], [334568.435681, 4675382.696483]]]}, "properties": {"tile_name": "K-35-062-2_Rakovski_x3584_y2240.png", "type": "processed_tile_bbox"}}, {"type": "Feature", "geometry": {"type": "Polygon", "coordinates": [[[334568.435681, 4673134.256434], [334568.435681, 4675703.902204], [331998.789911, 4675703.902204], [331998.789911, 4673134.256434], [334568.435681, 4673134.256434]]]}, "properties": {"tile_name": "K-35-062-2_Rakovski_x3584_y2688.png", "type": "processed_tile_bbox"}}, {"type": "Feature", "geometry": {"type": "Polygon", "coordinates": [[[334568.435681, 4670885.816385], [334568.435681, 4673455.462156], [331998.789911, 4673455.462156], [331998.789911, 4670885.816385], [334568.435681, 4670885.816385]]]}, "properties": {"tile_name": "K-35-062-2_Rakovski_x3584_y3136.png", "type": "processed_tile_bbox"}}, {"type": "Feature", "geometry": {"type": "Polygon", "coordinates": [[[334568.435681, 4668637.376336], [334568.435681, 4671207.022107], [331998.789911, 4671207.022107], [331998.789911, 4668637.376336], [334568.435681, 4668637.376336]]]}, "properties": {"tile_name": "K-35-062-2_Rakovski_x3584_y3584.png", "type": "processed_tile_bbox"}}, {"type": "Feature", "geometry": {"type": "Polygon", "coordinates": [[[334568.435681, 4684376.456679], [334568.435681, 4686946.102449], [331998.789911, 4686946.102449], [331998.789911, 4684376.456679], [334568.435681, 4684376.456679]]]}, "properties": {"tile_name": "K-35-062-2_Rakovski_x3584_y448.png", "type": "processed_tile_bbox"}}, {"type": "Feature", "geometry": {"type": "Polygon", "coordinates": [[[334568.435681, 4682128.01663], [334568.435681, 4684697.6624], [331998.789911, 4684697.6624], [331998.789911, 4682128.01663], [334568.435681, 4682128.01663]]]}, "properties": {"tile_name": "K-35-062-2_Rakovski_x3584_y896.png", "type": "processed_tile_bbox"}}, {"type": "Feature", "geometry": {"type": "Polygon", "coordinates": [[[336816.87573, 4679879.576581], [336816.87573, 4682449.222351], [334247.22996, 4682449.222351], [334247.22996, 4679879.576581], [336816.87573, 4679879.576581]]]}, "properties": {"tile_name": "K-35-062-2_Rakovski_x4032_y1344.png", "type": "processed_tile_bbox"}}, {"type": "Feature", "geometry": {"type": "Polygon", "coordinates": [[[336816.87573, 4673134.256434], [336816.87573, 4675703.902204], [334247.22996, 4675703.902204], [334247.22996, 4673134.256434], [336816.87573, 4673134.256434]]]}, "properties": {"tile_name": "K-35-062-2_Rakovski_x4032_y2688.png", "type": "processed_tile_bbox"}}, {"type": "Feature", "geometry": {"type": "Polygon", "coordinates": [[[336816.87573, 4670885.816385], [336816.87573, 4673455.462156], [334247.22996, 4673455.462156], [334247.22996, 4670885.816385], [336816.87573, 4670885.816385]]]}, "properties": {"tile_name": "K-35-062-2_Rakovski_x4032_y3136.png", "type": "processed_tile_bbox"}}, {"type": "Feature", "geometry": {"type": "Polygon", "coordinates": [[[336816.87573, 4668637.376336], [336816.87573, 4671207.022107], [334247.22996, 4671207.022107], [334247.22996, 4668637.376336], [336816.87573, 4668637.376336]]]}, "properties": {"tile_name": "K-35-062-2_Rakovski_x4032_y3584.png", "type": "processed_tile_bbox"}}, {"type": "Feature", "geometry": {"type": "Polygon", "coordinates": [[[336816.87573, 4684376.456679], [336816.87573, 4686946.102449], [334247.22996, 4686946.102449], [334247.22996, 4684376.456679], [336816.87573, 4684376.456679]]]}, "properties": {"tile_name": "K-35-062-2_Rakovski_x4032_y448.png", "type": "processed_tile_bbox"}}, {"type": "Feature", "geometry": {"type": "Polygon", "coordinates": [[[336816.87573, 4682128.01663], [336816.87573, 4684697.6624], [334247.22996, 4684697.6624], [334247.22996, 4682128.01663], [336816.87573, 4682128.01663]]]}, "properties": {"tile_name": "K-35-062-2_Rakovski_x4032_y896.png", "type": "processed_tile_bbox"}}, {"type": "Feature", "geometry": {"type": "Polygon", "coordinates": [[[318829.355338, 4686624.896728], [318829.355338, 4689194.542498], [316259.709568, 4689194.542498], [316259.709568, 4686624.896728], [318829.355338, 4686624.896728]]]}, "properties": {"tile_name": "K-35-062-2_Rakovski_x448_y0.png", "type": "processed_tile_bbox"}}, {"type": "Feature", "geometry": {"type": "Polygon", "coordinates": [[[318829.355338, 4679879.576581], [318829.355338, 4682449.222351], [316259.709568, 4682449.222351], [316259.709568, 4679879.576581], [318829.355338, 4679879.576581]]]}, "properties": {"tile_name": "K-35-062-2_Rakovski_x448_y1344.png", "type": "processed_tile_bbox"}}, {"type": "Feature", "geometry": {"type": "Polygon", "coordinates": [[[318829.355338, 4677631.136532], [318829.355338, 4680200.782302], [316259.709568, 4680200.782302], [316259.709568, 4677631.136532], [318829.355338, 4677631.136532]]]}, "properties": {"tile_name": "K-35-062-2_Rakovski_x448_y1792.png", "type": "processed_tile_bbox"}}, {"type": "Feature", "geometry": {"type": "Polygon", "coordinates": [[[318829.355338, 4675382.696483], [318829.355338, 4677952.342253], [316259.709568, 4677952.342253], [316259.709568, 4675382.696483], [318829.355338, 4675382.696483]]]}, "properties": {"tile_name": "K-35-062-2_Rakovski_x448_y2240.png", "type": "processed_tile_bbox"}}, {"type": "Feature", "geometry": {"type": "Polygon", "coordinates": [[[318829.355338, 4673134.256434], [318829.355338, 4675703.902204], [316259.709568, 4675703.902204], [316259.709568, 4673134.256434], [318829.355338, 4673134.256434]]]}, "properties": {"tile_name": "K-35-062-2_Rakovski_x448_y2688.png", "type": "processed_tile_bbox"}}, {"type": "Feature", "geometry": {"type": "Polygon", "coordinates": [[[318829.355338, 4670885.816385], [318829.355338, 4673455.462156], [316259.709568, 4673455.462156], [316259.709568, 4670885.816385], [318829.355338, 4670885.816385]]]}, "properties": {"tile_name": "K-35-062-2_Rakovski_x448_y3136.png", "type": "processed_tile_bbox"}}, {"type": "Feature", "geometry": {"type": "Polygon", "coordinates": [[[318829.355338, 4668637.376336], [318829.355338, 4671207.022107], [316259.709568, 4671207.022107], [316259.709568, 4668637.376336], [318829.355338, 4668637.376336]]]}, "properties": {"tile_name": "K-35-062-2_Rakovski_x448_y3584.png", "type": "processed_tile_bbox"}}, {"type": "Feature", "geometry": {"type": "Polygon", "coordinates": [[[318829.355338, 4684376.456679], [318829.355338, 4686946.102449], [316259.709568, 4686946.102449], [316259.709568, 4684376.456679], [318829.355338, 4684376.456679]]]}, "properties": {"tile_name": "K-35-062-2_Rakovski_x448_y448.png", "type": "processed_tile_bbox"}}, {"type": "Feature", "geometry": {"type": "Polygon", "coordinates": [[[318829.355338, 4682128.01663], [318829.355338, 4684697.6624], [316259.709568, 4684697.6624], [316259.709568, 4682128.01663], [318829.355338, 4682128.01663]]]}, "properties": {"tile_name": "K-35-062-2_Rakovski_x448_y896.png", "type": "processed_tile_bbox"}}, {"type": "Feature", "geometry": {"type": "Polygon", "coordinates": [[[321077.795387, 4686624.896728], [321077.795387, 4689194.542498], [318508.149617, 4689194.542498], [318508.149617, 4686624.896728], [321077.795387, 4686624.896728]]]}, "properties": {"tile_name": "K-35-062-2_Rakovski_x896_y0.png", "type": "processed_tile_bbox"}}, {"type": "Feature", "geometry": {"type": "Polygon", "coordinates": [[[321077.795387, 4679879.576581], [321077.795387, 4682449.222351], [318508.149617, 4682449.222351], [318508.149617, 4679879.576581], [321077.795387, 4679879.576581]]]}, "properties": {"tile_name": "K-35-062-2_Rakovski_x896_y1344.png", "type": "processed_tile_bbox"}}, {"type": "Feature", "geometry": {"type": "Polygon", "coordinates": [[[321077.795387, 4677631.136532], [321077.795387, 4680200.782302], [318508.149617, 4680200.782302], [318508.149617, 4677631.136532], [321077.795387, 4677631.136532]]]}, "properties": {"tile_name": "K-35-062-2_Rakovski_x896_y1792.png", "type": "processed_tile_bbox"}}, {"type": "Feature", "geometry": {"type": "Polygon", "coordinates": [[[321077.795387, 4675382.696483], [321077.795387, 4677952.342253], [318508.149617, 4677952.342253], [318508.149617, 4675382.696483], [321077.795387, 4675382.696483]]]}, "properties": {"tile_name": "K-35-062-2_Rakovski_x896_y2240.png", "type": "processed_tile_bbox"}}, {"type": "Feature", "geometry": {"type": "Polygon", "coordinates": [[[321077.795387, 4673134.256434], [321077.795387, 4675703.902204], [318508.149617, 4675703.902204], [318508.149617, 4673134.256434], [321077.795387, 4673134.256434]]]}, "properties": {"tile_name": "K-35-062-2_Rakovski_x896_y2688.png", "type": "processed_tile_bbox"}}, {"type": "Feature", "geometry": {"type": "Polygon", "coordinates": [[[321077.795387, 4670885.816385], [321077.795387, 4673455.462156], [318508.149617, 4673455.462156], [318508.149617, 4670885.816385], [321077.795387, 4670885.816385]]]}, "properties": {"tile_name": "K-35-062-2_Rakovski_x896_y3136.png", "type": "processed_tile_bbox"}}, {"type": "Feature", "geometry": {"type": "Polygon", "coordinates": [[[321077.795387, 4668637.376336], [321077.795387, 4671207.022107], [318508.149617, 4671207.022107], [318508.149617, 4668637.376336], [321077.795387, 4668637.376336]]]}, "properties": {"tile_name": "K-35-062-2_Rakovski_x896_y3584.png", "type": "processed_tile_bbox"}}, {"type": "Feature", "geometry": {"type": "Polygon", "coordinates": [[[321077.795387, 4684376.456679], [321077.795387, 4686946.102449], [318508.149617, 4686946.102449], [318508.149617, 4684376.456679], [321077.795387, 4684376.456679]]]}, "properties": {"tile_name": "K-35-062-2_Rakovski_x896_y448.png", "type": "processed_tile_bbox"}}, {"type": "Feature", "geometry": {"type": "Polygon", "coordinates": [[[321077.795387, 4682128.01663], [321077.795387, 4684697.6624], [318508.149617, 4684697.6624], [318508.149617, 4682128.01663], [321077.795387, 4682128.01663]]]}, "properties": {"tile_name": "K-35-062-2_Rakovski_x896_y896.png", "type": "processed_tile_bbox"}}], "crs": {"type": "name", "properties": {"name": "urn:ogc:def:crs:EPSG::32635"}}}