{
"type": "FeatureCollection",
"name": "verified_best_20m",
"crs": { "type": "name", "properties": { "name": "urn:ogc:def:crs:OGC:1.3:CRS84" } },
"features": [
{ "type": "Feature", "properties": { "vote_count": 5, "source_tile": "K-35-052-4_32635_x1344_y336.png", "mound_probability": 1.0 }, "geometry": { "type": "Point", "coordinates": [ 25.835945160620817, 42.472661491505932 ] } },
{ "type": "Feature", "properties": { "vote_count": 5, "source_tile": "K-35-052-4_32635_x1680_y0.png", "mound_probability": 1.0 }, "geometry": { "type": "Point", "coordinates": [ 25.86485709446918, 42.485787305338761 ] } },
{ "type": "Feature", "properties": { "vote_count": 5, "source_tile": "K-35-052-4_32635_x2016_y336.png", "mound_probability": 1.0 }, "geometry": { "type": "Point", "coordinates": [ 25.870724889928283, 42.483658260406209 ] } },
{ "type": "Feature", "properties": { "vote_count": 5, "source_tile": "K-35-052-4_32635_x2016_y336.png", "mound_probability": 0.95 }, "geometry": { "type": "Point", "coordinates": [ 25.885505052779383, 42.481645387567902 ] } },
{ "type": "Feature", "properties": { "vote_count": 5, "source_tile": "K-35-052-4_32635_x0_y1680.png", "mound_probability": 1.0 }, "geometry": { "type": "Point", "coordinates": [ 25.765771117885901, 42.420817832634235 ] } },
{ "type": "Feature", "properties": { "vote_count": 5, "source_tile": "K-35-052-4_32635_x0_y1680.png", "mound_probability": 1.0 }, "geometry": { "type": "Point", "coordinates": [ 25.764857723180299, 42.420262642927185 ] } },
{ "type": "Feature", "properties": { "vote_count": 5, "source_tile": "K-35-052-4_32635_x2688_y1680.png", "mound_probability": 1.0 }, "geometry": { "type": "Point", "coordinates": [ 25.921082970318587, 42.414144054633638 ] } },
{ "type": "Feature", "properties": { "vote_count": 5, "source_tile": "K-35-052-4_32635_x3024_y3024.png", "mound_probability": 1.0 }, "geometry": { "type": "Point", "coordinates": [ 25.945878745825965, 42.35406335998033 ] } },
{ "type": "Feature", "properties": { "vote_count": 5, "source_tile": "K-35-052-4_32635_x3024_y3024.png", "mound_probability": 1.0 }, "geometry": { "type": "Point", "coordinates": [ 25.946277958967745, 42.351771089153672 ] } },
{ "type": "Feature", "properties": { "vote_count": 5, "source_tile": "K-35-052-4_32635_x3024_y3024.png", "mound_probability": 1.0 }, "geometry": { "type": "Point", "coordinates": [ 25.9461842274997, 42.350809891447064 ] } },
{ "type": "Feature", "properties": { "vote_count": 5, "source_tile": "K-35-053-3_Elenovo_x1344_y0.png", "mound_probability": 1.0 }, "geometry": { "type": "Point", "coordinates": [ 26.097655953922423, 42.4903703932819 ] } },
{ "type": "Feature", "properties": { "vote_count": 5, "source_tile": "K-35-052-4_32635_x3024_y2352.png", "mound_probability": 1.0 }, "geometry": { "type": "Point", "coordinates": [ 25.948770298301898, 42.394476144896117 ] } },
{ "type": "Feature", "properties": { "vote_count": 5, "source_tile": "K-35-052-4_32635_x3024_y2352.png", "mound_probability": 1.0 }, "geometry": { "type": "Point", "coordinates": [ 25.939953659015156, 42.381907631135597 ] } },
{ "type": "Feature", "properties": { "vote_count": 5, "source_tile": "K-35-052-4_32635_x3024_y2016.png", "mound_probability": 1.0 }, "geometry": { "type": "Point", "coordinates": [ 25.944146861848061, 42.40812644881337 ] } },
{ "type": "Feature", "properties": { "vote_count": 5, "source_tile": "K-35-052-4_32635_x3024_y3024.png", "mound_probability": 0.85 }, "geometry": { "type": "Point", "coordinates": [ 25.946097449763904, 42.357296666319279 ] } },
{ "type": "Feature", "properties": { "vote_count": 5, "source_tile": "K-35-052-4_32635_x2016_y1008.png", "mound_probability": 0.35 }, "geometry": { "type": "Point", "coordinates": [ 25.872981311875947, 42.451392682366134 ] } },
{ "type": "Feature", "properties": { "vote_count": 5, "source_tile": "K-35-052-4_32635_x0_y1008.png", "mound_probability": 0.95 }, "geometry": { "type": "Point", "coordinates": [ 25.763041232732171, 42.446559009594999 ] } },
{ "type": "Feature", "properties": { "vote_count": 5, "source_tile": "K-35-052-4_32635_x336_y1008.png", "mound_probability": 1.0 }, "geometry": { "type": "Point", "coordinates": [ 25.772235918005329, 42.44669758333179 ] } },
{ "type": "Feature", "properties": { "vote_count": 5, "source_tile": "K-35-052-4_32635_x336_y1008.png", "mound_probability": 0.1 }, "geometry": { "type": "Point", "coordinates": [ 25.774922535642276, 42.446191885204513 ] } },
{ "type": "Feature", "properties": { "vote_count": 5, "source_tile": "K-35-052-4_32635_x2016_y336.png", "mound_probability": 0.95 }, "geometry": { "type": "Point", "coordinates": [ 25.885808008024799, 42.481655263948767 ] } },
{ "type": "Feature", "properties": { "vote_count": 5, "source_tile": "K-35-052-4_32635_x0_y2016.png", "mound_probability": 0.85 }, "geometry": { "type": "Point", "coordinates": [ 25.764861159513856, 42.393633574164795 ] } },
{ "type": "Feature", "properties": { "vote_count": 5, "source_tile": "K-35-052-4_32635_x0_y2016.png", "mound_probability": 1.0 }, "geometry": { "type": "Point", "coordinates": [ 25.764818807684307, 42.392604787352319 ] } },
{ "type": "Feature", "properties": { "vote_count": 5, "source_tile": "K-35-052-4_32635_x0_y2016.png", "mound_probability": 0.15 }, "geometry": { "type": "Point", "coordinates": [ 25.768670809230489, 42.393627345658459 ] } },
{ "type": "Feature", "properties": { "vote_count": 5, "source_tile": "K-35-052-4_32635_x336_y2016.png", "mound_probability": 0.2 }, "geometry": { "type": "Point", "coordinates": [ 25.773863177836084, 42.393196128057674 ] } },
{ "type": "Feature", "properties": { "vote_count": 5, "source_tile": "K-35-052-4_32635_x336_y2016.png", "mound_probability": 0.15 }, "geometry": { "type": "Point", "coordinates": [ 25.776019613629543, 42.392739228815294 ] } },
{ "type": "Feature", "properties": { "vote_count": 5, "source_tile": "K-35-052-4_32635_x0_y2352.png", "mound_probability": 1.0 }, "geometry": { "type": "Point", "coordinates": [ 25.763941726531673, 42.389475687552526 ] } },
{ "type": "Feature", "properties": { "vote_count": 5, "source_tile": "K-35-052-4_32635_x0_y2352.png", "mound_probability": 0.2 }, "geometry": { "type": "Point", "coordinates": [ 25.766104811941357, 42.390466246760226 ] } },
{ "type": "Feature", "properties": { "vote_count": 5, "source_tile": "K-35-052-4_32635_x0_y2352.png", "mound_probability": 1.0 }, "geometry": { "type": "Point", "coordinates": [ 25.767134061960753, 42.39060423822108 ] } },
{ "type": "Feature", "properties": { "vote_count": 5, "source_tile": "K-35-052-4_32635_x336_y2352.png", "mound_probability": 0.8 }, "geometry": { "type": "Point", "coordinates": [ 25.772443843957713, 42.387584025920852 ] } },
{ "type": "Feature", "properties": { "vote_count": 5, "source_tile": "K-35-052-4_32635_x336_y2352.png", "mound_probability": 1.0 }, "geometry": { "type": "Point", "coordinates": [ 25.775514500824379, 42.387069348300898 ] } },
{ "type": "Feature", "properties": { "vote_count": 5, "source_tile": "K-35-052-4_32635_x0_y2352.png", "mound_probability": 1.0 }, "geometry": { "type": "Point", "coordinates": [ 25.76907287032677, 42.385762374561644 ] } },
{ "type": "Feature", "properties": { "vote_count": 5, "source_tile": "K-35-052-4_32635_x336_y2352.png", "mound_probability": 1.0 }, "geometry": { "type": "Point", "coordinates": [ 25.769415316648576, 42.384713028959638 ] } },
{ "type": "Feature", "properties": { "vote_count": 5, "source_tile": "K-35-052-4_32635_x336_y2352.png", "mound_probability": 1.0 }, "geometry": { "type": "Point", "coordinates": [ 25.769827774053542, 42.383668331950886 ] } },
{ "type": "Feature", "properties": { "vote_count": 5, "source_tile": "K-35-052-4_32635_x2352_y3024.png", "mound_probability": 0.95 }, "geometry": { "type": "Point", "coordinates": [ 25.902544433782833, 42.35119099169701 ] } },
{ "type": "Feature", "properties": { "vote_count": 5, "source_tile": "K-35-052-4_32635_x2352_y3024.png", "mound_probability": 0.95 }, "geometry": { "type": "Point", "coordinates": [ 25.906673389174927, 42.352729205208746 ] } },
{ "type": "Feature", "properties": { "vote_count": 5, "source_tile": "K-35-052-4_32635_x2352_y1008.png", "mound_probability": 1.0 }, "geometry": { "type": "Point", "coordinates": [ 25.904505582794414, 42.453672748264225 ] } },
{ "type": "Feature", "properties": { "vote_count": 5, "source_tile": "K-35-052-4_32635_x2016_y1008.png", "mound_probability": 0.75 }, "geometry": { "type": "Point", "coordinates": [ 25.879940864382643, 42.450261546077314 ] } },
{ "type": "Feature", "properties": { "vote_count": 5, "source_tile": "K-35-052-4_32635_x0_y1344.png", "mound_probability": 0.65 }, "geometry": { "type": "Point", "coordinates": [ 25.750867980096995, 42.42487494221173 ] } },
{ "type": "Feature", "properties": { "vote_count": 5, "source_tile": "K-35-052-4_32635_x0_y2688.png", "mound_probability": 1.0 }, "geometry": { "type": "Point", "coordinates": [ 25.769352668157019, 42.366829141353328 ] } },
{ "type": "Feature", "properties": { "vote_count": 5, "source_tile": "K-35-052-4_32635_x2688_y672.png", "mound_probability": 1.0 }, "geometry": { "type": "Point", "coordinates": [ 25.915923696354373, 42.468953207328049 ] } },
{ "type": "Feature", "properties": { "vote_count": 5, "source_tile": "K-35-052-4_32635_x0_y0.png", "mound_probability": 1.0 }, "geometry": { "type": "Point", "coordinates": [ 25.764293019833381, 42.483689713016425 ] } },
{ "type": "Feature", "properties": { "vote_count": 5, "source_tile": "K-35-052-4_32635_x336_y336.png", "mound_probability": 1.0 }, "geometry": { "type": "Point", "coordinates": [ 25.780377494627768, 42.477506159117723 ] } },
{ "type": "Feature", "properties": { "vote_count": 5, "source_tile": "K-35-052-4_32635_x336_y336.png", "mound_probability": 0.95 }, "geometry": { "type": "Point", "coordinates": [ 25.779387085833033, 42.474893924121105 ] } },
{ "type": "Feature", "properties": { "vote_count": 5, "source_tile": "K-35-052-4_32635_x1344_y672.png", "mound_probability": 0.98 }, "geometry": { "type": "Point", "coordinates": [ 25.834226341449682, 42.463022831960878 ] } },
{ "type": "Feature", "properties": { "vote_count": 5, "source_tile": "K-35-053-3_Elenovo_x1008_y3360.png", "mound_probability": 0.95 }, "geometry": { "type": "Point", "coordinates": [ 26.081504088206678, 42.335309277717229 ] } },
{ "type": "Feature", "properties": { "vote_count": 5, "source_tile": "K-35-052-4_32635_x0_y1344.png", "mound_probability": 0.2 }, "geometry": { "type": "Point", "coordinates": [ 25.751709901826988, 42.424874585114949 ] } },
{ "type": "Feature", "properties": { "vote_count": 5, "source_tile": "K-35-052-4_32635_x3360_y2016.png", "mound_probability": 0.95 }, "geometry": { "type": "Point", "coordinates": [ 25.967505144660155, 42.399627012342009 ] } },
{ "type": "Feature", "properties": { "vote_count": 5, "source_tile": "K-35-052-4_32635_x3360_y2352.png", "mound_probability": 0.95 }, "geometry": { "type": "Point", "coordinates": [ 25.970236532694404, 42.385108400489699 ] } },
{ "type": "Feature", "properties": { "vote_count": 5, "source_tile": "K-35-052-4_32635_x1008_y336.png", "mound_probability": 0.4 }, "geometry": { "type": "Point", "coordinates": [ 25.826071685875963, 42.481924219387764 ] } },
{ "type": "Feature", "properties": { "vote_count": 5, "source_tile": "K-35-052-4_32635_x1008_y336.png", "mound_probability": 0.2 }, "geometry": { "type": "Point", "coordinates": [ 25.826932027813559, 42.479141324755602 ] } },
{ "type": "Feature", "properties": { "vote_count": 5, "source_tile": "K-35-052-4_32635_x3696_y672.png", "mound_probability": 0.15 }, "geometry": { "type": "Point", "coordinates": [ 25.975542177237465, 42.463766728045634 ] } },
{ "type": "Feature", "properties": { "vote_count": 5, "source_tile": "K-35-052-4_32635_x3696_y1344.png", "mound_probability": 1.0 }, "geometry": { "type": "Point", "coordinates": [ 25.984350493431418, 42.426928101809452 ] } },
{ "type": "Feature", "properties": { "vote_count": 5, "source_tile": "K-35-052-4_32635_x3360_y3696.png", "mound_probability": 1.0 }, "geometry": { "type": "Point", "coordinates": [ 25.959179266616992, 42.333692765086184 ] } },
{ "type": "Feature", "properties": { "vote_count": 5, "source_tile": "K-35-052-4_32635_x336_y1344.png", "mound_probability": 1.0 }, "geometry": { "type": "Point", "coordinates": [ 25.786439753970051, 42.437357018284196 ] } },
{ "type": "Feature", "properties": { "vote_count": 5, "source_tile": "K-35-052-4_32635_x3696_y2688.png", "mound_probability": 1.0 }, "geometry": { "type": "Point", "coordinates": [ 25.984826840734542, 42.376017696233326 ] } },
{ "type": "Feature", "properties": { "vote_count": 5, "source_tile": "K-35-052-4_32635_x3696_y1344.png", "mound_probability": 1.0 }, "geometry": { "type": "Point", "coordinates": [ 25.972455147301293, 42.433377293721634 ] } },
{ "type": "Feature", "properties": { "vote_count": 5, "source_tile": "K-35-052-4_32635_x3696_y2016.png", "mound_probability": 0.95 }, "geometry": { "type": "Point", "coordinates": [ 25.987067615014777, 42.397112832305631 ] } },
{ "type": "Feature", "properties": { "vote_count": 5, "source_tile": "K-35-052-4_32635_x3696_y2352.png", "mound_probability": 1.0 }, "geometry": { "type": "Point", "coordinates": [ 25.989333432896796, 42.38466527801188 ] } },
{ "type": "Feature", "properties": { "vote_count": 5, "source_tile": "K-35-052-4_32635_x1680_y0.png", "mound_probability": 0.95 }, "geometry": { "type": "Point", "coordinates": [ 25.863730299822524, 42.495983938505169 ] } },
{ "type": "Feature", "properties": { "vote_count": 5, "source_tile": "K-35-052-4_32635_x1680_y0.png", "mound_probability": 0.95 }, "geometry": { "type": "Point", "coordinates": [ 25.863804494694598, 42.494860197008599 ] } },
{ "type": "Feature", "properties": { "vote_count": 5, "source_tile": "K-35-052-4_32635_x2016_y0.png", "mound_probability": 1.0 }, "geometry": { "type": "Point", "coordinates": [ 25.870849755112967, 42.496790678013291 ] } },
{ "type": "Feature", "properties": { "vote_count": 5, "source_tile": "K-35-052-4_32635_x2016_y0.png", "mound_probability": 0.95 }, "geometry": { "type": "Point", "coordinates": [ 25.871039928480933, 42.496110761590522 ] } },
{ "type": "Feature", "properties": { "vote_count": 5, "source_tile": "K-35-052-4_32635_x2016_y0.png", "mound_probability": 0.2 }, "geometry": { "type": "Point", "coordinates": [ 25.869612455535901, 42.494575439889388 ] } },
{ "type": "Feature", "properties": { "vote_count": 5, "source_tile": "K-35-052-4_32635_x2016_y0.png", "mound_probability": 0.1 }, "geometry": { "type": "Point", "coordinates": [ 25.870451858571911, 42.493401195959116 ] } },
{ "type": "Feature", "properties": { "vote_count": 5, "source_tile": "K-35-053-3_Elenovo_x0_y1680.png", "mound_probability": 0.2 }, "geometry": { "type": "Point", "coordinates": [ 26.003821022143118, 42.412846867993402 ] } },
{ "type": "Feature", "properties": { "vote_count": 5, "source_tile": "K-35-053-3_Elenovo_x0_y1680.png", "mound_probability": 0.1 }, "geometry": { "type": "Point", "coordinates": [ 26.005461477968279, 42.410388706998646 ] } },
{ "type": "Feature", "properties": { "vote_count": 5, "source_tile": "K-35-053-3_Elenovo_x0_y2016.png", "mound_probability": 1.0 }, "geometry": { "type": "Point", "coordinates": [ 26.002995616432738, 42.396388732529225 ] } },
{ "type": "Feature", "properties": { "vote_count": 5, "source_tile": "K-35-052-4_32635_x336_y1680.png", "mound_probability": 1.0 }, "geometry": { "type": "Point", "coordinates": [ 25.775202951839237, 42.421445010440635 ] } },
{ "type": "Feature", "properties": { "vote_count": 5, "source_tile": "K-35-052-4_32635_x336_y1680.png", "mound_probability": 0.85 }, "geometry": { "type": "Point", "coordinates": [ 25.786278965114793, 42.413676969827641 ] } },
{ "type": "Feature", "properties": { "vote_count": 5, "source_tile": "K-35-052-4_32635_x672_y1680.png", "mound_probability": 0.85 }, "geometry": { "type": "Point", "coordinates": [ 25.788256129041862, 42.413758531557377 ] } },
{ "type": "Feature", "properties": { "vote_count": 5, "source_tile": "K-35-052-4_32635_x672_y1680.png", "mound_probability": 1.0 }, "geometry": { "type": "Point", "coordinates": [ 25.793199996765033, 42.410666795225701 ] } },
{ "type": "Feature", "properties": { "vote_count": 5, "source_tile": "K-35-052-4_32635_x336_y2016.png", "mound_probability": 1.0 }, "geometry": { "type": "Point", "coordinates": [ 25.772622603989412, 42.405247315782589 ] } },
{ "type": "Feature", "properties": { "vote_count": 5, "source_tile": "K-35-052-4_32635_x2688_y1008.png", "mound_probability": 1.0 }, "geometry": { "type": "Point", "coordinates": [ 25.918275498688224, 42.439635246727853 ] } },
{ "type": "Feature", "properties": { "vote_count": 5, "source_tile": "K-35-052-4_32635_x3024_y3360.png", "mound_probability": 0.1 }, "geometry": { "type": "Point", "coordinates": [ 25.947197475521435, 42.346608360405511 ] } },
{ "type": "Feature", "properties": { "vote_count": 5, "source_tile": "K-35-053-3_Elenovo_x1344_y672.png", "mound_probability": 0.95 }, "geometry": { "type": "Point", "coordinates": [ 26.090510551974418, 42.466669472387984 ] } },
{ "type": "Feature", "properties": { "vote_count": 5, "source_tile": "K-35-053-3_Elenovo_x1344_y672.png", "mound_probability": 1.0 }, "geometry": { "type": "Point", "coordinates": [ 26.091134427189072, 42.465885232286823 ] } },
{ "type": "Feature", "properties": { "vote_count": 5, "source_tile": "K-35-052-4_32635_x672_y2352.png", "mound_probability": 1.0 }, "geometry": { "type": "Point", "coordinates": [ 25.798261093854574, 42.388167591243047 ] } },
{ "type": "Feature", "properties": { "vote_count": 5, "source_tile": "K-35-052-4_32635_x672_y2352.png", "mound_probability": 1.0 }, "geometry": { "type": "Point", "coordinates": [ 25.800586989279967, 42.387732941238099 ] } },
{ "type": "Feature", "properties": { "vote_count": 5, "source_tile": "K-35-052-4_32635_x672_y1008.png", "mound_probability": 1.0 }, "geometry": { "type": "Point", "coordinates": [ 25.805775913572294, 42.438926313143725 ] } },
{ "type": "Feature", "properties": { "vote_count": 5, "source_tile": "K-35-052-4_32635_x672_y1344.png", "mound_probability": 0.75 }, "geometry": { "type": "Point", "coordinates": [ 25.799516425551783, 42.432914053010471 ] } },
{ "type": "Feature", "properties": { "vote_count": 5, "source_tile": "K-35-052-4_32635_x672_y1680.png", "mound_probability": 1.0 }, "geometry": { "type": "Point", "coordinates": [ 25.795440126857766, 42.422770823819988 ] } },
{ "type": "Feature", "properties": { "vote_count": 5, "source_tile": "K-35-052-4_32635_x672_y1680.png", "mound_probability": 0.1 }, "geometry": { "type": "Point", "coordinates": [ 25.793686370979866, 42.409566483415453 ] } },
{ "type": "Feature", "properties": { "vote_count": 5, "source_tile": "K-35-053-3_Elenovo_x2016_y0.png", "mound_probability": 0.75 }, "geometry": { "type": "Point", "coordinates": [ 26.122203058553119, 42.491446816389505 ] } },
{ "type": "Feature", "properties": { "vote_count": 5, "source_tile": "K-35-053-3_Elenovo_x1680_y336.png", "mound_probability": 1.0 }, "geometry": { "type": "Point", "coordinates": [ 26.118143071116979, 42.48082312941218 ] } },
{ "type": "Feature", "properties": { "vote_count": 5, "source_tile": "K-35-053-3_Elenovo_x2016_y336.png", "mound_probability": 1.0 }, "geometry": { "type": "Point", "coordinates": [ 26.129326853918826, 42.47929691066885 ] } },
{ "type": "Feature", "properties": { "vote_count": 5, "source_tile": "K-35-053-3_Elenovo_x2352_y0.png", "mound_probability": 1.0 }, "geometry": { "type": "Point", "coordinates": [ 26.145034879888318, 42.498489499440083 ] } },
{ "type": "Feature", "properties": { "vote_count": 5, "source_tile": "K-35-053-3_Elenovo_x2352_y0.png", "mound_probability": 1.0 }, "geometry": { "type": "Point", "coordinates": [ 26.155577004672665, 42.497334938090987 ] } },
{ "type": "Feature", "properties": { "vote_count": 5, "source_tile": "K-35-053-3_Elenovo_x2352_y0.png", "mound_probability": 1.0 }, "geometry": { "type": "Point", "coordinates": [ 26.156847566685947, 42.498000937384774 ] } },
{ "type": "Feature", "properties": { "vote_count": 5, "source_tile": "K-35-053-3_Elenovo_x2352_y0.png", "mound_probability": 1.0 }, "geometry": { "type": "Point", "coordinates": [ 26.142548932404726, 42.490838516243322 ] } },
{ "type": "Feature", "properties": { "vote_count": 5, "source_tile": "K-35-052-4_32635_x336_y2352.png", "mound_probability": 1.0 }, "geometry": { "type": "Point", "coordinates": [ 25.785767190097665, 42.384899097498256 ] } },
{ "type": "Feature", "properties": { "vote_count": 5, "source_tile": "K-35-052-4_32635_x672_y2352.png", "mound_probability": 0.95 }, "geometry": { "type": "Point", "coordinates": [ 25.802791116575957, 42.38533069333937 ] } },
{ "type": "Feature", "properties": { "vote_count": 5, "source_tile": "K-35-052-4_32635_x672_y2352.png", "mound_probability": 1.0 }, "geometry": { "type": "Point", "coordinates": [ 25.794550439187375, 42.386478418043716 ] } },
{ "type": "Feature", "properties": { "vote_count": 5, "source_tile": "K-35-052-4_32635_x672_y2352.png", "mound_probability": 1.0 }, "geometry": { "type": "Point", "coordinates": [ 25.80054730727403, 42.387467181794577 ] } },
{ "type": "Feature", "properties": { "vote_count": 5, "source_tile": "K-35-052-4_32635_x0_y2016.png", "mound_probability": 1.0 }, "geometry": { "type": "Point", "coordinates": [ 25.75194084770742, 42.401144154343008 ] } },
{ "type": "Feature", "properties": { "vote_count": 5, "source_tile": "K-35-052-4_32635_x1008_y3360.png", "mound_probability": 0.1 }, "geometry": { "type": "Point", "coordinates": [ 25.824430729278159, 42.338329511655246 ] } },
{ "type": "Feature", "properties": { "vote_count": 5, "source_tile": "K-35-053-3_Elenovo_x1680_y1680.png", "mound_probability": 0.4 }, "geometry": { "type": "Point", "coordinates": [ 26.117561786749835, 42.417006722420666 ] } },
{ "type": "Feature", "properties": { "vote_count": 5, "source_tile": "K-35-053-3_Elenovo_x1680_y1680.png", "mound_probability": 0.95 }, "geometry": { "type": "Point", "coordinates": [ 26.109090868855443, 42.413653890854796 ] } },
{ "type": "Feature", "properties": { "vote_count": 5, "source_tile": "K-35-053-3_Elenovo_x1680_y1680.png", "mound_probability": 0.95 }, "geometry": { "type": "Point", "coordinates": [ 26.117606341058334, 42.415329914759234 ] } },
{ "type": "Feature", "properties": { "vote_count": 5, "source_tile": "K-35-052-4_32635_x336_y336.png", "mound_probability": 0.85 }, "geometry": { "type": "Point", "coordinates": [ 25.767947977010177, 42.470998131878368 ] } },
{ "type": "Feature", "properties": { "vote_count": 5, "source_tile": "K-35-052-4_32635_x0_y336.png", "mound_probability": 1.0 }, "geometry": { "type": "Point", "coordinates": [ 25.764308323980757, 42.469887167704094 ] } },
{ "type": "Feature", "properties": { "vote_count": 5, "source_tile": "K-35-052-4_32635_x0_y672.png", "mound_probability": 0.85 }, "geometry": { "type": "Point", "coordinates": [ 25.762261848092386, 42.466831532417864 ] } },
{ "type": "Feature", "properties": { "vote_count": 5, "source_tile": "K-35-052-4_32635_x672_y1008.png", "mound_probability": 1.0 }, "geometry": { "type": "Point", "coordinates": [ 25.803672737946275, 42.448846713162169 ] } },
{ "type": "Feature", "properties": { "vote_count": 5, "source_tile": "K-35-052-4_32635_x672_y1008.png", "mound_probability": 1.0 }, "geometry": { "type": "Point", "coordinates": [ 25.800440146838536, 42.440372360945972 ] } },
{ "type": "Feature", "properties": { "vote_count": 5, "source_tile": "K-35-053-3_Elenovo_x1680_y3360.png", "mound_probability": 1.0 }, "geometry": { "type": "Point", "coordinates": [ 26.114497997717876, 42.347372282076989 ] } },
{ "type": "Feature", "properties": { "vote_count": 5, "source_tile": "K-35-053-3_Elenovo_x1680_y3360.png", "mound_probability": 1.0 }, "geometry": { "type": "Point", "coordinates": [ 26.114320618163124, 42.341996774452717 ] } },
{ "type": "Feature", "properties": { "vote_count": 5, "source_tile": "K-35-053-3_Elenovo_x1680_y3360.png", "mound_probability": 0.85 }, "geometry": { "type": "Point", "coordinates": [ 26.113380491276001, 42.341961353378927 ] } },
{ "type": "Feature", "properties": { "vote_count": 5, "source_tile": "K-35-053-3_Elenovo_x1680_y3360.png", "mound_probability": 1.0 }, "geometry": { "type": "Point", "coordinates": [ 26.113534500703242, 42.341305882930648 ] } },
{ "type": "Feature", "properties": { "vote_count": 5, "source_tile": "K-35-053-3_Elenovo_x1680_y3360.png", "mound_probability": 0.2 }, "geometry": { "type": "Point", "coordinates": [ 26.111190797753622, 42.340480339594272 ] } },
{ "type": "Feature", "properties": { "vote_count": 5, "source_tile": "K-35-053-3_Elenovo_x1344_y672.png", "mound_probability": 0.85 }, "geometry": { "type": "Point", "coordinates": [ 26.091107603573604, 42.465580374639408 ] } },
{ "type": "Feature", "properties": { "vote_count": 5, "source_tile": "K-35-053-3_Elenovo_x1680_y672.png", "mound_probability": 1.0 }, "geometry": { "type": "Point", "coordinates": [ 26.107676997878869, 42.465117744842104 ] } },
{ "type": "Feature", "properties": { "vote_count": 5, "source_tile": "K-35-053-3_Elenovo_x1680_y672.png", "mound_probability": 1.0 }, "geometry": { "type": "Point", "coordinates": [ 26.10330039244058, 42.457990405892318 ] } },
{ "type": "Feature", "properties": { "vote_count": 5, "source_tile": "K-35-053-3_Elenovo_x3360_y0.png", "mound_probability": 1.0 }, "geometry": { "type": "Point", "coordinates": [ 26.203894219471028, 42.492798375195655 ] } },
{ "type": "Feature", "properties": { "vote_count": 5, "source_tile": "K-35-053-3_Elenovo_x1344_y2016.png", "mound_probability": 0.2 }, "geometry": { "type": "Point", "coordinates": [ 26.099010011957496, 42.407803248825722 ] } },
{ "type": "Feature", "properties": { "vote_count": 5, "source_tile": "K-35-052-4_32635_x336_y336.png", "mound_probability": 1.0 }, "geometry": { "type": "Point", "coordinates": [ 25.779971423773006, 42.4697436877751 ] } },
{ "type": "Feature", "properties": { "vote_count": 5, "source_tile": "K-35-053-3_Elenovo_x2016_y0.png", "mound_probability": 0.95 }, "geometry": { "type": "Point", "coordinates": [ 26.120878315666527, 42.496231118402122 ] } },
{ "type": "Feature", "properties": { "vote_count": 5, "source_tile": "K-35-053-3_Elenovo_x1680_y0.png", "mound_probability": 1.0 }, "geometry": { "type": "Point", "coordinates": [ 26.112645626067017, 42.492320496429606 ] } },
{ "type": "Feature", "properties": { "vote_count": 5, "source_tile": "K-35-052-4_32635_x2016_y1344.png", "mound_probability": 0.85 }, "geometry": { "type": "Point", "coordinates": [ 25.869482169591841, 42.430868437039308 ] } },
{ "type": "Feature", "properties": { "vote_count": 5, "source_tile": "K-35-052-4_32635_x1008_y672.png", "mound_probability": 1.0 }, "geometry": { "type": "Point", "coordinates": [ 25.825953441268421, 42.466463576280653 ] } },
{ "type": "Feature", "properties": { "vote_count": 5, "source_tile": "K-35-053-3_Elenovo_x1680_y3024.png", "mound_probability": 1.0 }, "geometry": { "type": "Point", "coordinates": [ 26.11516913763931, 42.348897832035412 ] } },
{ "type": "Feature", "properties": { "vote_count": 5, "source_tile": "K-35-053-3_Elenovo_x1680_y3360.png", "mound_probability": 0.2 }, "geometry": { "type": "Point", "coordinates": [ 26.11796718918248, 42.338552578101236 ] } },
{ "type": "Feature", "properties": { "vote_count": 5, "source_tile": "K-35-052-4_32635_x0_y2688.png", "mound_probability": 1.0 }, "geometry": { "type": "Point", "coordinates": [ 25.751750350301698, 42.365104555185965 ] } },
{ "type": "Feature", "properties": { "vote_count": 5, "source_tile": "K-35-052-4_32635_x0_y2688.png", "mound_probability": 1.0 }, "geometry": { "type": "Point", "coordinates": [ 25.750730611490674, 42.372585471844914 ] } },
{ "type": "Feature", "properties": { "vote_count": 5, "source_tile": "K-35-052-4_32635_x2688_y1344.png", "mound_probability": 1.0 }, "geometry": { "type": "Point", "coordinates": [ 25.926816263047058, 42.424870026008037 ] } },
{ "type": "Feature", "properties": { "vote_count": 5, "source_tile": "K-35-053-3_Elenovo_x0_y1680.png", "mound_probability": 1.0 }, "geometry": { "type": "Point", "coordinates": [ 26.010487212222046, 42.417705178118396 ] } },
{ "type": "Feature", "properties": { "vote_count": 5, "source_tile": "K-35-053-3_Elenovo_x336_y336.png", "mound_probability": 0.95 }, "geometry": { "type": "Point", "coordinates": [ 26.025268358412514, 42.479821798212647 ] } },
{ "type": "Feature", "properties": { "vote_count": 5, "source_tile": "K-35-053-3_Elenovo_x336_y336.png", "mound_probability": 0.95 }, "geometry": { "type": "Point", "coordinates": [ 26.027792961464137, 42.474476601875224 ] } },
{ "type": "Feature", "properties": { "vote_count": 5, "source_tile": "K-35-052-4_32635_x336_y336.png", "mound_probability": 1.0 }, "geometry": { "type": "Point", "coordinates": [ 25.768928086493766, 42.471113488849625 ] } },
{ "type": "Feature", "properties": { "vote_count": 5, "source_tile": "K-35-053-3_Elenovo_x0_y1344.png", "mound_probability": 0.95 }, "geometry": { "type": "Point", "coordinates": [ 26.014726308409337, 42.428828396952099 ] } },
{ "type": "Feature", "properties": { "vote_count": 5, "source_tile": "K-35-053-3_Elenovo_x1344_y0.png", "mound_probability": 0.85 }, "geometry": { "type": "Point", "coordinates": [ 26.0909782778816, 42.494137071605742 ] } },
{ "type": "Feature", "properties": { "vote_count": 5, "source_tile": "K-35-053-3_Elenovo_x1344_y0.png", "mound_probability": 1.0 }, "geometry": { "type": "Point", "coordinates": [ 26.094323176641218, 42.492962883723415 ] } },
{ "type": "Feature", "properties": { "vote_count": 5, "source_tile": "K-35-053-3_Elenovo_x2016_y1680.png", "mound_probability": 1.0 }, "geometry": { "type": "Point", "coordinates": [ 26.139333407164251, 42.40829876927058 ] } },
{ "type": "Feature", "properties": { "vote_count": 5, "source_tile": "K-35-053-3_Elenovo_x1344_y2688.png", "mound_probability": 1.0 }, "geometry": { "type": "Point", "coordinates": [ 26.099085143485055, 42.377672774270131 ] } },
{ "type": "Feature", "properties": { "vote_count": 5, "source_tile": "K-35-053-3_Elenovo_x1344_y2688.png", "mound_probability": 0.4 }, "geometry": { "type": "Point", "coordinates": [ 26.0993790555152, 42.376565061710828 ] } },
{ "type": "Feature", "properties": { "vote_count": 5, "source_tile": "K-35-053-3_Elenovo_x1344_y2688.png", "mound_probability": 0.2 }, "geometry": { "type": "Point", "coordinates": [ 26.099588442549567, 42.375402973589715 ] } },
{ "type": "Feature", "properties": { "vote_count": 5, "source_tile": "K-35-053-3_Elenovo_x336_y1008.png", "mound_probability": 0.75 }, "geometry": { "type": "Point", "coordinates": [ 26.02568395779592, 42.439934488100711 ] } },
{ "type": "Feature", "properties": { "vote_count": 5, "source_tile": "K-35-053-3_Elenovo_x2016_y1008.png", "mound_probability": 0.85 }, "geometry": { "type": "Point", "coordinates": [ 26.137257375140798, 42.45061790621947 ] } },
{ "type": "Feature", "properties": { "vote_count": 5, "source_tile": "K-35-053-3_Elenovo_x0_y1680.png", "mound_probability": 1.0 }, "geometry": { "type": "Point", "coordinates": [ 26.007500196187895, 42.41521084817149 ] } },
{ "type": "Feature", "properties": { "vote_count": 5, "source_tile": "K-35-053-3_Elenovo_x0_y1680.png", "mound_probability": 0.2 }, "geometry": { "type": "Point", "coordinates": [ 26.00442267970373, 42.413833607003575 ] } },
{ "type": "Feature", "properties": { "vote_count": 5, "source_tile": "K-35-052-4_32635_x3360_y2688.png", "mound_probability": 0.2 }, "geometry": { "type": "Point", "coordinates": [ 25.959137325543459, 42.370764026503544 ] } },
{ "type": "Feature", "properties": { "vote_count": 5, "source_tile": "K-35-053-3_Elenovo_x336_y2352.png", "mound_probability": 1.0 }, "geometry": { "type": "Point", "coordinates": [ 26.026278250655686, 42.380479363817273 ] } },
{ "type": "Feature", "properties": { "vote_count": 5, "source_tile": "K-35-053-3_Elenovo_x1344_y2016.png", "mound_probability": 1.0 }, "geometry": { "type": "Point", "coordinates": [ 26.08303684329092, 42.404497565365148 ] } },
{ "type": "Feature", "properties": { "vote_count": 5, "source_tile": "K-35-053-3_Elenovo_x1344_y2016.png", "mound_probability": 0.95 }, "geometry": { "type": "Point", "coordinates": [ 26.089334580433039, 42.402210847364003 ] } },
{ "type": "Feature", "properties": { "vote_count": 5, "source_tile": "K-35-053-3_Elenovo_x1344_y2016.png", "mound_probability": 1.0 }, "geometry": { "type": "Point", "coordinates": [ 26.096714381205157, 42.39601507381456 ] } },
{ "type": "Feature", "properties": { "vote_count": 5, "source_tile": "K-35-053-3_Elenovo_x2688_y1680.png", "mound_probability": 0.95 }, "geometry": { "type": "Point", "coordinates": [ 26.166554396377368, 42.410678655466057 ] } },
{ "type": "Feature", "properties": { "vote_count": 5, "source_tile": "K-35-053-3_Elenovo_x3024_y1680.png", "mound_probability": 1.0 }, "geometry": { "type": "Point", "coordinates": [ 26.186315470259782, 42.419282918863225 ] } },
{ "type": "Feature", "properties": { "vote_count": 5, "source_tile": "K-35-053-3_Elenovo_x3360_y1680.png", "mound_probability": 1.0 }, "geometry": { "type": "Point", "coordinates": [ 26.20430356072303, 42.423017324451877 ] } },
{ "type": "Feature", "properties": { "vote_count": 5, "source_tile": "K-35-053-3_Elenovo_x3024_y1680.png", "mound_probability": 1.0 }, "geometry": { "type": "Point", "coordinates": [ 26.20022782084845, 42.416416501703743 ] } },
{ "type": "Feature", "properties": { "vote_count": 5, "source_tile": "K-35-053-3_Elenovo_x3024_y1680.png", "mound_probability": 0.95 }, "geometry": { "type": "Point", "coordinates": [ 26.196376012073088, 42.411433467844169 ] } },
{ "type": "Feature", "properties": { "vote_count": 5, "source_tile": "K-35-053-3_Elenovo_x3024_y2016.png", "mound_probability": 1.0 }, "geometry": { "type": "Point", "coordinates": [ 26.197005544739664, 42.407309096227785 ] } },
{ "type": "Feature", "properties": { "vote_count": 5, "source_tile": "K-35-053-3_Elenovo_x3024_y2016.png", "mound_probability": 1.0 }, "geometry": { "type": "Point", "coordinates": [ 26.198623304262352, 42.407316085512598 ] } },
{ "type": "Feature", "properties": { "vote_count": 5, "source_tile": "K-35-052-4_32635_x336_y3360.png", "mound_probability": 0.95 }, "geometry": { "type": "Point", "coordinates": [ 25.789165574175296, 42.341216737970072 ] } },
{ "type": "Feature", "properties": { "vote_count": 5, "source_tile": "K-35-053-3_Elenovo_x336_y0.png", "mound_probability": 0.95 }, "geometry": { "type": "Point", "coordinates": [ 26.036892267582733, 42.484946691643216 ] } },
{ "type": "Feature", "properties": { "vote_count": 5, "source_tile": "K-35-053-3_Elenovo_x672_y0.png", "mound_probability": 1.0 }, "geometry": { "type": "Point", "coordinates": [ 26.049553336293457, 42.486170334296425 ] } },
{ "type": "Feature", "properties": { "vote_count": 5, "source_tile": "K-35-053-3_Elenovo_x672_y336.png", "mound_probability": 1.0 }, "geometry": { "type": "Point", "coordinates": [ 26.052810464377735, 42.477337363485127 ] } },
{ "type": "Feature", "properties": { "vote_count": 5, "source_tile": "K-35-053-3_Elenovo_x672_y0.png", "mound_probability": 0.2 }, "geometry": { "type": "Point", "coordinates": [ 26.054180956821568, 42.484246875178542 ] } },
{ "type": "Feature", "properties": { "vote_count": 5, "source_tile": "K-35-053-3_Elenovo_x3024_y2016.png", "mound_probability": 0.95 }, "geometry": { "type": "Point", "coordinates": [ 26.186289351351842, 42.398376620643901 ] } },
{ "type": "Feature", "properties": { "vote_count": 5, "source_tile": "K-35-053-3_Elenovo_x3024_y2016.png", "mound_probability": 1.0 }, "geometry": { "type": "Point", "coordinates": [ 26.199503835988612, 42.405061032350353 ] } },
{ "type": "Feature", "properties": { "vote_count": 5, "source_tile": "K-35-053-3_Elenovo_x3360_y2016.png", "mound_probability": 1.0 }, "geometry": { "type": "Point", "coordinates": [ 26.205592589713564, 42.40176439571578 ] } },
{ "type": "Feature", "properties": { "vote_count": 5, "source_tile": "K-35-053-3_Elenovo_x3024_y2352.png", "mound_probability": 0.4 }, "geometry": { "type": "Point", "coordinates": [ 26.189189294650909, 42.387651417216219 ] } },
{ "type": "Feature", "properties": { "vote_count": 5, "source_tile": "K-35-053-3_Elenovo_x3024_y2352.png", "mound_probability": 0.95 }, "geometry": { "type": "Point", "coordinates": [ 26.191852946092457, 42.381150861615076 ] } },
{ "type": "Feature", "properties": { "vote_count": 5, "source_tile": "K-35-053-3_Elenovo_x3360_y2352.png", "mound_probability": 0.95 }, "geometry": { "type": "Point", "coordinates": [ 26.206322465164899, 42.383312884243907 ] } },
{ "type": "Feature", "properties": { "vote_count": 5, "source_tile": "K-35-052-4_32635_x0_y3024.png", "mound_probability": 1.0 }, "geometry": { "type": "Point", "coordinates": [ 25.757102512843289, 42.354882814717371 ] } },
{ "type": "Feature", "properties": { "vote_count": 5, "source_tile": "K-35-053-3_Elenovo_x2688_y1008.png", "mound_probability": 1.0 }, "geometry": { "type": "Point", "coordinates": [ 26.170249223562447, 42.453444583767642 ] } },
{ "type": "Feature", "properties": { "vote_count": 5, "source_tile": "K-35-053-3_Elenovo_x2688_y336.png", "mound_probability": 1.0 }, "geometry": { "type": "Point", "coordinates": [ 26.175853149336724, 42.473657034087815 ] } },
{ "type": "Feature", "properties": { "vote_count": 5, "source_tile": "K-35-053-3_Elenovo_x2688_y1680.png", "mound_probability": 0.95 }, "geometry": { "type": "Point", "coordinates": [ 26.173372988629051, 42.418137910012874 ] } },
{ "type": "Feature", "properties": { "vote_count": 5, "source_tile": "K-35-053-3_Elenovo_x3360_y0.png", "mound_probability": 0.75 }, "geometry": { "type": "Point", "coordinates": [ 26.215487905044387, 42.493133879637519 ] } },
{ "type": "Feature", "properties": { "vote_count": 5, "source_tile": "K-35-062-2_Rakovski_x1344_y336.png", "mound_probability": 1.0 }, "geometry": { "type": "Point", "coordinates": [ 24.829067460180326, 42.318112926637163 ] } },
{ "type": "Feature", "properties": { "vote_count": 5, "source_tile": "K-35-062-2_Rakovski_x1008_y0.png", "mound_probability": 1.0 }, "geometry": { "type": "Point", "coordinates": [ 24.813845020016537, 42.320815874879315 ] } },
{ "type": "Feature", "properties": { "vote_count": 5, "source_tile": "K-35-053-3_Elenovo_x3360_y672.png", "mound_probability": 1.0 }, "geometry": { "type": "Point", "coordinates": [ 26.202903689601388, 42.468707357880326 ] } },
{ "type": "Feature", "properties": { "vote_count": 5, "source_tile": "K-35-053-3_Elenovo_x3360_y336.png", "mound_probability": 0.4 }, "geometry": { "type": "Point", "coordinates": [ 26.20969189797848, 42.481555099667993 ] } },
{ "type": "Feature", "properties": { "vote_count": 5, "source_tile": "K-35-053-3_Elenovo_x3360_y336.png", "mound_probability": 1.0 }, "geometry": { "type": "Point", "coordinates": [ 26.216501256968282, 42.481126404517838 ] } },
{ "type": "Feature", "properties": { "vote_count": 5, "source_tile": "K-35-062-2_Rakovski_x1008_y1680.png", "mound_probability": 1.0 }, "geometry": { "type": "Point", "coordinates": [ 24.823257857197738, 42.250939297357498 ] } },
{ "type": "Feature", "properties": { "vote_count": 5, "source_tile": "K-35-062-2_Rakovski_x1344_y2016.png", "mound_probability": 1.0 }, "geometry": { "type": "Point", "coordinates": [ 24.831856008988325, 42.241772079797649 ] } },
{ "type": "Feature", "properties": { "vote_count": 5, "source_tile": "K-35-053-3_Elenovo_x3360_y1680.png", "mound_probability": 0.85 }, "geometry": { "type": "Point", "coordinates": [ 26.212491482250606, 42.417209174618449 ] } },
{ "type": "Feature", "properties": { "vote_count": 5, "source_tile": "K-35-053-3_Elenovo_x3360_y1680.png", "mound_probability": 0.95 }, "geometry": { "type": "Point", "coordinates": [ 26.210128598647444, 42.410876731200169 ] } },
{ "type": "Feature", "properties": { "vote_count": 5, "source_tile": "K-35-053-3_Elenovo_x3360_y2016.png", "mound_probability": 1.0 }, "geometry": { "type": "Point", "coordinates": [ 26.214914345383878, 42.408742558486651 ] } },
{ "type": "Feature", "properties": { "vote_count": 5, "source_tile": "K-35-053-3_Elenovo_x1008_y3024.png", "mound_probability": 1.0 }, "geometry": { "type": "Point", "coordinates": [ 26.063248392073675, 42.360412587790243 ] } },
{ "type": "Feature", "properties": { "vote_count": 5, "source_tile": "K-35-053-3_Elenovo_x3360_y2352.png", "mound_probability": 1.0 }, "geometry": { "type": "Point", "coordinates": [ 26.217565961566329, 42.384113536000307 ] } },
{ "type": "Feature", "properties": { "vote_count": 5, "source_tile": "K-35-062-2_Rakovski_x1344_y0.png", "mound_probability": 1.0 }, "geometry": { "type": "Point", "coordinates": [ 24.844490226578255, 42.320423499439372 ] } },
{ "type": "Feature", "properties": { "vote_count": 5, "source_tile": "K-35-062-2_Rakovski_x1344_y0.png", "mound_probability": 1.0 }, "geometry": { "type": "Point", "coordinates": [ 24.846226987092169, 42.327543393385483 ] } },
{ "type": "Feature", "properties": { "vote_count": 5, "source_tile": "K-35-062-2_Rakovski_x1680_y1680.png", "mound_probability": 1.0 }, "geometry": { "type": "Point", "coordinates": [ 24.866238304187821, 42.246583897133419 ] } },
{ "type": "Feature", "properties": { "vote_count": 5, "source_tile": "K-35-053-3_Elenovo_x3360_y0.png", "mound_probability": 1.0 }, "geometry": { "type": "Point", "coordinates": [ 26.221728335518485, 42.489468138867672 ] } },
{ "type": "Feature", "properties": { "vote_count": 5, "source_tile": "K-35-062-2_Rakovski_x1680_y2016.png", "mound_probability": 0.95 }, "geometry": { "type": "Point", "coordinates": [ 24.860050325405084, 42.237325832559073 ] } },
{ "type": "Feature", "properties": { "vote_count": 5, "source_tile": "K-35-062-2_Rakovski_x1344_y1008.png", "mound_probability": 1.0 }, "geometry": { "type": "Point", "coordinates": [ 24.847135550875148, 42.280765582792753 ] } },
{ "type": "Feature", "properties": { "vote_count": 5, "source_tile": "K-35-062-2_Rakovski_x1680_y1008.png", "mound_probability": 1.0 }, "geometry": { "type": "Point", "coordinates": [ 24.848128939308435, 42.280042702944357 ] } },
{ "type": "Feature", "properties": { "vote_count": 5, "source_tile": "K-35-062-2_Rakovski_x1680_y1008.png", "mound_probability": 1.0 }, "geometry": { "type": "Point", "coordinates": [ 24.859698189589093, 42.280609017517669 ] } },
{ "type": "Feature", "properties": { "vote_count": 5, "source_tile": "K-35-053-3_Elenovo_x3360_y2016.png", "mound_probability": 1.0 }, "geometry": { "type": "Point", "coordinates": [ 26.221584640241268, 42.400861685209001 ] } },
{ "type": "Feature", "properties": { "vote_count": 5, "source_tile": "K-35-053-3_Elenovo_x3696_y2352.png", "mound_probability": 1.0 }, "geometry": { "type": "Point", "coordinates": [ 26.227349436395262, 42.392521957134143 ] } },
{ "type": "Feature", "properties": { "vote_count": 5, "source_tile": "K-35-062-2_Rakovski_x1680_y0.png", "mound_probability": 1.0 }, "geometry": { "type": "Point", "coordinates": [ 24.84916410731034, 42.326600589267947 ] } },
{ "type": "Feature", "properties": { "vote_count": 5, "source_tile": "K-35-062-2_Rakovski_x1680_y0.png", "mound_probability": 1.0 }, "geometry": { "type": "Point", "coordinates": [ 24.852241002522298, 42.326187077526278 ] } },
{ "type": "Feature", "properties": { "vote_count": 5, "source_tile": "K-35-062-2_Rakovski_x2016_y0.png", "mound_probability": 0.95 }, "geometry": { "type": "Point", "coordinates": [ 24.868954334346444, 42.325648608937612 ] } },
{ "type": "Feature", "properties": { "vote_count": 5, "source_tile": "K-35-062-2_Rakovski_x1680_y0.png", "mound_probability": 0.95 }, "geometry": { "type": "Point", "coordinates": [ 24.848516560488452, 42.321427684660584 ] } },
{ "type": "Feature", "properties": { "vote_count": 5, "source_tile": "K-35-053-3_Elenovo_x3360_y1680.png", "mound_probability": 0.95 }, "geometry": { "type": "Point", "coordinates": [ 26.219647624165741, 42.417227360120556 ] } },
{ "type": "Feature", "properties": { "vote_count": 5, "source_tile": "K-35-053-3_Elenovo_x3696_y336.png", "mound_probability": 1.0 }, "geometry": { "type": "Point", "coordinates": [ 26.225682324494748, 42.481779177398423 ] } },
{ "type": "Feature", "properties": { "vote_count": 5, "source_tile": "K-35-062-2_Rakovski_x0_y2352.png", "mound_probability": 1.0 }, "geometry": { "type": "Point", "coordinates": [ 24.750704115597625, 42.215967559063486 ] } },
{ "type": "Feature", "properties": { "vote_count": 5, "source_tile": "K-35-062-2_Rakovski_x0_y2352.png", "mound_probability": 0.95 }, "geometry": { "type": "Point", "coordinates": [ 24.748770900841937, 42.213240306007307 ] } },
{ "type": "Feature", "properties": { "vote_count": 5, "source_tile": "K-35-053-3_Elenovo_x3360_y1008.png", "mound_probability": 1.0 }, "geometry": { "type": "Point", "coordinates": [ 26.221518559312667, 42.45296656540846 ] } },
{ "type": "Feature", "properties": { "vote_count": 5, "source_tile": "K-35-053-3_Elenovo_x672_y2688.png", "mound_probability": 0.85 }, "geometry": { "type": "Point", "coordinates": [ 26.058947516777671, 42.372849600010923 ] } },
{ "type": "Feature", "properties": { "vote_count": 5, "source_tile": "K-35-053-3_Elenovo_x3696_y2688.png", "mound_probability": 1.0 }, "geometry": { "type": "Point", "coordinates": [ 26.228928415151646, 42.372489167827879 ] } },
{ "type": "Feature", "properties": { "vote_count": 5, "source_tile": "K-35-053-3_Elenovo_x3696_y3024.png", "mound_probability": 0.75 }, "geometry": { "type": "Point", "coordinates": [ 26.227123165700352, 42.363743234140095 ] } },
{ "type": "Feature", "properties": { "vote_count": 5, "source_tile": "K-35-062-2_Rakovski_x1344_y336.png", "mound_probability": 0.15 }, "geometry": { "type": "Point", "coordinates": [ 24.833531547811976, 42.315255195698342 ] } },
{ "type": "Feature", "properties": { "vote_count": 5, "source_tile": "K-35-062-2_Rakovski_x1344_y336.png", "mound_probability": 1.0 }, "geometry": { "type": "Point", "coordinates": [ 24.833612901158713, 42.312076808867218 ] } },
{ "type": "Feature", "properties": { "vote_count": 5, "source_tile": "K-35-062-2_Rakovski_x1344_y336.png", "mound_probability": 1.0 }, "geometry": { "type": "Point", "coordinates": [ 24.841830839979071, 42.312701747024924 ] } },
{ "type": "Feature", "properties": { "vote_count": 5, "source_tile": "K-35-062-2_Rakovski_x1344_y336.png", "mound_probability": 1.0 }, "geometry": { "type": "Point", "coordinates": [ 24.841154760251694, 42.312196977287641 ] } },
{ "type": "Feature", "properties": { "vote_count": 5, "source_tile": "K-35-062-2_Rakovski_x1680_y336.png", "mound_probability": 1.0 }, "geometry": { "type": "Point", "coordinates": [ 24.847852555415727, 42.308610371949023 ] } },
{ "type": "Feature", "properties": { "vote_count": 5, "source_tile": "K-35-062-2_Rakovski_x1344_y336.png", "mound_probability": 0.2 }, "geometry": { "type": "Point", "coordinates": [ 24.843082219143273, 42.305931790199381 ] } },
{ "type": "Feature", "properties": { "vote_count": 5, "source_tile": "K-35-053-3_Elenovo_x1008_y2016.png", "mound_probability": 0.2 }, "geometry": { "type": "Point", "coordinates": [ 26.075087127465608, 42.397412352162931 ] } },
{ "type": "Feature", "properties": { "vote_count": 5, "source_tile": "K-35-053-3_Elenovo_x3360_y336.png", "mound_probability": 0.95 }, "geometry": { "type": "Point", "coordinates": [ 26.22187901530264, 42.480776244140046 ] } },
{ "type": "Feature", "properties": { "vote_count": 5, "source_tile": "K-35-053-3_Elenovo_x0_y1680.png", "mound_probability": 1.0 }, "geometry": { "type": "Point", "coordinates": [ 26.004833223877071, 42.413081763048005 ] } },
{ "type": "Feature", "properties": { "vote_count": 5, "source_tile": "K-35-053-3_Elenovo_x3696_y2016.png", "mound_probability": 1.0 }, "geometry": { "type": "Point", "coordinates": [ 26.230011265085409, 42.408204184514446 ] } },
{ "type": "Feature", "properties": { "vote_count": 5, "source_tile": "K-35-053-3_Elenovo_x1008_y0.png", "mound_probability": 1.0 }, "geometry": { "type": "Point", "coordinates": [ 26.077358903518473, 42.497540149270733 ] } },
{ "type": "Feature", "properties": { "vote_count": 5, "source_tile": "K-35-053-3_Elenovo_x1008_y0.png", "mound_probability": 1.0 }, "geometry": { "type": "Point", "coordinates": [ 26.071004466644464, 42.492570918720197 ] } },
{ "type": "Feature", "properties": { "vote_count": 5, "source_tile": "K-35-053-3_Elenovo_x1008_y336.png", "mound_probability": 0.2 }, "geometry": { "type": "Point", "coordinates": [ 26.076619132723398, 42.483928320322264 ] } },
{ "type": "Feature", "properties": { "vote_count": 5, "source_tile": "K-35-062-2_Rakovski_x2352_y1344.png", "mound_probability": 1.0 }, "geometry": { "type": "Point", "coordinates": [ 24.902596571542105, 42.259795870977257 ] } },
{ "type": "Feature", "properties": { "vote_count": 5, "source_tile": "K-35-062-2_Rakovski_x2352_y1680.png", "mound_probability": 1.0 }, "geometry": { "type": "Point", "coordinates": [ 24.904328786538521, 42.258040744206525 ] } },
{ "type": "Feature", "properties": { "vote_count": 5, "source_tile": "K-35-062-2_Rakovski_x2352_y1680.png", "mound_probability": 0.2 }, "geometry": { "type": "Point", "coordinates": [ 24.907998860049737, 42.256786978387645 ] } },
{ "type": "Feature", "properties": { "vote_count": 5, "source_tile": "K-35-053-3_Elenovo_x1008_y3360.png", "mound_probability": 1.0 }, "geometry": { "type": "Point", "coordinates": [ 26.08039862853936, 42.34692192644475 ] } },
{ "type": "Feature", "properties": { "vote_count": 5, "source_tile": "K-35-062-2_Rakovski_x1680_y336.png", "mound_probability": 0.95 }, "geometry": { "type": "Point", "coordinates": [ 24.849925858147966, 42.314812487481909 ] } },
{ "type": "Feature", "properties": { "vote_count": 5, "source_tile": "K-35-062-2_Rakovski_x1680_y336.png", "mound_probability": 0.85 }, "geometry": { "type": "Point", "coordinates": [ 24.855990315575131, 42.311295241856079 ] } },
{ "type": "Feature", "properties": { "vote_count": 5, "source_tile": "K-35-053-3_Elenovo_x1008_y3360.png", "mound_probability": 0.95 }, "geometry": { "type": "Point", "coordinates": [ 26.075504034743286, 42.346933242518368 ] } },
{ "type": "Feature", "properties": { "vote_count": 5, "source_tile": "K-35-053-3_Elenovo_x1008_y3360.png", "mound_probability": 1.0 }, "geometry": { "type": "Point", "coordinates": [ 26.08005939447138, 42.346880221248007 ] } },
{ "type": "Feature", "properties": { "vote_count": 5, "source_tile": "K-35-053-3_Elenovo_x3696_y2688.png", "mound_probability": 1.0 }, "geometry": { "type": "Point", "coordinates": [ 26.232935373028983, 42.370077572773511 ] } },
{ "type": "Feature", "properties": { "vote_count": 5, "source_tile": "K-35-053-3_Elenovo_x3696_y2688.png", "mound_probability": 0.2 }, "geometry": { "type": "Point", "coordinates": [ 26.233368624968247, 42.36878464521277 ] } },
{ "type": "Feature", "properties": { "vote_count": 5, "source_tile": "K-35-053-3_Elenovo_x3696_y3024.png", "mound_probability": 1.0 }, "geometry": { "type": "Point", "coordinates": [ 26.239620883280274, 42.359078860494435 ] } },
{ "type": "Feature", "properties": { "vote_count": 5, "source_tile": "K-35-053-3_Elenovo_x3696_y2688.png", "mound_probability": 0.2 }, "geometry": { "type": "Point", "coordinates": [ 26.241110571335422, 42.368191115586008 ] } },
{ "type": "Feature", "properties": { "vote_count": 5, "source_tile": "K-35-053-3_Elenovo_x3696_y3024.png", "mound_probability": 1.0 }, "geometry": { "type": "Point", "coordinates": [ 26.242999547527319, 42.362921201384488 ] } },
{ "type": "Feature", "properties": { "vote_count": 5, "source_tile": "K-35-053-3_Elenovo_x3696_y2688.png", "mound_probability": 0.95 }, "geometry": { "type": "Point", "coordinates": [ 26.237581957856534, 42.372704885950604 ] } },
{ "type": "Feature", "properties": { "vote_count": 5, "source_tile": "K-35-053-3_Elenovo_x3696_y672.png", "mound_probability": 0.95 }, "geometry": { "type": "Point", "coordinates": [ 26.232085048768116, 42.468226118391492 ] } },
{ "type": "Feature", "properties": { "vote_count": 5, "source_tile": "K-35-053-3_Elenovo_x3696_y672.png", "mound_probability": 0.95 }, "geometry": { "type": "Point", "coordinates": [ 26.233884147160143, 42.464957945056277 ] } },
{ "type": "Feature", "properties": { "vote_count": 5, "source_tile": "K-35-053-3_Elenovo_x3696_y2352.png", "mound_probability": 1.0 }, "geometry": { "type": "Point", "coordinates": [ 26.230908189493974, 42.390105945482979 ] } },
{ "type": "Feature", "properties": { "vote_count": 5, "source_tile": "K-35-053-3_Elenovo_x3696_y2352.png", "mound_probability": 0.85 }, "geometry": { "type": "Point", "coordinates": [ 26.231170204406855, 42.390182205029454 ] } },
{ "type": "Feature", "properties": { "vote_count": 5, "source_tile": "K-35-053-3_Elenovo_x3696_y2352.png", "mound_probability": 0.85 }, "geometry": { "type": "Point", "coordinates": [ 26.241745066953264, 42.391901211722001 ] } },
{ "type": "Feature", "properties": { "vote_count": 5, "source_tile": "K-35-053-3_Elenovo_x3696_y2352.png", "mound_probability": 0.75 }, "geometry": { "type": "Point", "coordinates": [ 26.231919651034776, 42.384514674034733 ] } },
{ "type": "Feature", "properties": { "vote_count": 5, "source_tile": "K-35-053-3_Elenovo_x3696_y2352.png", "mound_probability": 0.95 }, "geometry": { "type": "Point", "coordinates": [ 26.236211053109038, 42.38175731122076 ] } },
{ "type": "Feature", "properties": { "vote_count": 5, "source_tile": "K-35-053-3_Elenovo_x4032_y1680.png", "mound_probability": 1.0 }, "geometry": { "type": "Point", "coordinates": [ 26.24777084823398, 42.409704425393002 ] } },
{ "type": "Feature", "properties": { "vote_count": 5, "source_tile": "K-35-053-3_Elenovo_x4032_y2016.png", "mound_probability": 1.0 }, "geometry": { "type": "Point", "coordinates": [ 26.248208636099204, 42.405968776869841 ] } },
{ "type": "Feature", "properties": { "vote_count": 5, "source_tile": "K-35-053-3_Elenovo_x4032_y2016.png", "mound_probability": 1.0 }, "geometry": { "type": "Point", "coordinates": [ 26.247368446099376, 42.402392370246162 ] } },
{ "type": "Feature", "properties": { "vote_count": 5, "source_tile": "K-35-062-2_Rakovski_x1680_y672.png", "mound_probability": 0.2 }, "geometry": { "type": "Point", "coordinates": [ 24.854764936741319, 42.303347193106738 ] } },
{ "type": "Feature", "properties": { "vote_count": 5, "source_tile": "K-35-062-2_Rakovski_x1680_y672.png", "mound_probability": 0.85 }, "geometry": { "type": "Point", "coordinates": [ 24.855680445673343, 42.30008840125614 ] } },
{ "type": "Feature", "properties": { "vote_count": 5, "source_tile": "K-35-062-2_Rakovski_x0_y1008.png", "mound_probability": 0.95 }, "geometry": { "type": "Point", "coordinates": [ 24.759785152861593, 42.271804930423933 ] } },
{ "type": "Feature", "properties": { "vote_count": 5, "source_tile": "K-35-062-2_Rakovski_x0_y1344.png", "mound_probability": 0.85 }, "geometry": { "type": "Point", "coordinates": [ 24.765853327419638, 42.269940018019781 ] } },
{ "type": "Feature", "properties": { "vote_count": 5, "source_tile": "K-35-062-2_Rakovski_x336_y1344.png", "mound_probability": 1.0 }, "geometry": { "type": "Point", "coordinates": [ 24.778145216256895, 42.267422376235643 ] } },
{ "type": "Feature", "properties": { "vote_count": 5, "source_tile": "K-35-062-2_Rakovski_x336_y1344.png", "mound_probability": 0.85 }, "geometry": { "type": "Point", "coordinates": [ 24.776145753058447, 42.268397188108452 ] } },
{ "type": "Feature", "properties": { "vote_count": 5, "source_tile": "K-35-062-2_Rakovski_x336_y1344.png", "mound_probability": 0.85 }, "geometry": { "type": "Point", "coordinates": [ 24.773483961463345, 42.266694541316859 ] } },
{ "type": "Feature", "properties": { "vote_count": 5, "source_tile": "K-35-062-2_Rakovski_x336_y1344.png", "mound_probability": 0.95 }, "geometry": { "type": "Point", "coordinates": [ 24.777882659065106, 42.263240014069019 ] } },
{ "type": "Feature", "properties": { "vote_count": 5, "source_tile": "K-35-062-2_Rakovski_x336_y1344.png", "mound_probability": 0.3 }, "geometry": { "type": "Point", "coordinates": [ 24.775062050602042, 42.25674076962121 ] } },
{ "type": "Feature", "properties": { "vote_count": 5, "source_tile": "K-35-062-2_Rakovski_x336_y1344.png", "mound_probability": 0.1 }, "geometry": { "type": "Point", "coordinates": [ 24.771092472420001, 42.255827970652831 ] } },
{ "type": "Feature", "properties": { "vote_count": 5, "source_tile": "K-35-062-2_Rakovski_x0_y1344.png", "mound_probability": 1.0 }, "geometry": { "type": "Point", "coordinates": [ 24.763430744085092, 42.261231763564162 ] } },
{ "type": "Feature", "properties": { "vote_count": 5, "source_tile": "K-35-062-2_Rakovski_x0_y1344.png", "mound_probability": 1.0 }, "geometry": { "type": "Point", "coordinates": [ 24.764309724779839, 42.261879795692074 ] } },
{ "type": "Feature", "properties": { "vote_count": 5, "source_tile": "K-35-053-3_Elenovo_x4032_y3024.png", "mound_probability": 1.0 }, "geometry": { "type": "Point", "coordinates": [ 26.245592539955805, 42.358697717048798 ] } },
{ "type": "Feature", "properties": { "vote_count": 5, "source_tile": "K-35-053-3_Elenovo_x672_y2016.png", "mound_probability": 1.0 }, "geometry": { "type": "Point", "coordinates": [ 26.040054799570676, 42.403735493902595 ] } },
{ "type": "Feature", "properties": { "vote_count": 5, "source_tile": "K-35-053-3_Elenovo_x672_y2016.png", "mound_probability": 0.4 }, "geometry": { "type": "Point", "coordinates": [ 26.040376020160856, 42.399378542509567 ] } },
{ "type": "Feature", "properties": { "vote_count": 5, "source_tile": "K-35-053-3_Elenovo_x336_y2352.png", "mound_probability": 0.95 }, "geometry": { "type": "Point", "coordinates": [ 26.034138872203272, 42.390256452103067 ] } },
{ "type": "Feature", "properties": { "vote_count": 5, "source_tile": "K-35-053-3_Elenovo_x336_y2352.png", "mound_probability": 0.2 }, "geometry": { "type": "Point", "coordinates": [ 26.039643203007213, 42.389948813236884 ] } },
{ "type": "Feature", "properties": { "vote_count": 5, "source_tile": "K-35-053-3_Elenovo_x672_y2352.png", "mound_probability": 1.0 }, "geometry": { "type": "Point", "coordinates": [ 26.041149331778268, 42.384283261418297 ] } },
{ "type": "Feature", "properties": { "vote_count": 5, "source_tile": "K-35-053-3_Elenovo_x672_y2688.png", "mound_probability": 1.0 }, "geometry": { "type": "Point", "coordinates": [ 26.040521675377683, 42.371477116993049 ] } },
{ "type": "Feature", "properties": { "vote_count": 5, "source_tile": "K-35-062-2_Rakovski_x336_y672.png", "mound_probability": 1.0 }, "geometry": { "type": "Point", "coordinates": [ 24.770419620706541, 42.300656090677805 ] } },
{ "type": "Feature", "properties": { "vote_count": 5, "source_tile": "K-35-062-2_Rakovski_x336_y672.png", "mound_probability": 1.0 }, "geometry": { "type": "Point", "coordinates": [ 24.776650126443855, 42.300426693630293 ] } },
{ "type": "Feature", "properties": { "vote_count": 5, "source_tile": "K-35-053-3_Elenovo_x4032_y2352.png", "mound_probability": 0.75 }, "geometry": { "type": "Point", "coordinates": [ 26.245172714776825, 42.390592323922249 ] } },
{ "type": "Feature", "properties": { "vote_count": 5, "source_tile": "K-35-053-3_Elenovo_x3696_y2352.png", "mound_probability": 0.15 }, "geometry": { "type": "Point", "coordinates": [ 26.231574445480234, 42.390287139090631 ] } },
{ "type": "Feature", "properties": { "vote_count": 5, "source_tile": "K-35-053-3_Elenovo_x1344_y2352.png", "mound_probability": 1.0 }, "geometry": { "type": "Point", "coordinates": [ 26.100164440259483, 42.388168406335353 ] } },
{ "type": "Feature", "properties": { "vote_count": 5, "source_tile": "K-35-053-3_Elenovo_x336_y336.png", "mound_probability": 1.0 }, "geometry": { "type": "Point", "coordinates": [ 26.034001857038319, 42.471334671746213 ] } },
{ "type": "Feature", "properties": { "vote_count": 5, "source_tile": "K-35-053-3_Elenovo_x4032_y3024.png", "mound_probability": 0.1 }, "geometry": { "type": "Point", "coordinates": [ 26.247749908464005, 42.354539751559003 ] } },
{ "type": "Feature", "properties": { "vote_count": 5, "source_tile": "K-35-053-3_Elenovo_x672_y672.png", "mound_probability": 1.0 }, "geometry": { "type": "Point", "coordinates": [ 26.043912923606538, 42.454311474453448 ] } },
{ "type": "Feature", "properties": { "vote_count": 5, "source_tile": "K-35-053-3_Elenovo_x1008_y2016.png", "mound_probability": 0.35 }, "geometry": { "type": "Point", "coordinates": [ 26.07536879830791, 42.405611536664068 ] } },
{ "type": "Feature", "properties": { "vote_count": 5, "source_tile": "K-35-053-3_Elenovo_x1008_y0.png", "mound_probability": 0.75 }, "geometry": { "type": "Point", "coordinates": [ 26.058943203490067, 42.499045873104222 ] } },
{ "type": "Feature", "properties": { "vote_count": 5, "source_tile": "K-35-053-3_Elenovo_x672_y336.png", "mound_probability": 1.0 }, "geometry": { "type": "Point", "coordinates": [ 26.048229837515102, 42.473490352487985 ] } },
{ "type": "Feature", "properties": { "vote_count": 5, "source_tile": "K-35-053-3_Elenovo_x336_y2688.png", "mound_probability": 1.0 }, "geometry": { "type": "Point", "coordinates": [ 26.036541489897893, 42.365692790700209 ] } },
{ "type": "Feature", "properties": { "vote_count": 5, "source_tile": "K-35-053-3_Elenovo_x672_y2016.png", "mound_probability": 0.95 }, "geometry": { "type": "Point", "coordinates": [ 26.050651209735978, 42.401000703991919 ] } },
{ "type": "Feature", "properties": { "vote_count": 5, "source_tile": "K-35-062-2_Rakovski_x1344_y1344.png", "mound_probability": 0.95 }, "geometry": { "type": "Point", "coordinates": [ 24.842408681353533, 42.271789607029383 ] } },
{ "type": "Feature", "properties": { "vote_count": 5, "source_tile": "K-35-062-2_Rakovski_x1344_y1344.png", "mound_probability": 0.15 }, "geometry": { "type": "Point", "coordinates": [ 24.834516461512386, 42.265868206567156 ] } },
{ "type": "Feature", "properties": { "vote_count": 5, "source_tile": "K-35-062-2_Rakovski_x0_y0.png", "mound_probability": 1.0 }, "geometry": { "type": "Point", "coordinates": [ 24.748951455019156, 42.322616066561416 ] } },
{ "type": "Feature", "properties": { "vote_count": 5, "source_tile": "K-35-053-3_Elenovo_x4032_y3024.png", "mound_probability": 0.85 }, "geometry": { "type": "Point", "coordinates": [ 26.247888484518832, 42.353741924108633 ] } },
{ "type": "Feature", "properties": { "vote_count": 5, "source_tile": "K-35-053-3_Elenovo_x4032_y3024.png", "mound_probability": 0.15 }, "geometry": { "type": "Point", "coordinates": [ 26.246497581045759, 42.351773634116682 ] } },
{ "type": "Feature", "properties": { "vote_count": 5, "source_tile": "K-35-053-3_Elenovo_x3696_y3024.png", "mound_probability": 1.0 }, "geometry": { "type": "Point", "coordinates": [ 26.243702752090321, 42.351234147716617 ] } },
{ "type": "Feature", "properties": { "vote_count": 5, "source_tile": "K-35-062-2_Rakovski_x2016_y2016.png", "mound_probability": 1.0 }, "geometry": { "type": "Point", "coordinates": [ 24.871132492466938, 42.239715540087147 ] } },
{ "type": "Feature", "properties": { "vote_count": 5, "source_tile": "K-35-062-2_Rakovski_x0_y1344.png", "mound_probability": 1.0 }, "geometry": { "type": "Point", "coordinates": [ 24.751252508963308, 42.258286866674446 ] } },
{ "type": "Feature", "properties": { "vote_count": 5, "source_tile": "K-35-062-2_Rakovski_x1008_y1008.png", "mound_probability": 1.0 }, "geometry": { "type": "Point", "coordinates": [ 24.824190672913019, 42.272745663397508 ] } },
{ "type": "Feature", "properties": { "vote_count": 5, "source_tile": "K-35-062-2_Rakovski_x1008_y1344.png", "mound_probability": 0.95 }, "geometry": { "type": "Point", "coordinates": [ 24.825709398542884, 42.271547415648605 ] } },
{ "type": "Feature", "properties": { "vote_count": 5, "source_tile": "K-35-062-2_Rakovski_x2016_y336.png", "mound_probability": 1.0 }, "geometry": { "type": "Point", "coordinates": [ 24.871022528811647, 42.306455450844993 ] } },
{ "type": "Feature", "properties": { "vote_count": 5, "source_tile": "K-35-062-2_Rakovski_x2016_y336.png", "mound_probability": 0.85 }, "geometry": { "type": "Point", "coordinates": [ 24.868876177240576, 42.304650905873977 ] } },
{ "type": "Feature", "properties": { "vote_count": 5, "source_tile": "K-35-062-2_Rakovski_x1680_y672.png", "mound_probability": 0.95 }, "geometry": { "type": "Point", "coordinates": [ 24.866405578346033, 42.302781854198578 ] } },
{ "type": "Feature", "properties": { "vote_count": 5, "source_tile": "K-35-062-2_Rakovski_x1680_y672.png", "mound_probability": 1.0 }, "geometry": { "type": "Point", "coordinates": [ 24.865582118859066, 42.299849287595592 ] } },
{ "type": "Feature", "properties": { "vote_count": 5, "source_tile": "K-35-062-2_Rakovski_x1680_y672.png", "mound_probability": 1.0 }, "geometry": { "type": "Point", "coordinates": [ 24.86693791003114, 42.298765049538709 ] } },
{ "type": "Feature", "properties": { "vote_count": 5, "source_tile": "K-35-062-2_Rakovski_x2016_y0.png", "mound_probability": 1.0 }, "geometry": { "type": "Point", "coordinates": [ 24.873157909485244, 42.323271415149684 ] } },
{ "type": "Feature", "properties": { "vote_count": 5, "source_tile": "K-35-062-2_Rakovski_x2016_y0.png", "mound_probability": 0.95 }, "geometry": { "type": "Point", "coordinates": [ 24.872581612584156, 42.321420277405934 ] } },
{ "type": "Feature", "properties": { "vote_count": 5, "source_tile": "K-35-062-2_Rakovski_x2016_y336.png", "mound_probability": 0.95 }, "geometry": { "type": "Point", "coordinates": [ 24.88096326191005, 42.318946851657465 ] } },
{ "type": "Feature", "properties": { "vote_count": 5, "source_tile": "K-35-062-2_Rakovski_x0_y672.png", "mound_probability": 1.0 }, "geometry": { "type": "Point", "coordinates": [ 24.761900359246386, 42.289930815721391 ] } },
{ "type": "Feature", "properties": { "vote_count": 5, "source_tile": "K-35-062-2_Rakovski_x0_y1008.png", "mound_probability": 1.0 }, "geometry": { "type": "Point", "coordinates": [ 24.762018466285998, 42.283059847023495 ] } },
{ "type": "Feature", "properties": { "vote_count": 5, "source_tile": "K-35-062-2_Rakovski_x2016_y2016.png", "mound_probability": 1.0 }, "geometry": { "type": "Point", "coordinates": [ 24.870736193463237, 42.239588423877827 ] } },
{ "type": "Feature", "properties": { "vote_count": 5, "source_tile": "K-35-062-2_Rakovski_x2016_y2016.png", "mound_probability": 0.1 }, "geometry": { "type": "Point", "coordinates": [ 24.877659261479586, 42.230889778699435 ] } },
{ "type": "Feature", "properties": { "vote_count": 5, "source_tile": "K-35-062-2_Rakovski_x2016_y2352.png", "mound_probability": 1.0 }, "geometry": { "type": "Point", "coordinates": [ 24.882947185609424, 42.226685977170561 ] } },
{ "type": "Feature", "properties": { "vote_count": 5, "source_tile": "K-35-062-2_Rakovski_x1008_y336.png", "mound_probability": 0.98 }, "geometry": { "type": "Point", "coordinates": [ 24.823643316429926, 42.307901022212853 ] } },
{ "type": "Feature", "properties": { "vote_count": 5, "source_tile": "K-35-062-2_Rakovski_x1008_y336.png", "mound_probability": 1.0 }, "geometry": { "type": "Point", "coordinates": [ 24.819741694837884, 42.306663682583789 ] } },
{ "type": "Feature", "properties": { "vote_count": 5, "source_tile": "K-35-062-2_Rakovski_x2352_y2352.png", "mound_probability": 1.0 }, "geometry": { "type": "Point", "coordinates": [ 24.891199765151445, 42.227426433407516 ] } },
{ "type": "Feature", "properties": { "vote_count": 5, "source_tile": "K-35-062-2_Rakovski_x2352_y2352.png", "mound_probability": 1.0 }, "geometry": { "type": "Point", "coordinates": [ 24.892530784726308, 42.227586718283881 ] } },
{ "type": "Feature", "properties": { "vote_count": 5, "source_tile": "K-35-062-2_Rakovski_x2352_y2352.png", "mound_probability": 0.95 }, "geometry": { "type": "Point", "coordinates": [ 24.892405863823718, 42.220989529452254 ] } },
{ "type": "Feature", "properties": { "vote_count": 5, "source_tile": "K-35-062-2_Rakovski_x2352_y2688.png", "mound_probability": 1.0 }, "geometry": { "type": "Point", "coordinates": [ 24.898338934297477, 42.203226098391255 ] } },
{ "type": "Feature", "properties": { "vote_count": 5, "source_tile": "K-35-053-3_Elenovo_x672_y2016.png", "mound_probability": 1.0 }, "geometry": { "type": "Point", "coordinates": [ 26.043266912323752, 42.405543887161009 ] } },
{ "type": "Feature", "properties": { "vote_count": 5, "source_tile": "K-35-062-2_Rakovski_x1008_y1008.png", "mound_probability": 1.0 }, "geometry": { "type": "Point", "coordinates": [ 24.823691268537786, 42.273845660471515 ] } },
{ "type": "Feature", "properties": { "vote_count": 5, "source_tile": "K-35-062-2_Rakovski_x2352_y2016.png", "mound_probability": 0.95 }, "geometry": { "type": "Point", "coordinates": [ 24.897068431114903, 42.23461247897049 ] } },
{ "type": "Feature", "properties": { "vote_count": 5, "source_tile": "K-35-053-3_Elenovo_x672_y3024.png", "mound_probability": 0.95 }, "geometry": { "type": "Point", "coordinates": [ 26.042138218573619, 42.358276486705378 ] } },
{ "type": "Feature", "properties": { "vote_count": 5, "source_tile": "K-35-053-3_Elenovo_x336_y3024.png", "mound_probability": 1.0 }, "geometry": { "type": "Point", "coordinates": [ 26.038650067195505, 42.356996781387814 ] } },
{ "type": "Feature", "properties": { "vote_count": 5, "source_tile": "K-35-053-3_Elenovo_x336_y1680.png", "mound_probability": 1.0 }, "geometry": { "type": "Point", "coordinates": [ 26.0352369820604, 42.415712448893409 ] } },
{ "type": "Feature", "properties": { "vote_count": 5, "source_tile": "K-35-062-2_Rakovski_x3024_y2016.png", "mound_probability": 0.85 }, "geometry": { "type": "Point", "coordinates": [ 24.950687340576881, 42.244450222843071 ] } },
{ "type": "Feature", "properties": { "vote_count": 5, "source_tile": "K-35-053-3_Elenovo_x672_y2352.png", "mound_probability": 0.4 }, "geometry": { "type": "Point", "coordinates": [ 26.044982429212244, 42.392588416010121 ] } },
{ "type": "Feature", "properties": { "vote_count": 5, "source_tile": "K-35-053-3_Elenovo_x672_y2352.png", "mound_probability": 0.85 }, "geometry": { "type": "Point", "coordinates": [ 26.050494370370203, 42.39062308984763 ] } },
{ "type": "Feature", "properties": { "vote_count": 5, "source_tile": "K-35-053-3_Elenovo_x672_y2352.png", "mound_probability": 1.0 }, "geometry": { "type": "Point", "coordinates": [ 26.05203148429009, 42.391027811416762 ] } },
{ "type": "Feature", "properties": { "vote_count": 5, "source_tile": "K-35-053-3_Elenovo_x672_y2352.png", "mound_probability": 0.15 }, "geometry": { "type": "Point", "coordinates": [ 26.047337956835332, 42.388580591276288 ] } },
{ "type": "Feature", "properties": { "vote_count": 5, "source_tile": "K-35-053-3_Elenovo_x672_y2352.png", "mound_probability": 0.1 }, "geometry": { "type": "Point", "coordinates": [ 26.048234985867687, 42.388559887560376 ] } },
{ "type": "Feature", "properties": { "vote_count": 5, "source_tile": "K-35-053-3_Elenovo_x672_y2352.png", "mound_probability": 0.1 }, "geometry": { "type": "Point", "coordinates": [ 26.047319260077582, 42.387717601708289 ] } },
{ "type": "Feature", "properties": { "vote_count": 5, "source_tile": "K-35-053-3_Elenovo_x672_y2352.png", "mound_probability": 0.1 }, "geometry": { "type": "Point", "coordinates": [ 26.04585837318113, 42.387135282447829 ] } },
{ "type": "Feature", "properties": { "vote_count": 5, "source_tile": "K-35-053-3_Elenovo_x672_y2352.png", "mound_probability": 1.0 }, "geometry": { "type": "Point", "coordinates": [ 26.046852589247319, 42.387010287359978 ] } },
{ "type": "Feature", "properties": { "vote_count": 5, "source_tile": "K-35-062-2_Rakovski_x2352_y2016.png", "mound_probability": 1.0 }, "geometry": { "type": "Point", "coordinates": [ 24.901611795303307, 42.231876222848896 ] } },
{ "type": "Feature", "properties": { "vote_count": 5, "source_tile": "K-35-062-2_Rakovski_x2352_y2688.png", "mound_probability": 1.0 }, "geometry": { "type": "Point", "coordinates": [ 24.9072389754303, 42.202837363484541 ] } },
{ "type": "Feature", "properties": { "vote_count": 5, "source_tile": "K-35-062-2_Rakovski_x2352_y2016.png", "mound_probability": 1.0 }, "geometry": { "type": "Point", "coordinates": [ 24.901955562555177, 42.231568657601684 ] } },
{ "type": "Feature", "properties": { "vote_count": 5, "source_tile": "K-35-062-2_Rakovski_x2688_y1344.png", "mound_probability": 1.0 }, "geometry": { "type": "Point", "coordinates": [ 24.914550024102819, 42.268012902812295 ] } },
{ "type": "Feature", "properties": { "vote_count": 5, "source_tile": "K-35-062-2_Rakovski_x2688_y1344.png", "mound_probability": 1.0 }, "geometry": { "type": "Point", "coordinates": [ 24.915603684298954, 42.26757646948559 ] } },
{ "type": "Feature", "properties": { "vote_count": 5, "source_tile": "K-35-062-2_Rakovski_x2352_y2688.png", "mound_probability": 0.95 }, "geometry": { "type": "Point", "coordinates": [ 24.901579734875433, 42.205898257641465 ] } },
{ "type": "Feature", "properties": { "vote_count": 5, "source_tile": "K-35-062-2_Rakovski_x2688_y1344.png", "mound_probability": 1.0 }, "geometry": { "type": "Point", "coordinates": [ 24.917899652449336, 42.263598098782957 ] } },
{ "type": "Feature", "properties": { "vote_count": 5, "source_tile": "K-35-062-2_Rakovski_x2016_y1008.png", "mound_probability": 0.85 }, "geometry": { "type": "Point", "coordinates": [ 24.875073748628399, 42.27846696256762 ] } },
{ "type": "Feature", "properties": { "vote_count": 5, "source_tile": "K-35-062-2_Rakovski_x0_y336.png", "mound_probability": 1.0 }, "geometry": { "type": "Point", "coordinates": [ 24.760079887817021, 42.301797483818795 ] } },
{ "type": "Feature", "properties": { "vote_count": 5, "source_tile": "K-35-062-2_Rakovski_x2688_y0.png", "mound_probability": 1.0 }, "geometry": { "type": "Point", "coordinates": [ 24.912036868376067, 42.32184612482807 ] } },
{ "type": "Feature", "properties": { "vote_count": 5, "source_tile": "K-35-062-2_Rakovski_x2688_y336.png", "mound_probability": 1.0 }, "geometry": { "type": "Point", "coordinates": [ 24.917071170391456, 42.316473215819471 ] } },
{ "type": "Feature", "properties": { "vote_count": 5, "source_tile": "K-35-062-2_Rakovski_x2688_y336.png", "mound_probability": 1.0 }, "geometry": { "type": "Point", "coordinates": [ 24.916541352780978, 42.312526398385636 ] } },
{ "type": "Feature", "properties": { "vote_count": 5, "source_tile": "K-35-062-2_Rakovski_x336_y336.png", "mound_probability": 1.0 }, "geometry": { "type": "Point", "coordinates": [ 24.775029222362882, 42.305917625088796 ] } },
{ "type": "Feature", "properties": { "vote_count": 5, "source_tile": "K-35-062-2_Rakovski_x336_y672.png", "mound_probability": 1.0 }, "geometry": { "type": "Point", "coordinates": [ 24.770729347501383, 42.30187204061528 ] } },
{ "type": "Feature", "properties": { "vote_count": 5, "source_tile": "K-35-062-2_Rakovski_x2688_y1344.png", "mound_probability": 1.0 }, "geometry": { "type": "Point", "coordinates": [ 24.920457456106799, 42.268436527748456 ] } },
{ "type": "Feature", "properties": { "vote_count": 5, "source_tile": "K-35-062-2_Rakovski_x2688_y1344.png", "mound_probability": 0.2 }, "geometry": { "type": "Point", "coordinates": [ 24.928751978401536, 42.261612687530061 ] } },
{ "type": "Feature", "properties": { "vote_count": 5, "source_tile": "K-35-053-3_Elenovo_x672_y672.png", "mound_probability": 0.75 }, "geometry": { "type": "Point", "coordinates": [ 26.058311894850974, 42.4610614061503 ] } },
{ "type": "Feature", "properties": { "vote_count": 5, "source_tile": "K-35-062-2_Rakovski_x2688_y336.png", "mound_probability": 1.0 }, "geometry": { "type": "Point", "coordinates": [ 24.928545104349464, 42.31964539123706 ] } },
{ "type": "Feature", "properties": { "vote_count": 5, "source_tile": "K-35-062-2_Rakovski_x3024_y0.png", "mound_probability": 1.0 }, "geometry": { "type": "Point", "coordinates": [ 24.930910706715075, 42.32306340814992 ] } },
{ "type": "Feature", "properties": { "vote_count": 5, "source_tile": "K-35-062-2_Rakovski_x2688_y336.png", "mound_probability": 1.0 }, "geometry": { "type": "Point", "coordinates": [ 24.921725317036305, 42.317082278953343 ] } },
{ "type": "Feature", "properties": { "vote_count": 5, "source_tile": "K-35-062-2_Rakovski_x3024_y0.png", "mound_probability": 1.0 }, "geometry": { "type": "Point", "coordinates": [ 24.937351745865737, 42.326445059630494 ] } },
{ "type": "Feature", "properties": { "vote_count": 5, "source_tile": "K-35-062-2_Rakovski_x3024_y336.png", "mound_probability": 1.0 }, "geometry": { "type": "Point", "coordinates": [ 24.92968634158234, 42.311682864755724 ] } },
{ "type": "Feature", "properties": { "vote_count": 5, "source_tile": "K-35-062-2_Rakovski_x2688_y336.png", "mound_probability": 1.0 }, "geometry": { "type": "Point", "coordinates": [ 24.921597943713188, 42.311384769999719 ] } },
{ "type": "Feature", "properties": { "vote_count": 5, "source_tile": "K-35-062-2_Rakovski_x2688_y2688.png", "mound_probability": 1.0 }, "geometry": { "type": "Point", "coordinates": [ 24.926417663112669, 42.204647908458014 ] } },
{ "type": "Feature", "properties": { "vote_count": 5, "source_tile": "K-35-062-2_Rakovski_x2688_y2688.png", "mound_probability": 1.0 }, "geometry": { "type": "Point", "coordinates": [ 24.931089829950327, 42.200862469496897 ] } },
{ "type": "Feature", "properties": { "vote_count": 5, "source_tile": "K-35-062-2_Rakovski_x2688_y3024.png", "mound_probability": 0.95 }, "geometry": { "type": "Point", "coordinates": [ 24.927454138737748, 42.197159048130445 ] } },
{ "type": "Feature", "properties": { "vote_count": 5, "source_tile": "K-35-062-2_Rakovski_x2688_y3360.png", "mound_probability": 0.75 }, "geometry": { "type": "Point", "coordinates": [ 24.926050508729968, 42.174775067005676 ] } },
{ "type": "Feature", "properties": { "vote_count": 5, "source_tile": "K-35-062-2_Rakovski_x3024_y3360.png", "mound_probability": 1.0 }, "geometry": { "type": "Point", "coordinates": [ 24.938649660790261, 42.174596530209882 ] } },
{ "type": "Feature", "properties": { "vote_count": 5, "source_tile": "K-35-062-2_Rakovski_x3024_y3360.png", "mound_probability": 1.0 }, "geometry": { "type": "Point", "coordinates": [ 24.942428103801706, 42.171681704502731 ] } },
{ "type": "Feature", "properties": { "vote_count": 5, "source_tile": "K-35-062-2_Rakovski_x3024_y1680.png", "mound_probability": 0.95 }, "geometry": { "type": "Point", "coordinates": [ 24.931309884477404, 42.247809922563427 ] } },
{ "type": "Feature", "properties": { "vote_count": 5, "source_tile": "K-35-062-2_Rakovski_x3024_y0.png", "mound_probability": 0.85 }, "geometry": { "type": "Point", "coordinates": [ 24.934382114900227, 42.330274190714434 ] } },
{ "type": "Feature", "properties": { "vote_count": 5, "source_tile": "K-35-062-2_Rakovski_x3024_y0.png", "mound_probability": 1.0 }, "geometry": { "type": "Point", "coordinates": [ 24.936789082359603, 42.332239707505202 ] } },
{ "type": "Feature", "properties": { "vote_count": 5, "source_tile": "K-35-062-2_Rakovski_x3024_y1008.png", "mound_probability": 0.95 }, "geometry": { "type": "Point", "coordinates": [ 24.940240100172552, 42.286327602954941 ] } },
{ "type": "Feature", "properties": { "vote_count": 5, "source_tile": "K-35-062-2_Rakovski_x3024_y1008.png", "mound_probability": 0.95 }, "geometry": { "type": "Point", "coordinates": [ 24.930888272315876, 42.276345808222509 ] } },
{ "type": "Feature", "properties": { "vote_count": 5, "source_tile": "K-35-062-2_Rakovski_x336_y1008.png", "mound_probability": 1.0 }, "geometry": { "type": "Point", "coordinates": [ 24.771340136455535, 42.278261205663625 ] } },
{ "type": "Feature", "properties": { "vote_count": 5, "source_tile": "K-35-062-2_Rakovski_x336_y1008.png", "mound_probability": 1.0 }, "geometry": { "type": "Point", "coordinates": [ 24.769110897894201, 42.274944673959851 ] } },
{ "type": "Feature", "properties": { "vote_count": 5, "source_tile": "K-35-062-2_Rakovski_x336_y1008.png", "mound_probability": 0.95 }, "geometry": { "type": "Point", "coordinates": [ 24.777972989071724, 42.279737798178502 ] } },
{ "type": "Feature", "properties": { "vote_count": 5, "source_tile": "K-35-062-2_Rakovski_x2352_y3360.png", "mound_probability": 1.0 }, "geometry": { "type": "Point", "coordinates": [ 24.902961601003206, 42.182807666817325 ] } },
{ "type": "Feature", "properties": { "vote_count": 5, "source_tile": "K-35-062-2_Rakovski_x2352_y3360.png", "mound_probability": 1.0 }, "geometry": { "type": "Point", "coordinates": [ 24.900182366078923, 42.174885025656053 ] } },
{ "type": "Feature", "properties": { "vote_count": 5, "source_tile": "K-35-062-2_Rakovski_x3024_y336.png", "mound_probability": 1.0 }, "geometry": { "type": "Point", "coordinates": [ 24.943644395840721, 42.316719730163072 ] } },
{ "type": "Feature", "properties": { "vote_count": 5, "source_tile": "K-35-062-2_Rakovski_x3024_y336.png", "mound_probability": 1.0 }, "geometry": { "type": "Point", "coordinates": [ 24.945663034483147, 42.316867583299448 ] } },
{ "type": "Feature", "properties": { "vote_count": 5, "source_tile": "K-35-062-2_Rakovski_x3024_y336.png", "mound_probability": 1.0 }, "geometry": { "type": "Point", "coordinates": [ 24.945450875221493, 42.316081028008867 ] } },
{ "type": "Feature", "properties": { "vote_count": 5, "source_tile": "K-35-062-2_Rakovski_x3360_y1680.png", "mound_probability": 1.0 }, "geometry": { "type": "Point", "coordinates": [ 24.95595321987852, 42.249538762599371 ] } },
{ "type": "Feature", "properties": { "vote_count": 5, "source_tile": "K-35-062-2_Rakovski_x3024_y3024.png", "mound_probability": 1.0 }, "geometry": { "type": "Point", "coordinates": [ 24.949475600372757, 42.187876833144067 ] } },
{ "type": "Feature", "properties": { "vote_count": 5, "source_tile": "K-35-062-2_Rakovski_x3696_y1344.png", "mound_probability": 0.2 }, "geometry": { "type": "Point", "coordinates": [ 24.972294974033151, 42.270418567964327 ] } },
{ "type": "Feature", "properties": { "vote_count": 5, "source_tile": "K-35-062-2_Rakovski_x3360_y1344.png", "mound_probability": 1.0 }, "geometry": { "type": "Point", "coordinates": [ 24.965137597954936, 42.261310903231767 ] } },
{ "type": "Feature", "properties": { "vote_count": 5, "source_tile": "K-35-062-2_Rakovski_x2688_y3024.png", "mound_probability": 0.75 }, "geometry": { "type": "Point", "coordinates": [ 24.91501237545743, 42.185080509448433 ] } },
{ "type": "Feature", "properties": { "vote_count": 5, "source_tile": "K-35-062-2_Rakovski_x336_y1344.png", "mound_probability": 1.0 }, "geometry": { "type": "Point", "coordinates": [ 24.779731689080837, 42.268020443086847 ] } },
{ "type": "Feature", "properties": { "vote_count": 5, "source_tile": "K-35-062-2_Rakovski_x2688_y0.png", "mound_probability": 0.95 }, "geometry": { "type": "Point", "coordinates": [ 24.918739761152498, 42.327135890455033 ] } },
{ "type": "Feature", "properties": { "vote_count": 5, "source_tile": "K-35-062-2_Rakovski_x2688_y0.png", "mound_probability": 1.0 }, "geometry": { "type": "Point", "coordinates": [ 24.928071391039953, 42.331874180177813 ] } },
{ "type": "Feature", "properties": { "vote_count": 5, "source_tile": "K-35-062-2_Rakovski_x2688_y0.png", "mound_probability": 0.95 }, "geometry": { "type": "Point", "coordinates": [ 24.926760403165702, 42.328560667099858 ] } },
{ "type": "Feature", "properties": { "vote_count": 5, "source_tile": "K-35-062-2_Rakovski_x336_y0.png", "mound_probability": 1.0 }, "geometry": { "type": "Point", "coordinates": [ 24.776790097862243, 42.329113333362464 ] } },
{ "type": "Feature", "properties": { "vote_count": 5, "source_tile": "K-35-062-2_Rakovski_x3696_y1008.png", "mound_probability": 1.0 }, "geometry": { "type": "Point", "coordinates": [ 24.990090762050176, 42.276923937507839 ] } },
{ "type": "Feature", "properties": { "vote_count": 5, "source_tile": "K-35-062-2_Rakovski_x3024_y1680.png", "mound_probability": 0.95 }, "geometry": { "type": "Point", "coordinates": [ 24.943441556159648, 42.24971085596308 ] } },
{ "type": "Feature", "properties": { "vote_count": 5, "source_tile": "K-35-062-2_Rakovski_x3360_y1680.png", "mound_probability": 0.1 }, "geometry": { "type": "Point", "coordinates": [ 24.970671861911672, 42.253322348840051 ] } },
{ "type": "Feature", "properties": { "vote_count": 5, "source_tile": "K-35-062-2_Rakovski_x3696_y2352.png", "mound_probability": 0.2 }, "geometry": { "type": "Point", "coordinates": [ 24.976180930115465, 42.222066664501419 ] } },
{ "type": "Feature", "properties": { "vote_count": 5, "source_tile": "K-35-062-2_Rakovski_x3360_y2352.png", "mound_probability": 1.0 }, "geometry": { "type": "Point", "coordinates": [ 24.969706983044194, 42.21619992799944 ] } },
{ "type": "Feature", "properties": { "vote_count": 5, "source_tile": "K-35-062-2_Rakovski_x3360_y2352.png", "mound_probability": 1.0 }, "geometry": { "type": "Point", "coordinates": [ 24.970998843044846, 42.215905176323581 ] } },
{ "type": "Feature", "properties": { "vote_count": 5, "source_tile": "K-35-062-2_Rakovski_x1008_y672.png", "mound_probability": 0.85 }, "geometry": { "type": "Point", "coordinates": [ 24.81562001241997, 42.288960553322198 ] } },
{ "type": "Feature", "properties": { "vote_count": 5, "source_tile": "K-35-062-2_Rakovski_x4032_y672.png", "mound_probability": 0.95 }, "geometry": { "type": "Point", "coordinates": [ 24.994970256192538, 42.303040284894394 ] } },
{ "type": "Feature", "properties": { "vote_count": 5, "source_tile": "K-35-062-2_Rakovski_x1008_y336.png", "mound_probability": 1.0 }, "geometry": { "type": "Point", "coordinates": [ 24.810814820425989, 42.316208218031541 ] } },
{ "type": "Feature", "properties": { "vote_count": 5, "source_tile": "K-35-062-2_Rakovski_x1008_y336.png", "mound_probability": 1.0 }, "geometry": { "type": "Point", "coordinates": [ 24.816184485054695, 42.313385621072733 ] } },
{ "type": "Feature", "properties": { "vote_count": 5, "source_tile": "K-35-062-2_Rakovski_x1008_y336.png", "mound_probability": 1.0 }, "geometry": { "type": "Point", "coordinates": [ 24.810533651466862, 42.311098940737359 ] } },
{ "type": "Feature", "properties": { "vote_count": 5, "source_tile": "K-35-062-2_Rakovski_x672_y336.png", "mound_probability": 1.0 }, "geometry": { "type": "Point", "coordinates": [ 24.805922025997198, 42.312557591913759 ] } },
{ "type": "Feature", "properties": { "vote_count": 5, "source_tile": "K-35-062-2_Rakovski_x1008_y336.png", "mound_probability": 1.0 }, "geometry": { "type": "Point", "coordinates": [ 24.824665812428442, 42.309072642204768 ] } },
{ "type": "Feature", "properties": { "vote_count": 5, "source_tile": "K-35-062-2_Rakovski_x1008_y336.png", "mound_probability": 1.0 }, "geometry": { "type": "Point", "coordinates": [ 24.811092367888392, 42.304610293251308 ] } },
{ "type": "Feature", "properties": { "vote_count": 5, "source_tile": "K-35-062-2_Rakovski_x672_y1344.png", "mound_probability": 1.0 }, "geometry": { "type": "Point", "coordinates": [ 24.789143601885954, 42.260470070213188 ] } },
{ "type": "Feature", "properties": { "vote_count": 5, "source_tile": "K-35-062-2_Rakovski_x672_y1680.png", "mound_probability": 0.15 }, "geometry": { "type": "Point", "coordinates": [ 24.791218438681064, 42.250118348449114 ] } },
{ "type": "Feature", "properties": { "vote_count": 5, "source_tile": "K-35-078-1_Lesovo_x0_y336.png", "mound_probability": 0.4 }, "geometry": { "type": "Point", "coordinates": [ 26.513265115794976, 41.980549064291438 ] } },
{ "type": "Feature", "properties": { "vote_count": 5, "source_tile": "K-35-062-2_Rakovski_x3696_y336.png", "mound_probability": 0.4 }, "geometry": { "type": "Point", "coordinates": [ 24.978463613629465, 42.317882626108407 ] } },
{ "type": "Feature", "properties": { "vote_count": 5, "source_tile": "K-35-062-2_Rakovski_x3696_y336.png", "mound_probability": 1.0 }, "geometry": { "type": "Point", "coordinates": [ 24.983986152374769, 42.316769309697243 ] } },
{ "type": "Feature", "properties": { "vote_count": 5, "source_tile": "K-35-062-2_Rakovski_x4032_y3024.png", "mound_probability": 0.85 }, "geometry": { "type": "Point", "coordinates": [ 24.997285257254479, 42.187602724630537 ] } },
{ "type": "Feature", "properties": { "vote_count": 5, "source_tile": "K-35-062-2_Rakovski_x336_y0.png", "mound_probability": 1.0 }, "geometry": { "type": "Point", "coordinates": [ 24.780597015459072, 42.332466479738436 ] } },
{ "type": "Feature", "properties": { "vote_count": 5, "source_tile": "K-35-062-2_Rakovski_x3696_y672.png", "mound_probability": 1.0 }, "geometry": { "type": "Point", "coordinates": [ 24.976022057509596, 42.290557645130718 ] } },
{ "type": "Feature", "properties": { "vote_count": 5, "source_tile": "K-35-062-2_Rakovski_x3696_y2688.png", "mound_probability": 1.0 }, "geometry": { "type": "Point", "coordinates": [ 24.990638178708345, 42.209157516725448 ] } },
{ "type": "Feature", "properties": { "vote_count": 5, "source_tile": "K-35-062-2_Rakovski_x3696_y1008.png", "mound_probability": 1.0 }, "geometry": { "type": "Point", "coordinates": [ 24.984960085057363, 42.282175491456954 ] } },
{ "type": "Feature", "properties": { "vote_count": 5, "source_tile": "K-35-062-2_Rakovski_x3696_y1344.png", "mound_probability": 1.0 }, "geometry": { "type": "Point", "coordinates": [ 24.983019850941972, 42.27491343347787 ] } },
{ "type": "Feature", "properties": { "vote_count": 5, "source_tile": "K-35-053-3_Elenovo_x672_y0.png", "mound_probability": 0.95 }, "geometry": { "type": "Point", "coordinates": [ 26.041806521847615, 42.496160351493749 ] } },
{ "type": "Feature", "properties": { "vote_count": 5, "source_tile": "K-35-062-2_Rakovski_x4032_y3360.png", "mound_probability": 0.15 }, "geometry": { "type": "Point", "coordinates": [ 24.994959977980027, 42.170922990952732 ] } },
{ "type": "Feature", "properties": { "vote_count": 5, "source_tile": "K-35-062-2_Rakovski_x4032_y3360.png", "mound_probability": 0.15 }, "geometry": { "type": "Point", "coordinates": [ 24.997838580495152, 42.170700354288961 ] } },
{ "type": "Feature", "properties": { "vote_count": 5, "source_tile": "K-35-062-2_Rakovski_x672_y1008.png", "mound_probability": 1.0 }, "geometry": { "type": "Point", "coordinates": [ 24.795473433144064, 42.272576656698561 ] } },
{ "type": "Feature", "properties": { "vote_count": 5, "source_tile": "K-35-078-1_Lesovo_x2352_y0.png", "mound_probability": 0.95 }, "geometry": { "type": "Point", "coordinates": [ 26.65952262915264, 41.984213957178284 ] } },
{ "type": "Feature", "properties": { "vote_count": 5, "source_tile": "K-35-078-1_Lesovo_x2352_y0.png", "mound_probability": 0.85 }, "geometry": { "type": "Point", "coordinates": [ 26.650157195211023, 41.985732848143677 ] } },
{ "type": "Feature", "properties": { "vote_count": 5, "source_tile": "K-35-078-1_Lesovo_x2352_y336.png", "mound_probability": 0.1 }, "geometry": { "type": "Point", "coordinates": [ 26.653440486771721, 41.975706784316024 ] } },
{ "type": "Feature", "properties": { "vote_count": 5, "source_tile": "K-35-078-1_Lesovo_x2352_y336.png", "mound_probability": 0.95 }, "geometry": { "type": "Point", "coordinates": [ 26.659752633833204, 41.975620820102868 ] } },
{ "type": "Feature", "properties": { "vote_count": 5, "source_tile": "K-35-062-2_Rakovski_x3696_y3360.png", "mound_probability": 1.0 }, "geometry": { "type": "Point", "coordinates": [ 24.975755716531349, 42.179015596882088 ] } },
{ "type": "Feature", "properties": { "vote_count": 5, "source_tile": "K-35-062-2_Rakovski_x1008_y336.png", "mound_probability": 1.0 }, "geometry": { "type": "Point", "coordinates": [ 24.806400765705032, 42.317219842829687 ] } },
{ "type": "Feature", "properties": { "vote_count": 5, "source_tile": "K-35-062-2_Rakovski_x3024_y672.png", "mound_probability": 0.95 }, "geometry": { "type": "Point", "coordinates": [ 24.937817805505762, 42.296652090318304 ] } },
{ "type": "Feature", "properties": { "vote_count": 5, "source_tile": "K-35-053-3_Elenovo_x3024_y1680.png", "mound_probability": 0.2 }, "geometry": { "type": "Point", "coordinates": [ 26.19413367895574, 42.412050846356756 ] } },
{ "type": "Feature", "properties": { "vote_count": 5, "source_tile": "K-35-053-3_Elenovo_x1008_y3360.png", "mound_probability": 1.0 }, "geometry": { "type": "Point", "coordinates": [ 26.079744139359626, 42.346875958685452 ] } },
{ "type": "Feature", "properties": { "vote_count": 5, "source_tile": "K-35-062-2_Rakovski_x3696_y1008.png", "mound_probability": 1.0 }, "geometry": { "type": "Point", "coordinates": [ 24.98374597997736, 42.287337531341521 ] } },
{ "type": "Feature", "properties": { "vote_count": 5, "source_tile": "K-35-053-3_Elenovo_x4032_y3024.png", "mound_probability": 0.1 }, "geometry": { "type": "Point", "coordinates": [ 26.248152137799185, 42.354306753972878 ] } },
{ "type": "Feature", "properties": { "vote_count": 5, "source_tile": "K-35-078-1_Lesovo_x0_y3360.png", "mound_probability": 0.95 }, "geometry": { "type": "Point", "coordinates": [ 26.506908823456175, 41.84219115735393 ] } },
{ "type": "Feature", "properties": { "vote_count": 5, "source_tile": "K-35-078-1_Lesovo_x0_y3360.png", "mound_probability": 0.85 }, "geometry": { "type": "Point", "coordinates": [ 26.509484839084362, 41.838101390714982 ] } },
{ "type": "Feature", "properties": { "vote_count": 5, "source_tile": "K-35-062-2_Rakovski_x672_y672.png", "mound_probability": 1.0 }, "geometry": { "type": "Point", "coordinates": [ 24.790767864394411, 42.291337029674644 ] } },
{ "type": "Feature", "properties": { "vote_count": 5, "source_tile": "K-35-062-2_Rakovski_x672_y1008.png", "mound_probability": 1.0 }, "geometry": { "type": "Point", "coordinates": [ 24.798724198622988, 42.284335686336505 ] } },
{ "type": "Feature", "properties": { "vote_count": 5, "source_tile": "K-35-062-2_Rakovski_x672_y1008.png", "mound_probability": 0.95 }, "geometry": { "type": "Point", "coordinates": [ 24.788559424268723, 42.285327320180905 ] } },
{ "type": "Feature", "properties": { "vote_count": 5, "source_tile": "K-35-078-1_Lesovo_x336_y3360.png", "mound_probability": 0.1 }, "geometry": { "type": "Point", "coordinates": [ 26.522273063867164, 41.842694330639418 ] } },
{ "type": "Feature", "properties": { "vote_count": 5, "source_tile": "K-35-053-3_Elenovo_x3696_y3024.png", "mound_probability": 1.0 }, "geometry": { "type": "Point", "coordinates": [ 26.242300591645627, 42.350899157854002 ] } },
{ "type": "Feature", "properties": { "vote_count": 5, "source_tile": "K-35-053-3_Elenovo_x3696_y3024.png", "mound_probability": 1.0 }, "geometry": { "type": "Point", "coordinates": [ 26.242871400224992, 42.350194720968368 ] } },
{ "type": "Feature", "properties": { "vote_count": 5, "source_tile": "K-35-053-3_Elenovo_x3696_y3024.png", "mound_probability": 1.0 }, "geometry": { "type": "Point", "coordinates": [ 26.243307031874625, 42.351444071204554 ] } },
{ "type": "Feature", "properties": { "vote_count": 5, "source_tile": "K-35-053-3_Elenovo_x3696_y3360.png", "mound_probability": 0.95 }, "geometry": { "type": "Point", "coordinates": [ 26.240467107120026, 42.347151934092267 ] } },
{ "type": "Feature", "properties": { "vote_count": 5, "source_tile": "K-35-062-2_Rakovski_x3696_y2016.png", "mound_probability": 1.0 }, "geometry": { "type": "Point", "coordinates": [ 24.983787615940326, 42.242049223573723 ] } },
{ "type": "Feature", "properties": { "vote_count": 5, "source_tile": "K-35-062-2_Rakovski_x3696_y2016.png", "mound_probability": 1.0 }, "geometry": { "type": "Point", "coordinates": [ 24.987025124953458, 42.241771570073809 ] } },
{ "type": "Feature", "properties": { "vote_count": 5, "source_tile": "K-35-078-1_Lesovo_x2352_y0.png", "mound_probability": 1.0 }, "geometry": { "type": "Point", "coordinates": [ 26.64182844122513, 41.993947237389669 ] } },
{ "type": "Feature", "properties": { "vote_count": 5, "source_tile": "K-35-053-3_Elenovo_x3696_y3024.png", "mound_probability": 1.0 }, "geometry": { "type": "Point", "coordinates": [ 26.243395091453152, 42.350777786915266 ] } },
{ "type": "Feature", "properties": { "vote_count": 5, "source_tile": "K-35-078-1_Lesovo_x3696_y0.png", "mound_probability": 0.85 }, "geometry": { "type": "Point", "coordinates": [ 26.72782274815351, 41.995879125013644 ] } },
{ "type": "Feature", "properties": { "vote_count": 5, "source_tile": "K-35-078-1_Lesovo_x336_y3024.png", "mound_probability": 0.95 }, "geometry": { "type": "Point", "coordinates": [ 26.520449685433011, 41.852913126976418 ] } },
{ "type": "Feature", "properties": { "vote_count": 5, "source_tile": "K-35-062-2_Rakovski_x3696_y1680.png", "mound_probability": 0.95 }, "geometry": { "type": "Point", "coordinates": [ 24.982381706300142, 42.252538417886747 ] } },
{ "type": "Feature", "properties": { "vote_count": 5, "source_tile": "K-35-078-1_Lesovo_x672_y0.png", "mound_probability": 0.1 }, "geometry": { "type": "Point", "coordinates": [ 26.545216511559264, 41.983613133549596 ] } },
{ "type": "Feature", "properties": { "vote_count": 5, "source_tile": "K-35-078-1_Lesovo_x4032_y336.png", "mound_probability": 0.95 }, "geometry": { "type": "Point", "coordinates": [ 26.744242798603331, 41.977631204834843 ] } },
{ "type": "Feature", "properties": { "vote_count": 5, "source_tile": "K-35-062-2_Rakovski_x3696_y2016.png", "mound_probability": 1.0 }, "geometry": { "type": "Point", "coordinates": [ 24.987000426524439, 42.242034082513321 ] } },
{ "type": "Feature", "properties": { "vote_count": 5, "source_tile": "K-35-078-1_Lesovo_x336_y3360.png", "mound_probability": 1.0 }, "geometry": { "type": "Point", "coordinates": [ 26.53908292975359, 41.841606069609902 ] } },
{ "type": "Feature", "properties": { "vote_count": 5, "source_tile": "K-35-078-1_Lesovo_x336_y3360.png", "mound_probability": 1.0 }, "geometry": { "type": "Point", "coordinates": [ 26.536943180106505, 41.837075533838352 ] } },
{ "type": "Feature", "properties": { "vote_count": 5, "source_tile": "K-35-078-1_Lesovo_x336_y3024.png", "mound_probability": 0.1 }, "geometry": { "type": "Point", "coordinates": [ 26.529525131022169, 41.857900874131545 ] } },
{ "type": "Feature", "properties": { "vote_count": 5, "source_tile": "K-35-062-2_Rakovski_x3024_y3360.png", "mound_probability": 1.0 }, "geometry": { "type": "Point", "coordinates": [ 24.938732911618661, 42.172919671843339 ] } },
{ "type": "Feature", "properties": { "vote_count": 5, "source_tile": "K-35-078-1_Lesovo_x336_y3024.png", "mound_probability": 0.4 }, "geometry": { "type": "Point", "coordinates": [ 26.530085867263647, 41.85833299954502 ] } }
]
}
