{"type": "FeatureCollection", "features": [{"type": "Feature", "properties": {"box_2d": [408614, 4690280, 408697, 4690363], "label": "mound", "subtype": "burial_mound", "source_tile": "K-35-052-4_32635_x2240_y2688.png", "score": 0.8}, "geometry": {"type": "Polygon", "coordinates": [[[408614, 4690280], [408697, 4690280], [408697, 4690363], [408614, 4690363], [408614, 4690280]]]}}, {"type": "Feature", "properties": {"box_2d": [409867, 4700696, 409953, 4700781], "label": "mound", "subtype": "burial_mound", "source_tile": "K-35-052-4_32635_x2240_y896.png", "score": 1.0}, "geometry": {"type": "Polygon", "coordinates": [[[409867, 4700696], [409953, 4700696], [409953, 4700781], [409867, 4700781], [409867, 4700696]]]}}, {"type": "Feature", "properties": {"box_2d": [403478, 4703917, 403560, 4703994], "label": "mound", "subtype": "burial_mound", "source_tile": "K-35-052-4_32635_x896_y0.png", "score": 0.8}, "geometry": {"type": "Polygon", "coordinates": [[[403478, 4703917], [403560, 4703917], [403560, 4703994], [403478, 4703994], [403478, 4703917]]]}}, {"type": "Feature", "properties": {"box_2d": [403530, 4703600, 403634, 4703704], "label": "mound", "subtype": "benchmark_mound", "source_tile": "K-35-052-4_32635_x896_y0.png", "score": 0.9}, "geometry": {"type": "Polygon", "coordinates": [[[403530, 4703600], [403634, 4703600], [403634, 4703704], [403530, 4703704], [403530, 4703600]]]}}, {"type": "Feature", "properties": {"box_2d": [415440, 4698373, 415515, 4698446], "label": "mound", "subtype": "burial_mound", "source_tile": "K-35-052-4_32635_x3584_y1344.png", "score": 1.0}, "geometry": {"type": "Polygon", "coordinates": [[[415440, 4698373], [415515, 4698373], [415515, 4698446], [415440, 4698446], [415440, 4698373]]]}}, {"type": "Feature", "properties": {"box_2d": [425783, 4692062, 425881, 4692159], "label": "mound", "subtype": "burial_mound", "source_tile": "K-35-053-3_Elenovo_x1344_y2688.png", "score": 1.0}, "geometry": {"type": "Polygon", "coordinates": [[[425783, 4692062], [425881, 4692062], [425881, 4692159], [425783, 4692159], [425783, 4692062]]]}}, {"type": "Feature", "properties": {"box_2d": [425806, 4691928, 425904, 4692025], "label": "mound", "subtype": "burial_mound", "source_tile": "K-35-053-3_Elenovo_x1344_y2688.png", "score": 0.9}, "geometry": {"type": "Polygon", "coordinates": [[[425806, 4691928], [425904, 4691928], [425904, 4692025], [425806, 4692025], [425806, 4691928]]]}}, {"type": "Feature", "properties": {"box_2d": [425828, 4691800, 425925, 4691898], "label": "mound", "subtype": "burial_mound", "source_tile": "K-35-053-3_Elenovo_x1344_y2688.png", "score": 0.8}, "geometry": {"type": "Polygon", "coordinates": [[[425828, 4691800], [425925, 4691800], [425925, 4691898], [425828, 4691898], [425828, 4691800]]]}}, {"type": "Feature", "properties": {"box_2d": [423769, 4688645, 423888, 4688760], "label": "mound", "subtype": "benchmark_mound", "source_tile": "K-35-053-3_Elenovo_x896_y3136.png", "score": 1.0}, "geometry": {"type": "Polygon", "coordinates": [[[423769, 4688645], [423888, 4688645], [423888, 4688760], [423769, 4688760], [423769, 4688645]]]}}, {"type": "Feature", "properties": {"box_2d": [424184, 4688667, 424266, 4688745], "label": "mound", "subtype": "burial_mound", "source_tile": "K-35-053-3_Elenovo_x896_y3136.png", "score": 1.0}, "geometry": {"type": "Polygon", "coordinates": [[[424184, 4688667], [424266, 4688667], [424266, 4688745], [424184, 4688745], [424184, 4688667]]]}}, {"type": "Feature", "properties": {"box_2d": [420532, 4702529, 420639, 4702639], "label": "mound", "subtype": "benchmark_mound", "source_tile": "K-35-053-3_Elenovo_x448_y448.png", "score": 1.0}, "geometry": {"type": "Polygon", "coordinates": [[[420532, 4702529], [420639, 4702529], [420639, 4702639], [420532, 4702639], [420532, 4702529]]]}}, {"type": "Feature", "properties": {"box_2d": [434497, 4697024, 434580, 4697100], "label": "mound", "subtype": "burial_mound", "source_tile": "K-35-053-3_Elenovo_x3136_y1344.png", "score": 0.7}, "geometry": {"type": "Polygon", "coordinates": [[[434497, 4697024], [434580, 4697024], [434580, 4697100], [434497, 4697100], [434497, 4697024]]]}}, {"type": "Feature", "properties": {"box_2d": [315628, 4677399, 315730, 4677498], "label": "mound", "subtype": "benchmark_mound", "source_tile": "K-35-062-2_Rakovski_x0_y2240.png", "score": 0.8}, "geometry": {"type": "Polygon", "coordinates": [[[315628, 4677399], [315730, 4677399], [315730, 4677498], [315628, 4677498], [315628, 4677399]]]}}, {"type": "Feature", "properties": {"box_2d": [314128, 4675869, 314227, 4675967], "label": "mound", "subtype": "benchmark_mound", "source_tile": "K-35-062-2_Rakovski_x0_y2240.png", "score": 0.8}, "geometry": {"type": "Polygon", "coordinates": [[[314128, 4675869], [314227, 4675869], [314227, 4675967], [314128, 4675967], [314128, 4675869]]]}}, {"type": "Feature", "properties": {"box_2d": [323910, 4679332, 323983, 4679403], "label": "mound", "subtype": "burial_mound", "source_tile": "K-35-062-2_Rakovski_x1792_y1792.png", "score": 0.8}, "geometry": {"type": "Polygon", "coordinates": [[[323910, 4679332], [323983, 4679332], [323983, 4679403], [323910, 4679403], [323910, 4679332]]]}}, {"type": "Feature", "properties": {"box_2d": [324288, 4678547, 324363, 4678618], "label": "mound", "subtype": "burial_mound", "source_tile": "K-35-062-2_Rakovski_x1792_y1792.png", "score": 0.7}, "geometry": {"type": "Polygon", "coordinates": [[[324288, 4678547], [324363, 4678547], [324363, 4678618], [324288, 4678618], [324288, 4678547]]]}}, {"type": "Feature", "properties": {"box_2d": [327101, 4680515, 327187, 4680598], "label": "mound", "subtype": "burial_mound", "source_tile": "K-35-062-2_Rakovski_x2240_y1344.png", "score": 1.0}, "geometry": {"type": "Polygon", "coordinates": [[[327101, 4680515], [327187, 4680515], [327187, 4680598], [327101, 4680598], [327101, 4680515]]]}}, {"type": "Feature", "properties": {"box_2d": [327392, 4680377, 327481, 4680463], "label": "mound", "subtype": "burial_mound", "source_tile": "K-35-062-2_Rakovski_x2240_y1344.png", "score": 0.8}, "geometry": {"type": "Polygon", "coordinates": [[[327392, 4680377], [327481, 4680377], [327481, 4680463], [327392, 4680463], [327392, 4680377]]]}}, {"type": "Feature", "properties": {"box_2d": [460531, 4634296, 460647, 4634409], "label": "mound", "subtype": "burial_mound", "source_tile": "K-35-078-1_Lesovo_x0_y2688.png", "score": 0.9}, "geometry": {"type": "Polygon", "coordinates": [[[460531, 4634296], [460647, 4634296], [460647, 4634409], [460531, 4634409], [460531, 4634296]]]}}, {"type": "Feature", "properties": {"box_2d": [478748, 4647305, 478848, 4647394], "label": "mound", "subtype": "burial_mound", "source_tile": "K-35-078-1_Lesovo_x3584_y0.png", "score": 1.0}, "geometry": {"type": "Polygon", "coordinates": [[[478748, 4647305], [478848, 4647305], [478848, 4647394], [478748, 4647394], [478748, 4647305]]]}}], "crs": {"type": "name", "properties": {"name": "urn:ogc:def:crs:EPSG::32635"}}}