{
"type": "FeatureCollection",
"name": "consensus_t5_fp",
"crs": { "type": "name", "properties": { "name": "urn:ogc:def:crs:EPSG::32635" } },
"features": [
{ "type": "Feature", "properties": { "box_2d": "[ 460531 4634296  460647 4634409]", "label": "mound", "subtype": "burial_mound", "source_tile": "K-35-078-1_Lesovo_x0_y2688.png", "score": 0.9, "Map": "K-35-078-1_Lesovo", "error_type": "False Positive" }, "geometry": { "type": "Polygon", "coordinates": [ [ [ 460531.0, 4634296.0 ], [ 460647.0, 4634296.0 ], [ 460647.0, 4634409.0 ], [ 460531.0, 4634409.0 ], [ 460531.0, 4634296.0 ] ] ] } }
]
}
