{"type": "FeatureCollection", "features": [{"type": "Feature", "geometry": {"type": "Polygon", "coordinates": [[[330071.555583, 4679879.576581], [330071.555583, 4682449.222351], [327501.909813, 4682449.222351], [327501.909813, 4679879.576581], [330071.555583, 4679879.576581]]]}, "properties": {"tile_name": "K-35-062-2_Rakovski_x2688_y1344.png", "type": "processed_tile_bbox"}}, {"type": "Feature", "geometry": {"type": "Polygon", "coordinates": [[[318829.355338, 4675382.696483], [318829.355338, 4677952.342253], [316259.709568, 4677952.342253], [316259.709568, 4675382.696483], [318829.355338, 4675382.696483]]]}, "properties": {"tile_name": "K-35-062-2_Rakovski_x448_y2240.png", "type": "processed_tile_bbox"}}, {"type": "Feature", "geometry": {"type": "Polygon", "coordinates": [[[321077.795387, 4684376.456679], [321077.795387, 4686946.102449], [318508.149617, 4686946.102449], [318508.149617, 4684376.456679], [321077.795387, 4684376.456679]]]}, "properties": {"tile_name": "K-35-062-2_Rakovski_x896_y448.png", "type": "processed_tile_bbox"}}, {"type": "Feature", "geometry": {"type": "Polygon", "coordinates": [[[327823.115534, 4670885.816385], [327823.115534, 4673455.462156], [325253.469764, 4673455.462156], [325253.469764, 4670885.816385], [327823.115534, 4670885.816385]]]}, "properties": {"tile_name": "K-35-062-2_Rakovski_x2240_y3136.png", "type": "processed_tile_bbox"}}, {"type": "Feature", "geometry": {"type": "Polygon", "coordinates": [[[318829.355338, 4686624.896728], [318829.355338, 4689194.542498], [316259.709568, 4689194.542498], [316259.709568, 4686624.896728], [318829.355338, 4686624.896728]]]}, "properties": {"tile_name": "K-35-062-2_Rakovski_x448_y0.png", "type": "processed_tile_bbox"}}], "crs": {"type": "name", "properties": {"name": "urn:ogc:def:crs:EPSG::32635"}}}