{"type": "FeatureCollection", "features": [{"type": "Feature", "geometry": {"type": "Point", "coordinates": [25.861959, 42.462081]}, "properties": {"subtype": "burial_mound", "confidence": 1.0, "vote_count": 1, "total_passes": 1, "contributing_passes": ["run_1"], "source_tiles": ["K-35-052-4_32635_x1728_y768.png"], "cluster_size": 1}}, {"type": "Feature", "geometry": {"type": "Point", "coordinates": [25.762209, 42.340472]}, "properties": {"subtype": "burial_mound", "confidence": 1.0, "vote_count": 1, "total_passes": 1, "contributing_passes": ["run_1"], "source_tiles": ["K-35-052-4_32635_x0_y3456.png"], "cluster_size": 1}}, {"type": "Feature", "geometry": {"type": "Point", "coordinates": [25.846433, 42.346589]}, "properties": {"subtype": "triangulation_mound", "confidence": 1.0, "vote_count": 1, "total_passes": 1, "contributing_passes": ["run_1"], "source_tiles": ["K-35-052-4_32635_x1344_y3072.png", "K-35-052-4_32635_x1344_y3264.png", "K-35-052-4_32635_x1536_y3264.png"], "cluster_size": 1}}, {"type": "Feature", "geometry": {"type": "Point", "coordinates": [25.75154, 42.454625]}, "properties": {"subtype": "benchmark_mound", "confidence": 1.0, "vote_count": 1, "total_passes": 1, "contributing_passes": ["run_1"], "source_tiles": ["K-35-052-4_32635_x0_y768.png"], "cluster_size": 1}}, {"type": "Feature", "geometry": {"type": "Point", "coordinates": [25.763078, 42.446613]}, "properties": {"subtype": "burial_mound", "confidence": 1.0, "vote_count": 1, "total_passes": 1, "contributing_passes": ["run_1"], "source_tiles": ["K-35-052-4_32635_x0_y1152.png", "K-35-052-4_32635_x0_y960.png", "K-35-052-4_32635_x192_y1152.png", "K-35-052-4_32635_x192_y960.png"], "cluster_size": 1}}]}