{
"type": "FeatureCollection",
"name": "verified_best_20m",
"crs": { "type": "name", "properties": { "name": "urn:ogc:def:crs:OGC:1.3:CRS84" } },
"features": [
{ "type": "Feature", "properties": { "vote_count": 10, "source_tile": "K-35-052-4_32635_x0_y1008.png", "mound_probability": 0.98 }, "geometry": { "type": "Point", "coordinates": [ 25.763069835643964, 42.446611369658157 ] } },
{ "type": "Feature", "properties": { "vote_count": 10, "source_tile": "K-35-052-4_32635_x0_y2688.png", "mound_probability": 0.99 }, "geometry": { "type": "Point", "coordinates": [ 25.751839230872264, 42.365217712791356 ] } },
{ "type": "Feature", "properties": { "vote_count": 10, "source_tile": "K-35-052-4_32635_x0_y2688.png", "mound_probability": 0.99 }, "geometry": { "type": "Point", "coordinates": [ 25.769337459395796, 42.366860166007122 ] } },
{ "type": "Feature", "properties": { "vote_count": 10, "source_tile": "K-35-052-4_32635_x1344_y672.png", "mound_probability": 0.99 }, "geometry": { "type": "Point", "coordinates": [ 25.834222536560645, 42.463062604558687 ] } },
{ "type": "Feature", "properties": { "vote_count": 10, "source_tile": "K-35-052-4_32635_x1344_y336.png", "mound_probability": 0.98 }, "geometry": { "type": "Point", "coordinates": [ 25.835964823183556, 42.472673964057073 ] } },
{ "type": "Feature", "properties": { "vote_count": 10, "source_tile": "K-35-052-4_32635_x0_y336.png", "mound_probability": 0.98 }, "geometry": { "type": "Point", "coordinates": [ 25.764283150812801, 42.469932522255348 ] } },
{ "type": "Feature", "properties": { "vote_count": 10, "source_tile": "K-35-052-4_32635_x0_y672.png", "mound_probability": 0.98 }, "geometry": { "type": "Point", "coordinates": [ 25.76226630788317, 42.466847679633041 ] } },
{ "type": "Feature", "properties": { "vote_count": 10, "source_tile": "K-35-052-4_32635_x1008_y672.png", "mound_probability": 0.98 }, "geometry": { "type": "Point", "coordinates": [ 25.82596713739224, 42.466547500076629 ] } },
{ "type": "Feature", "properties": { "vote_count": 10, "source_tile": "K-35-052-4_32635_x0_y3024.png", "mound_probability": 0.99 }, "geometry": { "type": "Point", "coordinates": [ 25.757105213911181, 42.354923561632638 ] } },
{ "type": "Feature", "properties": { "vote_count": 10, "source_tile": "K-35-052-4_32635_x1680_y0.png", "mound_probability": 1.0 }, "geometry": { "type": "Point", "coordinates": [ 25.864847130550633, 42.485804316394827 ] } },
{ "type": "Feature", "properties": { "vote_count": 10, "source_tile": "K-35-052-4_32635_x2016_y336.png", "mound_probability": 0.99 }, "geometry": { "type": "Point", "coordinates": [ 25.870722832812831, 42.483653331004909 ] } },
{ "type": "Feature", "properties": { "vote_count": 10, "source_tile": "K-35-052-4_32635_x2016_y336.png", "mound_probability": 0.98 }, "geometry": { "type": "Point", "coordinates": [ 25.885527158782565, 42.481674768580014 ] } },
{ "type": "Feature", "properties": { "vote_count": 10, "source_tile": "K-35-052-4_32635_x1680_y0.png", "mound_probability": 0.98 }, "geometry": { "type": "Point", "coordinates": [ 25.863721404599424, 42.496046146239188 ] } },
{ "type": "Feature", "properties": { "vote_count": 10, "source_tile": "K-35-052-4_32635_x1680_y0.png", "mound_probability": 0.98 }, "geometry": { "type": "Point", "coordinates": [ 25.863834322010163, 42.494893845874024 ] } },
{ "type": "Feature", "properties": { "vote_count": 10, "source_tile": "K-35-052-4_32635_x2016_y0.png", "mound_probability": 0.99 }, "geometry": { "type": "Point", "coordinates": [ 25.870855794442033, 42.496780341738216 ] } },
{ "type": "Feature", "properties": { "vote_count": 10, "source_tile": "K-35-052-4_32635_x2016_y0.png", "mound_probability": 0.98 }, "geometry": { "type": "Point", "coordinates": [ 25.87105792242879, 42.496119168855301 ] } },
{ "type": "Feature", "properties": { "vote_count": 10, "source_tile": "K-35-052-4_32635_x1680_y0.png", "mound_probability": 0.98 }, "geometry": { "type": "Point", "coordinates": [ 25.869575681056791, 42.494602366074467 ] } },
{ "type": "Feature", "properties": { "vote_count": 10, "source_tile": "K-35-052-4_32635_x2016_y0.png", "mound_probability": 0.98 }, "geometry": { "type": "Point", "coordinates": [ 25.870447840749168, 42.49342931161619 ] } },
{ "type": "Feature", "properties": { "vote_count": 10, "source_tile": "K-35-052-4_32635_x0_y1680.png", "mound_probability": 0.99 }, "geometry": { "type": "Point", "coordinates": [ 25.765756416960421, 42.420807278452273 ] } },
{ "type": "Feature", "properties": { "vote_count": 10, "source_tile": "K-35-052-4_32635_x0_y1680.png", "mound_probability": 1.0 }, "geometry": { "type": "Point", "coordinates": [ 25.764856604160304, 42.420274975975033 ] } },
{ "type": "Feature", "properties": { "vote_count": 10, "source_tile": "K-35-052-4_32635_x336_y1008.png", "mound_probability": 0.98 }, "geometry": { "type": "Point", "coordinates": [ 25.77221543487223, 42.446768113346636 ] } },
{ "type": "Feature", "properties": { "vote_count": 10, "source_tile": "K-35-052-4_32635_x2016_y1008.png", "mound_probability": 0.98 }, "geometry": { "type": "Point", "coordinates": [ 25.879956626279618, 42.450301550934846 ] } },
{ "type": "Feature", "properties": { "vote_count": 10, "source_tile": "K-35-052-4_32635_x0_y2016.png", "mound_probability": 0.98 }, "geometry": { "type": "Point", "coordinates": [ 25.751914811585824, 42.401160331041105 ] } },
{ "type": "Feature", "properties": { "vote_count": 10, "source_tile": "K-35-052-4_32635_x0_y2016.png", "mound_probability": 0.98 }, "geometry": { "type": "Point", "coordinates": [ 25.764868371692828, 42.393668088382576 ] } },
{ "type": "Feature", "properties": { "vote_count": 10, "source_tile": "K-35-052-4_32635_x0_y2016.png", "mound_probability": 0.99 }, "geometry": { "type": "Point", "coordinates": [ 25.764842138184438, 42.392621932131632 ] } },
{ "type": "Feature", "properties": { "vote_count": 10, "source_tile": "K-35-052-4_32635_x0_y2352.png", "mound_probability": 0.99 }, "geometry": { "type": "Point", "coordinates": [ 25.763926442488277, 42.389495231698277 ] } },
{ "type": "Feature", "properties": { "vote_count": 10, "source_tile": "K-35-052-4_32635_x0_y2352.png", "mound_probability": 0.98 }, "geometry": { "type": "Point", "coordinates": [ 25.76608947695691, 42.390463554900329 ] } },
{ "type": "Feature", "properties": { "vote_count": 10, "source_tile": "K-35-052-4_32635_x0_y2352.png", "mound_probability": 0.98 }, "geometry": { "type": "Point", "coordinates": [ 25.767120010964131, 42.390605603171494 ] } },
{ "type": "Feature", "properties": { "vote_count": 10, "source_tile": "K-35-052-4_32635_x0_y2016.png", "mound_probability": 0.98 }, "geometry": { "type": "Point", "coordinates": [ 25.768695045757863, 42.3936380741251 ] } },
{ "type": "Feature", "properties": { "vote_count": 10, "source_tile": "K-35-052-4_32635_x1008_y3360.png", "mound_probability": 0.98 }, "geometry": { "type": "Point", "coordinates": [ 25.824432735433152, 42.338347991867181 ] } },
{ "type": "Feature", "properties": { "vote_count": 10, "source_tile": "K-35-052-4_32635_x336_y2016.png", "mound_probability": 0.99 }, "geometry": { "type": "Point", "coordinates": [ 25.773856241038263, 42.393222260264629 ] } },
{ "type": "Feature", "properties": { "vote_count": 10, "source_tile": "K-35-052-4_32635_x336_y2016.png", "mound_probability": 0.98 }, "geometry": { "type": "Point", "coordinates": [ 25.77601200760424, 42.392754741497377 ] } },
{ "type": "Feature", "properties": { "vote_count": 10, "source_tile": "K-35-052-4_32635_x336_y2352.png", "mound_probability": 0.98 }, "geometry": { "type": "Point", "coordinates": [ 25.772435930627513, 42.387630289740756 ] } },
{ "type": "Feature", "properties": { "vote_count": 10, "source_tile": "K-35-052-4_32635_x2016_y336.png", "mound_probability": 0.98 }, "geometry": { "type": "Point", "coordinates": [ 25.885774781687655, 42.481680930442437 ] } },
{ "type": "Feature", "properties": { "vote_count": 10, "source_tile": "K-35-052-4_32635_x336_y1680.png", "mound_probability": 0.99 }, "geometry": { "type": "Point", "coordinates": [ 25.77517018509754, 42.421471444129288 ] } },
{ "type": "Feature", "properties": { "vote_count": 10, "source_tile": "K-35-052-4_32635_x1008_y3360.png", "mound_probability": 0.98 }, "geometry": { "type": "Point", "coordinates": [ 25.826744273675704, 42.336995226985273 ] } },
{ "type": "Feature", "properties": { "vote_count": 10, "source_tile": "K-35-052-4_32635_x1008_y336.png", "mound_probability": 0.98 }, "geometry": { "type": "Point", "coordinates": [ 25.828630297989083, 42.480693520034798 ] } },
{ "type": "Feature", "properties": { "vote_count": 10, "source_tile": "K-35-052-4_32635_x0_y0.png", "mound_probability": 0.98 }, "geometry": { "type": "Point", "coordinates": [ 25.764270529268426, 42.483807958643503 ] } },
{ "type": "Feature", "properties": { "vote_count": 10, "source_tile": "K-35-052-4_32635_x336_y336.png", "mound_probability": 0.98 }, "geometry": { "type": "Point", "coordinates": [ 25.767877270993797, 42.471023361196615 ] } },
{ "type": "Feature", "properties": { "vote_count": 10, "source_tile": "K-35-052-4_32635_x336_y336.png", "mound_probability": 0.98 }, "geometry": { "type": "Point", "coordinates": [ 25.779971541494668, 42.469792852495679 ] } },
{ "type": "Feature", "properties": { "vote_count": 10, "source_tile": "K-35-052-4_32635_x0_y2352.png", "mound_probability": 1.0 }, "geometry": { "type": "Point", "coordinates": [ 25.769072414418098, 42.385833736754037 ] } },
{ "type": "Feature", "properties": { "vote_count": 10, "source_tile": "K-35-052-4_32635_x336_y2352.png", "mound_probability": 0.99 }, "geometry": { "type": "Point", "coordinates": [ 25.775501281590188, 42.387118154650686 ] } },
{ "type": "Feature", "properties": { "vote_count": 10, "source_tile": "K-35-052-4_32635_x336_y2352.png", "mound_probability": 1.0 }, "geometry": { "type": "Point", "coordinates": [ 25.769396234395689, 42.384747693833582 ] } },
{ "type": "Feature", "properties": { "vote_count": 10, "source_tile": "K-35-052-4_32635_x336_y2352.png", "mound_probability": 1.0 }, "geometry": { "type": "Point", "coordinates": [ 25.769841214274983, 42.383683203772193 ] } },
{ "type": "Feature", "properties": { "vote_count": 10, "source_tile": "K-35-052-4_32635_x1008_y336.png", "mound_probability": 0.98 }, "geometry": { "type": "Point", "coordinates": [ 25.826932886947244, 42.479147542152141 ] } },
{ "type": "Feature", "properties": { "vote_count": 10, "source_tile": "K-35-052-4_32635_x2352_y1008.png", "mound_probability": 0.98 }, "geometry": { "type": "Point", "coordinates": [ 25.904462545002261, 42.453692117912176 ] } },
{ "type": "Feature", "properties": { "vote_count": 10, "source_tile": "K-35-052-4_32635_x2688_y672.png", "mound_probability": 1.0 }, "geometry": { "type": "Point", "coordinates": [ 25.915895480988905, 42.468994740392489 ] } },
{ "type": "Feature", "properties": { "vote_count": 10, "source_tile": "K-35-052-4_32635_x2688_y1680.png", "mound_probability": 1.0 }, "geometry": { "type": "Point", "coordinates": [ 25.921068540020009, 42.414201529657589 ] } },
{ "type": "Feature", "properties": { "vote_count": 10, "source_tile": "K-35-052-4_32635_x2688_y1008.png", "mound_probability": 0.98 }, "geometry": { "type": "Point", "coordinates": [ 25.918313087426981, 42.439693861818547 ] } },
{ "type": "Feature", "properties": { "vote_count": 10, "source_tile": "K-35-052-4_32635_x2688_y1344.png", "mound_probability": 0.98 }, "geometry": { "type": "Point", "coordinates": [ 25.926797719940506, 42.42490182773755 ] } },
{ "type": "Feature", "properties": { "vote_count": 10, "source_tile": "K-35-052-4_32635_x3024_y2016.png", "mound_probability": 0.98 }, "geometry": { "type": "Point", "coordinates": [ 25.944085312609833, 42.40817757288751 ] } },
{ "type": "Feature", "properties": { "vote_count": 10, "source_tile": "K-35-052-4_32635_x3024_y3024.png", "mound_probability": 0.98 }, "geometry": { "type": "Point", "coordinates": [ 25.94582961378811, 42.354200349146353 ] } },
{ "type": "Feature", "properties": { "vote_count": 10, "source_tile": "K-35-052-4_32635_x3024_y2352.png", "mound_probability": 0.98 }, "geometry": { "type": "Point", "coordinates": [ 25.939943448875717, 42.381958860437464 ] } },
{ "type": "Feature", "properties": { "vote_count": 10, "source_tile": "K-35-052-4_32635_x3360_y3696.png", "mound_probability": 0.98 }, "geometry": { "type": "Point", "coordinates": [ 25.959172133254416, 42.333700497402134 ] } },
{ "type": "Feature", "properties": { "vote_count": 10, "source_tile": "K-35-052-4_32635_x3024_y2352.png", "mound_probability": 0.99 }, "geometry": { "type": "Point", "coordinates": [ 25.948770683186272, 42.394505603720269 ] } },
{ "type": "Feature", "properties": { "vote_count": 10, "source_tile": "K-35-052-4_32635_x3024_y3024.png", "mound_probability": 0.98 }, "geometry": { "type": "Point", "coordinates": [ 25.946071847742473, 42.357325886444094 ] } },
{ "type": "Feature", "properties": { "vote_count": 10, "source_tile": "K-35-052-4_32635_x3360_y2352.png", "mound_probability": 0.98 }, "geometry": { "type": "Point", "coordinates": [ 25.970218896610621, 42.385114956154887 ] } },
{ "type": "Feature", "properties": { "vote_count": 10, "source_tile": "K-35-052-4_32635_x3360_y2016.png", "mound_probability": 0.98 }, "geometry": { "type": "Point", "coordinates": [ 25.967464177301764, 42.399644355013791 ] } },
{ "type": "Feature", "properties": { "vote_count": 10, "source_tile": "K-35-052-4_32635_x3696_y1344.png", "mound_probability": 1.0 }, "geometry": { "type": "Point", "coordinates": [ 25.972450686745979, 42.433399778238261 ] } },
{ "type": "Feature", "properties": { "vote_count": 10, "source_tile": "K-35-052-4_32635_x3696_y1344.png", "mound_probability": 0.99 }, "geometry": { "type": "Point", "coordinates": [ 25.984324243744577, 42.426996742312653 ] } },
{ "type": "Feature", "properties": { "vote_count": 10, "source_tile": "K-35-052-4_32635_x3024_y3024.png", "mound_probability": 0.99 }, "geometry": { "type": "Point", "coordinates": [ 25.946260564288789, 42.351775260971259 ] } },
{ "type": "Feature", "properties": { "vote_count": 10, "source_tile": "K-35-052-4_32635_x3024_y3024.png", "mound_probability": 0.99 }, "geometry": { "type": "Point", "coordinates": [ 25.946175654864199, 42.35079869463857 ] } },
{ "type": "Feature", "properties": { "vote_count": 10, "source_tile": "K-35-052-4_32635_x3360_y2688.png", "mound_probability": 0.98 }, "geometry": { "type": "Point", "coordinates": [ 25.959082569320632, 42.370766417129332 ] } },
{ "type": "Feature", "properties": { "vote_count": 10, "source_tile": "K-35-052-4_32635_x336_y2016.png", "mound_probability": 0.99 }, "geometry": { "type": "Point", "coordinates": [ 25.772582007238707, 42.405306007803468 ] } },
{ "type": "Feature", "properties": { "vote_count": 10, "source_tile": "K-35-052-4_32635_x3696_y2352.png", "mound_probability": 0.99 }, "geometry": { "type": "Point", "coordinates": [ 25.989329105298911, 42.384704369306867 ] } },
{ "type": "Feature", "properties": { "vote_count": 10, "source_tile": "K-35-052-4_32635_x3696_y2688.png", "mound_probability": 0.98 }, "geometry": { "type": "Point", "coordinates": [ 25.984859004409188, 42.376051984728733 ] } },
{ "type": "Feature", "properties": { "vote_count": 10, "source_tile": "K-35-052-4_32635_x3696_y2016.png", "mound_probability": 0.98 }, "geometry": { "type": "Point", "coordinates": [ 25.987028123683707, 42.397188215264549 ] } },
{ "type": "Feature", "properties": { "vote_count": 10, "source_tile": "K-35-052-4_32635_x336_y1344.png", "mound_probability": 1.0 }, "geometry": { "type": "Point", "coordinates": [ 25.786412383150498, 42.437407132630952 ] } },
{ "type": "Feature", "properties": { "vote_count": 10, "source_tile": "K-35-052-4_32635_x336_y1680.png", "mound_probability": 0.99 }, "geometry": { "type": "Point", "coordinates": [ 25.786265021797998, 42.413717972615181 ] } },
{ "type": "Feature", "properties": { "vote_count": 10, "source_tile": "K-35-052-4_32635_x672_y1680.png", "mound_probability": 0.99 }, "geometry": { "type": "Point", "coordinates": [ 25.788250285403919, 42.413788791154047 ] } },
{ "type": "Feature", "properties": { "vote_count": 10, "source_tile": "K-35-052-4_32635_x672_y1680.png", "mound_probability": 0.98 }, "geometry": { "type": "Point", "coordinates": [ 25.793188580571854, 42.410713456610601 ] } },
{ "type": "Feature", "properties": { "vote_count": 10, "source_tile": "K-35-052-4_32635_x336_y2352.png", "mound_probability": 0.99 }, "geometry": { "type": "Point", "coordinates": [ 25.785775602089586, 42.384932540271187 ] } },
{ "type": "Feature", "properties": { "vote_count": 10, "source_tile": "K-35-052-4_32635_x672_y1344.png", "mound_probability": 0.98 }, "geometry": { "type": "Point", "coordinates": [ 25.799461500725062, 42.432957876741838 ] } },
{ "type": "Feature", "properties": { "vote_count": 10, "source_tile": "K-35-052-4_32635_x672_y1680.png", "mound_probability": 0.98 }, "geometry": { "type": "Point", "coordinates": [ 25.795391682949479, 42.422827636461868 ] } },
{ "type": "Feature", "properties": { "vote_count": 10, "source_tile": "K-35-052-4_32635_x672_y1680.png", "mound_probability": 0.98 }, "geometry": { "type": "Point", "coordinates": [ 25.793682740067077, 42.409572942646207 ] } },
{ "type": "Feature", "properties": { "vote_count": 10, "source_tile": "K-35-052-4_32635_x672_y1008.png", "mound_probability": 1.0 }, "geometry": { "type": "Point", "coordinates": [ 25.800462875212762, 42.440447186694264 ] } },
{ "type": "Feature", "properties": { "vote_count": 10, "source_tile": "K-35-052-4_32635_x672_y1008.png", "mound_probability": 0.99 }, "geometry": { "type": "Point", "coordinates": [ 25.805742076920176, 42.438952816551613 ] } },
{ "type": "Feature", "properties": { "vote_count": 10, "source_tile": "K-35-052-4_32635_x672_y2352.png", "mound_probability": 0.98 }, "geometry": { "type": "Point", "coordinates": [ 25.798272036285109, 42.38820195220346 ] } },
{ "type": "Feature", "properties": { "vote_count": 10, "source_tile": "K-35-052-4_32635_x672_y1008.png", "mound_probability": 0.98 }, "geometry": { "type": "Point", "coordinates": [ 25.803660592522611, 42.44882925998035 ] } },
{ "type": "Feature", "properties": { "vote_count": 10, "source_tile": "K-35-052-4_32635_x672_y2352.png", "mound_probability": 0.98 }, "geometry": { "type": "Point", "coordinates": [ 25.802762034797542, 42.385385184949875 ] } },
{ "type": "Feature", "properties": { "vote_count": 10, "source_tile": "K-35-052-4_32635_x672_y2352.png", "mound_probability": 0.98 }, "geometry": { "type": "Point", "coordinates": [ 25.800565520213876, 42.38757157938506 ] } },
{ "type": "Feature", "properties": { "vote_count": 10, "source_tile": "K-35-052-4_32635_x672_y2352.png", "mound_probability": 1.0 }, "geometry": { "type": "Point", "coordinates": [ 25.794545140001741, 42.386521245608577 ] } },
{ "type": "Feature", "properties": { "vote_count": 10, "source_tile": "K-35-053-3_Elenovo_x0_y1344.png", "mound_probability": 0.98 }, "geometry": { "type": "Point", "coordinates": [ 26.014640387621366, 42.428913758221107 ] } },
{ "type": "Feature", "properties": { "vote_count": 10, "source_tile": "K-35-053-3_Elenovo_x1008_y336.png", "mound_probability": 0.98 }, "geometry": { "type": "Point", "coordinates": [ 26.076616066973944, 42.483937824766585 ] } },
{ "type": "Feature", "properties": { "vote_count": 10, "source_tile": "K-35-053-3_Elenovo_x1008_y2016.png", "mound_probability": 0.98 }, "geometry": { "type": "Point", "coordinates": [ 26.075372862098362, 42.405693001402597 ] } },
{ "type": "Feature", "properties": { "vote_count": 10, "source_tile": "K-35-053-3_Elenovo_x1344_y2016.png", "mound_probability": 0.98 }, "geometry": { "type": "Point", "coordinates": [ 26.083009778595404, 42.404519636345597 ] } },
{ "type": "Feature", "properties": { "vote_count": 10, "source_tile": "K-35-053-3_Elenovo_x1344_y2016.png", "mound_probability": 0.98 }, "geometry": { "type": "Point", "coordinates": [ 26.089239551052025, 42.402263019095862 ] } },
{ "type": "Feature", "properties": { "vote_count": 10, "source_tile": "K-35-053-3_Elenovo_x1008_y2016.png", "mound_probability": 0.98 }, "geometry": { "type": "Point", "coordinates": [ 26.075096453043773, 42.397473718033446 ] } },
{ "type": "Feature", "properties": { "vote_count": 10, "source_tile": "K-35-053-3_Elenovo_x1008_y3360.png", "mound_probability": 0.98 }, "geometry": { "type": "Point", "coordinates": [ 26.075509807695109, 42.346924481621762 ] } },
{ "type": "Feature", "properties": { "vote_count": 10, "source_tile": "K-35-053-3_Elenovo_x1008_y3360.png", "mound_probability": 0.98 }, "geometry": { "type": "Point", "coordinates": [ 26.080039426325705, 42.346928141022993 ] } },
{ "type": "Feature", "properties": { "vote_count": 10, "source_tile": "K-35-053-3_Elenovo_x1344_y0.png", "mound_probability": 0.98 }, "geometry": { "type": "Point", "coordinates": [ 26.090952661693397, 42.494168054663902 ] } },
{ "type": "Feature", "properties": { "vote_count": 10, "source_tile": "K-35-053-3_Elenovo_x1344_y0.png", "mound_probability": 0.98 }, "geometry": { "type": "Point", "coordinates": [ 26.094358143425293, 42.493013837721413 ] } },
{ "type": "Feature", "properties": { "vote_count": 10, "source_tile": "K-35-053-3_Elenovo_x1344_y0.png", "mound_probability": 1.0 }, "geometry": { "type": "Point", "coordinates": [ 26.097640454728033, 42.490383265525736 ] } },
{ "type": "Feature", "properties": { "vote_count": 10, "source_tile": "K-35-053-3_Elenovo_x0_y1680.png", "mound_probability": 0.98 }, "geometry": { "type": "Point", "coordinates": [ 26.010490126765436, 42.417742887073111 ] } },
{ "type": "Feature", "properties": { "vote_count": 10, "source_tile": "K-35-053-3_Elenovo_x1344_y2688.png", "mound_probability": 0.98 }, "geometry": { "type": "Point", "coordinates": [ 26.099585286118884, 42.375371131871013 ] } },
{ "type": "Feature", "properties": { "vote_count": 10, "source_tile": "K-35-053-3_Elenovo_x1344_y2688.png", "mound_probability": 0.98 }, "geometry": { "type": "Point", "coordinates": [ 26.099086535590704, 42.377650838887874 ] } },
{ "type": "Feature", "properties": { "vote_count": 10, "source_tile": "K-35-053-3_Elenovo_x1344_y2688.png", "mound_probability": 0.98 }, "geometry": { "type": "Point", "coordinates": [ 26.099383541016174, 42.376510086754024 ] } },
{ "type": "Feature", "properties": { "vote_count": 10, "source_tile": "K-35-053-3_Elenovo_x0_y1680.png", "mound_probability": 0.98 }, "geometry": { "type": "Point", "coordinates": [ 26.00377765118558, 42.412891105245727 ] } },
{ "type": "Feature", "properties": { "vote_count": 10, "source_tile": "K-35-053-3_Elenovo_x0_y1680.png", "mound_probability": 0.98 }, "geometry": { "type": "Point", "coordinates": [ 26.005473870110809, 42.410418268545399 ] } },
{ "type": "Feature", "properties": { "vote_count": 10, "source_tile": "K-35-053-3_Elenovo_x1344_y672.png", "mound_probability": 0.98 }, "geometry": { "type": "Point", "coordinates": [ 26.090487201287068, 42.466686179718742 ] } },
{ "type": "Feature", "properties": { "vote_count": 10, "source_tile": "K-35-053-3_Elenovo_x1344_y672.png", "mound_probability": 0.99 }, "geometry": { "type": "Point", "coordinates": [ 26.091143235278182, 42.465667286093598 ] } },
{ "type": "Feature", "properties": { "vote_count": 10, "source_tile": "K-35-053-3_Elenovo_x1680_y0.png", "mound_probability": 0.98 }, "geometry": { "type": "Point", "coordinates": [ 26.112689642749366, 42.492353322941177 ] } },
{ "type": "Feature", "properties": { "vote_count": 10, "source_tile": "K-35-053-3_Elenovo_x1680_y3360.png", "mound_probability": 0.98 }, "geometry": { "type": "Point", "coordinates": [ 26.113358077176461, 42.341977495512324 ] } },
{ "type": "Feature", "properties": { "vote_count": 10, "source_tile": "K-35-053-3_Elenovo_x1680_y3360.png", "mound_probability": 0.98 }, "geometry": { "type": "Point", "coordinates": [ 26.114299306999776, 42.342003684674204 ] } },
{ "type": "Feature", "properties": { "vote_count": 10, "source_tile": "K-35-053-3_Elenovo_x1680_y3360.png", "mound_probability": 0.99 }, "geometry": { "type": "Point", "coordinates": [ 26.113524831636262, 42.34127375478505 ] } },
{ "type": "Feature", "properties": { "vote_count": 10, "source_tile": "K-35-053-3_Elenovo_x1680_y3360.png", "mound_probability": 0.98 }, "geometry": { "type": "Point", "coordinates": [ 26.111104201250726, 42.340518796506274 ] } },
{ "type": "Feature", "properties": { "vote_count": 10, "source_tile": "K-35-053-3_Elenovo_x1008_y0.png", "mound_probability": 0.98 }, "geometry": { "type": "Point", "coordinates": [ 26.07733704544815, 42.497553833832185 ] } },
{ "type": "Feature", "properties": { "vote_count": 10, "source_tile": "K-35-053-3_Elenovo_x1008_y0.png", "mound_probability": 0.98 }, "geometry": { "type": "Point", "coordinates": [ 26.071039702598721, 42.492602390589951 ] } },
{ "type": "Feature", "properties": { "vote_count": 10, "source_tile": "K-35-053-3_Elenovo_x1680_y336.png", "mound_probability": 0.98 }, "geometry": { "type": "Point", "coordinates": [ 26.118128818818587, 42.480837963200244 ] } },
{ "type": "Feature", "properties": { "vote_count": 10, "source_tile": "K-35-053-3_Elenovo_x2016_y0.png", "mound_probability": 0.98 }, "geometry": { "type": "Point", "coordinates": [ 26.122202671053614, 42.491509402567608 ] } },
{ "type": "Feature", "properties": { "vote_count": 10, "source_tile": "K-35-053-3_Elenovo_x1680_y3024.png", "mound_probability": 0.98 }, "geometry": { "type": "Point", "coordinates": [ 26.115255469272213, 42.348925709180925 ] } },
{ "type": "Feature", "properties": { "vote_count": 10, "source_tile": "K-35-053-3_Elenovo_x1680_y3360.png", "mound_probability": 0.98 }, "geometry": { "type": "Point", "coordinates": [ 26.114499165442712, 42.34737229109453 ] } },
{ "type": "Feature", "properties": { "vote_count": 10, "source_tile": "K-35-053-3_Elenovo_x1680_y672.png", "mound_probability": 1.0 }, "geometry": { "type": "Point", "coordinates": [ 26.10766122930325, 42.465157038239099 ] } },
{ "type": "Feature", "properties": { "vote_count": 10, "source_tile": "K-35-053-3_Elenovo_x2016_y0.png", "mound_probability": 0.99 }, "geometry": { "type": "Point", "coordinates": [ 26.120854017223678, 42.496252589130926 ] } },
{ "type": "Feature", "properties": { "vote_count": 10, "source_tile": "K-35-053-3_Elenovo_x1680_y3360.png", "mound_probability": 0.98 }, "geometry": { "type": "Point", "coordinates": [ 26.117944787556333, 42.338567999316126 ] } },
{ "type": "Feature", "properties": { "vote_count": 10, "source_tile": "K-35-053-3_Elenovo_x1680_y1680.png", "mound_probability": 0.98 }, "geometry": { "type": "Point", "coordinates": [ 26.117559115739997, 42.417113833881288 ] } },
{ "type": "Feature", "properties": { "vote_count": 10, "source_tile": "K-35-053-3_Elenovo_x336_y336.png", "mound_probability": 0.98 }, "geometry": { "type": "Point", "coordinates": [ 26.025198105577854, 42.479886828359405 ] } },
{ "type": "Feature", "properties": { "vote_count": 10, "source_tile": "K-35-053-3_Elenovo_x336_y336.png", "mound_probability": 0.98 }, "geometry": { "type": "Point", "coordinates": [ 26.027748180861227, 42.474496796289863 ] } },
{ "type": "Feature", "properties": { "vote_count": 10, "source_tile": "K-35-053-3_Elenovo_x1344_y2016.png", "mound_probability": 0.98 }, "geometry": { "type": "Point", "coordinates": [ 26.096701091555524, 42.39604528957458 ] } },
{ "type": "Feature", "properties": { "vote_count": 10, "source_tile": "K-35-053-3_Elenovo_x1344_y2352.png", "mound_probability": 0.98 }, "geometry": { "type": "Point", "coordinates": [ 26.100170637992704, 42.388184481544897 ] } },
{ "type": "Feature", "properties": { "vote_count": 10, "source_tile": "K-35-053-3_Elenovo_x2016_y336.png", "mound_probability": 0.99 }, "geometry": { "type": "Point", "coordinates": [ 26.129299820548752, 42.479319373153679 ] } },
{ "type": "Feature", "properties": { "vote_count": 10, "source_tile": "K-35-053-3_Elenovo_x336_y2352.png", "mound_probability": 0.98 }, "geometry": { "type": "Point", "coordinates": [ 26.026292368148884, 42.380473154924253 ] } },
{ "type": "Feature", "properties": { "vote_count": 10, "source_tile": "K-35-053-3_Elenovo_x2352_y0.png", "mound_probability": 0.98 }, "geometry": { "type": "Point", "coordinates": [ 26.145042880103002, 42.49854673394632 ] } },
{ "type": "Feature", "properties": { "vote_count": 10, "source_tile": "K-35-053-3_Elenovo_x2352_y0.png", "mound_probability": 0.98 }, "geometry": { "type": "Point", "coordinates": [ 26.142592381069218, 42.49091195999894 ] } },
{ "type": "Feature", "properties": { "vote_count": 10, "source_tile": "K-35-053-3_Elenovo_x2016_y1008.png", "mound_probability": 0.98 }, "geometry": { "type": "Point", "coordinates": [ 26.137145370127559, 42.450606041925944 ] } },
{ "type": "Feature", "properties": { "vote_count": 10, "source_tile": "K-35-053-3_Elenovo_x2352_y0.png", "mound_probability": 0.98 }, "geometry": { "type": "Point", "coordinates": [ 26.15556120842324, 42.497334388555402 ] } },
{ "type": "Feature", "properties": { "vote_count": 10, "source_tile": "K-35-053-3_Elenovo_x2352_y0.png", "mound_probability": 0.99 }, "geometry": { "type": "Point", "coordinates": [ 26.156826310811045, 42.498014641565817 ] } },
{ "type": "Feature", "properties": { "vote_count": 10, "source_tile": "K-35-053-3_Elenovo_x2688_y1680.png", "mound_probability": 0.98 }, "geometry": { "type": "Point", "coordinates": [ 26.17334177825229, 42.418155227469342 ] } },
{ "type": "Feature", "properties": { "vote_count": 10, "source_tile": "K-35-053-3_Elenovo_x0_y2016.png", "mound_probability": 0.98 }, "geometry": { "type": "Point", "coordinates": [ 26.003085235534712, 42.396264765154029 ] } },
{ "type": "Feature", "properties": { "vote_count": 10, "source_tile": "K-35-053-3_Elenovo_x336_y1008.png", "mound_probability": 0.98 }, "geometry": { "type": "Point", "coordinates": [ 26.025673887096367, 42.439957515626595 ] } },
{ "type": "Feature", "properties": { "vote_count": 10, "source_tile": "K-35-053-3_Elenovo_x2688_y336.png", "mound_probability": 1.0 }, "geometry": { "type": "Point", "coordinates": [ 26.175835293134231, 42.47368824961363 ] } },
{ "type": "Feature", "properties": { "vote_count": 10, "source_tile": "K-35-053-3_Elenovo_x2688_y1008.png", "mound_probability": 1.0 }, "geometry": { "type": "Point", "coordinates": [ 26.17020447544758, 42.453444765150216 ] } },
{ "type": "Feature", "properties": { "vote_count": 10, "source_tile": "K-35-053-3_Elenovo_x3024_y1680.png", "mound_probability": 0.98 }, "geometry": { "type": "Point", "coordinates": [ 26.186301109016341, 42.419308517087885 ] } },
{ "type": "Feature", "properties": { "vote_count": 10, "source_tile": "K-35-053-3_Elenovo_x3024_y2016.png", "mound_probability": 0.98 }, "geometry": { "type": "Point", "coordinates": [ 26.186273058218056, 42.398416427022177 ] } },
{ "type": "Feature", "properties": { "vote_count": 10, "source_tile": "K-35-053-3_Elenovo_x3360_y0.png", "mound_probability": 0.98 }, "geometry": { "type": "Point", "coordinates": [ 26.203918161810261, 42.492848786168729 ] } },
{ "type": "Feature", "properties": { "vote_count": 10, "source_tile": "K-35-053-3_Elenovo_x3024_y2352.png", "mound_probability": 0.98 }, "geometry": { "type": "Point", "coordinates": [ 26.189190436684704, 42.387714015650893 ] } },
{ "type": "Feature", "properties": { "vote_count": 10, "source_tile": "K-35-053-3_Elenovo_x3024_y2352.png", "mound_probability": 0.98 }, "geometry": { "type": "Point", "coordinates": [ 26.191833811566674, 42.381147117130482 ] } },
{ "type": "Feature", "properties": { "vote_count": 10, "source_tile": "K-35-053-3_Elenovo_x3360_y672.png", "mound_probability": 0.98 }, "geometry": { "type": "Point", "coordinates": [ 26.202881716022826, 42.468756150485596 ] } },
{ "type": "Feature", "properties": { "vote_count": 10, "source_tile": "K-35-053-3_Elenovo_x3360_y336.png", "mound_probability": 0.98 }, "geometry": { "type": "Point", "coordinates": [ 26.209729683900203, 42.481598241527841 ] } },
{ "type": "Feature", "properties": { "vote_count": 10, "source_tile": "K-35-053-3_Elenovo_x3360_y336.png", "mound_probability": 1.0 }, "geometry": { "type": "Point", "coordinates": [ 26.216369320032545, 42.481108891730798 ] } },
{ "type": "Feature", "properties": { "vote_count": 10, "source_tile": "K-35-053-3_Elenovo_x3360_y1680.png", "mound_probability": 0.98 }, "geometry": { "type": "Point", "coordinates": [ 26.204289843412365, 42.423038742287353 ] } },
{ "type": "Feature", "properties": { "vote_count": 10, "source_tile": "K-35-053-3_Elenovo_x3024_y1680.png", "mound_probability": 0.99 }, "geometry": { "type": "Point", "coordinates": [ 26.200219125218204, 42.416433767003255 ] } },
{ "type": "Feature", "properties": { "vote_count": 10, "source_tile": "K-35-053-3_Elenovo_x3360_y1680.png", "mound_probability": 0.98 }, "geometry": { "type": "Point", "coordinates": [ 26.212529982632208, 42.417241177137846 ] } },
{ "type": "Feature", "properties": { "vote_count": 10, "source_tile": "K-35-053-3_Elenovo_x3360_y2352.png", "mound_probability": 0.98 }, "geometry": { "type": "Point", "coordinates": [ 26.206332884953088, 42.383359231425977 ] } },
{ "type": "Feature", "properties": { "vote_count": 10, "source_tile": "K-35-053-3_Elenovo_x3360_y2352.png", "mound_probability": 0.99 }, "geometry": { "type": "Point", "coordinates": [ 26.21755973325358, 42.384160273886465 ] } },
{ "type": "Feature", "properties": { "vote_count": 10, "source_tile": "K-35-053-3_Elenovo_x3024_y2016.png", "mound_probability": 0.99 }, "geometry": { "type": "Point", "coordinates": [ 26.198615720472432, 42.407345558880934 ] } },
{ "type": "Feature", "properties": { "vote_count": 10, "source_tile": "K-35-053-3_Elenovo_x3024_y2016.png", "mound_probability": 0.99 }, "geometry": { "type": "Point", "coordinates": [ 26.196956935715601, 42.407316696798006 ] } },
{ "type": "Feature", "properties": { "vote_count": 10, "source_tile": "K-35-053-3_Elenovo_x3360_y1680.png", "mound_probability": 1.0 }, "geometry": { "type": "Point", "coordinates": [ 26.210110440358996, 42.410879782510577 ] } },
{ "type": "Feature", "properties": { "vote_count": 10, "source_tile": "K-35-053-3_Elenovo_x3360_y2016.png", "mound_probability": 1.0 }, "geometry": { "type": "Point", "coordinates": [ 26.214923917294669, 42.408771789471629 ] } },
{ "type": "Feature", "properties": { "vote_count": 10, "source_tile": "K-35-053-3_Elenovo_x3024_y1680.png", "mound_probability": 0.98 }, "geometry": { "type": "Point", "coordinates": [ 26.196375938827881, 42.411477359818619 ] } },
{ "type": "Feature", "properties": { "vote_count": 10, "source_tile": "K-35-053-3_Elenovo_x3360_y2016.png", "mound_probability": 0.98 }, "geometry": { "type": "Point", "coordinates": [ 26.205574711183978, 42.401814950412522 ] } },
{ "type": "Feature", "properties": { "vote_count": 10, "source_tile": "K-35-053-3_Elenovo_x3024_y2016.png", "mound_probability": 0.99 }, "geometry": { "type": "Point", "coordinates": [ 26.199383107088174, 42.40512160958469 ] } },
{ "type": "Feature", "properties": { "vote_count": 10, "source_tile": "K-35-053-3_Elenovo_x3696_y2016.png", "mound_probability": 0.99 }, "geometry": { "type": "Point", "coordinates": [ 26.230057857313341, 42.408221523592921 ] } },
{ "type": "Feature", "properties": { "vote_count": 10, "source_tile": "K-35-053-3_Elenovo_x3360_y2016.png", "mound_probability": 0.98 }, "geometry": { "type": "Point", "coordinates": [ 26.221496120896287, 42.400915155733358 ] } },
{ "type": "Feature", "properties": { "vote_count": 10, "source_tile": "K-35-053-3_Elenovo_x3696_y2688.png", "mound_probability": 0.99 }, "geometry": { "type": "Point", "coordinates": [ 26.228809560668648, 42.372524496542468 ] } },
{ "type": "Feature", "properties": { "vote_count": 10, "source_tile": "K-35-053-3_Elenovo_x3696_y3024.png", "mound_probability": 0.98 }, "geometry": { "type": "Point", "coordinates": [ 26.227106238570588, 42.36378203164395 ] } },
{ "type": "Feature", "properties": { "vote_count": 10, "source_tile": "K-35-053-3_Elenovo_x3360_y1680.png", "mound_probability": 0.99 }, "geometry": { "type": "Point", "coordinates": [ 26.219645269393926, 42.417260119058405 ] } },
{ "type": "Feature", "properties": { "vote_count": 10, "source_tile": "K-35-053-3_Elenovo_x3696_y2352.png", "mound_probability": 0.98 }, "geometry": { "type": "Point", "coordinates": [ 26.227448654257628, 42.392552994519733 ] } },
{ "type": "Feature", "properties": { "vote_count": 10, "source_tile": "K-35-053-3_Elenovo_x3360_y1008.png", "mound_probability": 1.0 }, "geometry": { "type": "Point", "coordinates": [ 26.221485305607931, 42.452983232267833 ] } },
{ "type": "Feature", "properties": { "vote_count": 10, "source_tile": "K-35-053-3_Elenovo_x3360_y0.png", "mound_probability": 0.98 }, "geometry": { "type": "Point", "coordinates": [ 26.221656084311292, 42.489500061807874 ] } },
{ "type": "Feature", "properties": { "vote_count": 10, "source_tile": "K-35-053-3_Elenovo_x3696_y336.png", "mound_probability": 0.98 }, "geometry": { "type": "Point", "coordinates": [ 26.225660352055673, 42.48179729321182 ] } },
{ "type": "Feature", "properties": { "vote_count": 10, "source_tile": "K-35-053-3_Elenovo_x3360_y336.png", "mound_probability": 1.0 }, "geometry": { "type": "Point", "coordinates": [ 26.221878869502291, 42.480788010246634 ] } },
{ "type": "Feature", "properties": { "vote_count": 10, "source_tile": "K-35-053-3_Elenovo_x3360_y0.png", "mound_probability": 0.98 }, "geometry": { "type": "Point", "coordinates": [ 26.215467871833461, 42.493144571092223 ] } },
{ "type": "Feature", "properties": { "vote_count": 10, "source_tile": "K-35-053-3_Elenovo_x3696_y3360.png", "mound_probability": 0.98 }, "geometry": { "type": "Point", "coordinates": [ 26.240455124501572, 42.347177194268362 ] } },
{ "type": "Feature", "properties": { "vote_count": 10, "source_tile": "K-35-053-3_Elenovo_x3696_y3024.png", "mound_probability": 0.98 }, "geometry": { "type": "Point", "coordinates": [ 26.242886240772677, 42.350207019486632 ] } },
{ "type": "Feature", "properties": { "vote_count": 10, "source_tile": "K-35-053-3_Elenovo_x3696_y3024.png", "mound_probability": 0.98 }, "geometry": { "type": "Point", "coordinates": [ 26.242321249886068, 42.35088381894321 ] } },
{ "type": "Feature", "properties": { "vote_count": 10, "source_tile": "K-35-053-3_Elenovo_x2688_y1680.png", "mound_probability": 0.98 }, "geometry": { "type": "Point", "coordinates": [ 26.166490219776108, 42.410757888315807 ] } },
{ "type": "Feature", "properties": { "vote_count": 10, "source_tile": "K-35-053-3_Elenovo_x3696_y3024.png", "mound_probability": 0.98 }, "geometry": { "type": "Point", "coordinates": [ 26.23961488887965, 42.359115855396219 ] } },
{ "type": "Feature", "properties": { "vote_count": 10, "source_tile": "K-35-053-3_Elenovo_x3696_y2688.png", "mound_probability": 0.98 }, "geometry": { "type": "Point", "coordinates": [ 26.237563404982861, 42.372741580561481 ] } },
{ "type": "Feature", "properties": { "vote_count": 10, "source_tile": "K-35-053-3_Elenovo_x3696_y2688.png", "mound_probability": 0.98 }, "geometry": { "type": "Point", "coordinates": [ 26.23302492865669, 42.370107915095815 ] } },
{ "type": "Feature", "properties": { "vote_count": 10, "source_tile": "K-35-053-3_Elenovo_x3696_y2688.png", "mound_probability": 0.98 }, "geometry": { "type": "Point", "coordinates": [ 26.233248766429178, 42.368769656819119 ] } },
{ "type": "Feature", "properties": { "vote_count": 10, "source_tile": "K-35-053-3_Elenovo_x4032_y1680.png", "mound_probability": 0.98 }, "geometry": { "type": "Point", "coordinates": [ 26.247798769253198, 42.409748356775225 ] } },
{ "type": "Feature", "properties": { "vote_count": 10, "source_tile": "K-35-053-3_Elenovo_x3696_y2352.png", "mound_probability": 0.98 }, "geometry": { "type": "Point", "coordinates": [ 26.241806253596739, 42.391915260679525 ] } },
{ "type": "Feature", "properties": { "vote_count": 10, "source_tile": "K-35-053-3_Elenovo_x4032_y2352.png", "mound_probability": 0.98 }, "geometry": { "type": "Point", "coordinates": [ 26.24520303952659, 42.390577038415771 ] } },
{ "type": "Feature", "properties": { "vote_count": 10, "source_tile": "K-35-053-3_Elenovo_x3696_y3024.png", "mound_probability": 0.98 }, "geometry": { "type": "Point", "coordinates": [ 26.243040952632597, 42.362975185811806 ] } },
{ "type": "Feature", "properties": { "vote_count": 10, "source_tile": "K-35-053-3_Elenovo_x4032_y3024.png", "mound_probability": 0.98 }, "geometry": { "type": "Point", "coordinates": [ 26.245580368006266, 42.358738786582023 ] } },
{ "type": "Feature", "properties": { "vote_count": 10, "source_tile": "K-35-053-3_Elenovo_x3696_y672.png", "mound_probability": 0.98 }, "geometry": { "type": "Point", "coordinates": [ 26.233875404394169, 42.464956731559511 ] } },
{ "type": "Feature", "properties": { "vote_count": 10, "source_tile": "K-35-053-3_Elenovo_x3696_y672.png", "mound_probability": 0.98 }, "geometry": { "type": "Point", "coordinates": [ 26.232057768955208, 42.46827213781615 ] } },
{ "type": "Feature", "properties": { "vote_count": 10, "source_tile": "K-35-053-3_Elenovo_x3696_y2352.png", "mound_probability": 0.98 }, "geometry": { "type": "Point", "coordinates": [ 26.236201870135513, 42.381791902211376 ] } },
{ "type": "Feature", "properties": { "vote_count": 10, "source_tile": "K-35-053-3_Elenovo_x3696_y2352.png", "mound_probability": 0.98 }, "geometry": { "type": "Point", "coordinates": [ 26.23191186948949, 42.384577862077414 ] } },
{ "type": "Feature", "properties": { "vote_count": 10, "source_tile": "K-35-053-3_Elenovo_x336_y1680.png", "mound_probability": 0.98 }, "geometry": { "type": "Point", "coordinates": [ 26.035213465690948, 42.415746614002188 ] } },
{ "type": "Feature", "properties": { "vote_count": 10, "source_tile": "K-35-053-3_Elenovo_x336_y2352.png", "mound_probability": 0.98 }, "geometry": { "type": "Point", "coordinates": [ 26.034142593270619, 42.390283995001951 ] } },
{ "type": "Feature", "properties": { "vote_count": 10, "source_tile": "K-35-053-3_Elenovo_x336_y2352.png", "mound_probability": 0.99 }, "geometry": { "type": "Point", "coordinates": [ 26.039618762091738, 42.389970095321189 ] } },
{ "type": "Feature", "properties": { "vote_count": 10, "source_tile": "K-35-053-3_Elenovo_x672_y2352.png", "mound_probability": 0.98 }, "geometry": { "type": "Point", "coordinates": [ 26.041173756847218, 42.384355735105018 ] } },
{ "type": "Feature", "properties": { "vote_count": 10, "source_tile": "K-35-053-3_Elenovo_x672_y2688.png", "mound_probability": 0.98 }, "geometry": { "type": "Point", "coordinates": [ 26.040507618697973, 42.371517932102392 ] } },
{ "type": "Feature", "properties": { "vote_count": 10, "source_tile": "K-35-053-3_Elenovo_x4032_y2016.png", "mound_probability": 0.98 }, "geometry": { "type": "Point", "coordinates": [ 26.248179961333278, 42.4059880805818 ] } },
{ "type": "Feature", "properties": { "vote_count": 10, "source_tile": "K-35-053-3_Elenovo_x336_y336.png", "mound_probability": 0.98 }, "geometry": { "type": "Point", "coordinates": [ 26.034016747350105, 42.471355588135502 ] } },
{ "type": "Feature", "properties": { "vote_count": 10, "source_tile": "K-35-053-3_Elenovo_x4032_y3024.png", "mound_probability": 0.98 }, "geometry": { "type": "Point", "coordinates": [ 26.246522285185698, 42.351856556047295 ] } },
{ "type": "Feature", "properties": { "vote_count": 10, "source_tile": "K-35-053-3_Elenovo_x336_y2688.png", "mound_probability": 0.99 }, "geometry": { "type": "Point", "coordinates": [ 26.036517230719173, 42.365713161510669 ] } },
{ "type": "Feature", "properties": { "vote_count": 10, "source_tile": "K-35-053-3_Elenovo_x672_y2016.png", "mound_probability": 1.0 }, "geometry": { "type": "Point", "coordinates": [ 26.040063340671963, 42.403775848232939 ] } },
{ "type": "Feature", "properties": { "vote_count": 10, "source_tile": "K-35-053-3_Elenovo_x672_y2016.png", "mound_probability": 0.98 }, "geometry": { "type": "Point", "coordinates": [ 26.040361410323015, 42.399397695327522 ] } },
{ "type": "Feature", "properties": { "vote_count": 10, "source_tile": "K-35-053-3_Elenovo_x336_y0.png", "mound_probability": 0.99 }, "geometry": { "type": "Point", "coordinates": [ 26.036888181900608, 42.484965065862383 ] } },
{ "type": "Feature", "properties": { "vote_count": 10, "source_tile": "K-35-053-3_Elenovo_x672_y336.png", "mound_probability": 0.98 }, "geometry": { "type": "Point", "coordinates": [ 26.052792606820777, 42.47737042353895 ] } },
{ "type": "Feature", "properties": { "vote_count": 10, "source_tile": "K-35-053-3_Elenovo_x672_y0.png", "mound_probability": 0.98 }, "geometry": { "type": "Point", "coordinates": [ 26.049550614869723, 42.486234128053447 ] } },
{ "type": "Feature", "properties": { "vote_count": 10, "source_tile": "K-35-053-3_Elenovo_x3696_y2688.png", "mound_probability": 0.98 }, "geometry": { "type": "Point", "coordinates": [ 26.241021257302926, 42.368213385222596 ] } },
{ "type": "Feature", "properties": { "vote_count": 10, "source_tile": "K-35-053-3_Elenovo_x336_y3024.png", "mound_probability": 0.98 }, "geometry": { "type": "Point", "coordinates": [ 26.038664530340952, 42.357005782276531 ] } },
{ "type": "Feature", "properties": { "vote_count": 10, "source_tile": "K-35-053-3_Elenovo_x672_y3024.png", "mound_probability": 0.98 }, "geometry": { "type": "Point", "coordinates": [ 26.042126964855505, 42.358306063581828 ] } },
{ "type": "Feature", "properties": { "vote_count": 10, "source_tile": "K-35-053-3_Elenovo_x672_y336.png", "mound_probability": 1.0 }, "geometry": { "type": "Point", "coordinates": [ 26.048229709229577, 42.473530994712917 ] } },
{ "type": "Feature", "properties": { "vote_count": 10, "source_tile": "K-35-053-3_Elenovo_x3696_y3024.png", "mound_probability": 0.98 }, "geometry": { "type": "Point", "coordinates": [ 26.243375601170595, 42.351456074512832 ] } },
{ "type": "Feature", "properties": { "vote_count": 10, "source_tile": "K-35-053-3_Elenovo_x672_y2016.png", "mound_probability": 0.98 }, "geometry": { "type": "Point", "coordinates": [ 26.050661916854907, 42.401016290388171 ] } },
{ "type": "Feature", "properties": { "vote_count": 10, "source_tile": "K-35-053-3_Elenovo_x672_y672.png", "mound_probability": 0.98 }, "geometry": { "type": "Point", "coordinates": [ 26.04387739688406, 42.454372474640259 ] } },
{ "type": "Feature", "properties": { "vote_count": 10, "source_tile": "K-35-053-3_Elenovo_x672_y0.png", "mound_probability": 0.98 }, "geometry": { "type": "Point", "coordinates": [ 26.05425880200232, 42.484244093711446 ] } },
{ "type": "Feature", "properties": { "vote_count": 10, "source_tile": "K-35-053-3_Elenovo_x672_y0.png", "mound_probability": 1.0 }, "geometry": { "type": "Point", "coordinates": [ 26.041787090139159, 42.496167985568817 ] } },
{ "type": "Feature", "properties": { "vote_count": 10, "source_tile": "K-35-053-3_Elenovo_x672_y2352.png", "mound_probability": 0.98 }, "geometry": { "type": "Point", "coordinates": [ 26.044935680852966, 42.392627009986874 ] } },
{ "type": "Feature", "properties": { "vote_count": 10, "source_tile": "K-35-053-3_Elenovo_x672_y2352.png", "mound_probability": 0.98 }, "geometry": { "type": "Point", "coordinates": [ 26.050471931929806, 42.390671508623271 ] } },
{ "type": "Feature", "properties": { "vote_count": 10, "source_tile": "K-35-053-3_Elenovo_x672_y2352.png", "mound_probability": 0.98 }, "geometry": { "type": "Point", "coordinates": [ 26.052008294161968, 42.391054474917958 ] } },
{ "type": "Feature", "properties": { "vote_count": 10, "source_tile": "K-35-053-3_Elenovo_x672_y2352.png", "mound_probability": 0.98 }, "geometry": { "type": "Point", "coordinates": [ 26.047317952956185, 42.388583240510187 ] } },
{ "type": "Feature", "properties": { "vote_count": 10, "source_tile": "K-35-053-3_Elenovo_x672_y2352.png", "mound_probability": 0.98 }, "geometry": { "type": "Point", "coordinates": [ 26.047311542914684, 42.387770204139841 ] } },
{ "type": "Feature", "properties": { "vote_count": 10, "source_tile": "K-35-053-3_Elenovo_x1008_y0.png", "mound_probability": 0.98 }, "geometry": { "type": "Point", "coordinates": [ 26.058936577253363, 42.499058379798988 ] } },
{ "type": "Feature", "properties": { "vote_count": 10, "source_tile": "K-35-053-3_Elenovo_x1008_y3024.png", "mound_probability": 0.99 }, "geometry": { "type": "Point", "coordinates": [ 26.063204729659567, 42.360452237423374 ] } },
{ "type": "Feature", "properties": { "vote_count": 10, "source_tile": "K-35-053-3_Elenovo_x3696_y2352.png", "mound_probability": 0.98 }, "geometry": { "type": "Point", "coordinates": [ 26.231194968860656, 42.390211825409622 ] } },
{ "type": "Feature", "properties": { "vote_count": 10, "source_tile": "K-35-062-2_Rakovski_x0_y0.png", "mound_probability": 0.98 }, "geometry": { "type": "Point", "coordinates": [ 24.748953355804552, 42.322644740811413 ] } },
{ "type": "Feature", "properties": { "vote_count": 10, "source_tile": "K-35-062-2_Rakovski_x0_y1008.png", "mound_probability": 0.98 }, "geometry": { "type": "Point", "coordinates": [ 24.759752889371601, 42.271816882891656 ] } },
{ "type": "Feature", "properties": { "vote_count": 10, "source_tile": "K-35-062-2_Rakovski_x0_y336.png", "mound_probability": 0.98 }, "geometry": { "type": "Point", "coordinates": [ 24.760054730159393, 42.301847613188336 ] } },
{ "type": "Feature", "properties": { "vote_count": 10, "source_tile": "K-35-053-3_Elenovo_x672_y2688.png", "mound_probability": 0.98 }, "geometry": { "type": "Point", "coordinates": [ 26.058803819973271, 42.372880740105352 ] } },
{ "type": "Feature", "properties": { "vote_count": 10, "source_tile": "K-35-062-2_Rakovski_x0_y2352.png", "mound_probability": 1.0 }, "geometry": { "type": "Point", "coordinates": [ 24.764896779226508, 42.226674331377708 ] } },
{ "type": "Feature", "properties": { "vote_count": 10, "source_tile": "K-35-062-2_Rakovski_x0_y2352.png", "mound_probability": 0.98 }, "geometry": { "type": "Point", "coordinates": [ 24.761168129314363, 42.225862215163772 ] } },
{ "type": "Feature", "properties": { "vote_count": 10, "source_tile": "K-35-062-2_Rakovski_x0_y2352.png", "mound_probability": 0.98 }, "geometry": { "type": "Point", "coordinates": [ 24.767630909235852, 42.223803986765127 ] } },
{ "type": "Feature", "properties": { "vote_count": 10, "source_tile": "K-35-062-2_Rakovski_x0_y2352.png", "mound_probability": 0.99 }, "geometry": { "type": "Point", "coordinates": [ 24.768536396454792, 42.220803407848585 ] } },
{ "type": "Feature", "properties": { "vote_count": 10, "source_tile": "K-35-062-2_Rakovski_x0_y2352.png", "mound_probability": 0.98 }, "geometry": { "type": "Point", "coordinates": [ 24.75069206139603, 42.216011146434639 ] } },
{ "type": "Feature", "properties": { "vote_count": 10, "source_tile": "K-35-062-2_Rakovski_x0_y2352.png", "mound_probability": 0.98 }, "geometry": { "type": "Point", "coordinates": [ 24.748801596427143, 42.213263471504469 ] } },
{ "type": "Feature", "properties": { "vote_count": 10, "source_tile": "K-35-062-2_Rakovski_x1008_y1008.png", "mound_probability": 0.98 }, "geometry": { "type": "Point", "coordinates": [ 24.823699338855562, 42.273917127909897 ] } },
{ "type": "Feature", "properties": { "vote_count": 10, "source_tile": "K-35-062-2_Rakovski_x1008_y1008.png", "mound_probability": 0.99 }, "geometry": { "type": "Point", "coordinates": [ 24.824170505028125, 42.272788453451888 ] } },
{ "type": "Feature", "properties": { "vote_count": 10, "source_tile": "K-35-062-2_Rakovski_x1008_y1344.png", "mound_probability": 0.99 }, "geometry": { "type": "Point", "coordinates": [ 24.825718652860722, 42.271567116591946 ] } },
{ "type": "Feature", "properties": { "vote_count": 10, "source_tile": "K-35-062-2_Rakovski_x1344_y0.png", "mound_probability": 1.0 }, "geometry": { "type": "Point", "coordinates": [ 24.846218998363888, 42.327537602629462 ] } },
{ "type": "Feature", "properties": { "vote_count": 10, "source_tile": "K-35-062-2_Rakovski_x1344_y0.png", "mound_probability": 1.0 }, "geometry": { "type": "Point", "coordinates": [ 24.844478056914671, 42.320437444493926 ] } },
{ "type": "Feature", "properties": { "vote_count": 10, "source_tile": "K-35-062-2_Rakovski_x1344_y336.png", "mound_probability": 1.0 }, "geometry": { "type": "Point", "coordinates": [ 24.829054512677342, 42.318121070043759 ] } },
{ "type": "Feature", "properties": { "vote_count": 10, "source_tile": "K-35-053-3_Elenovo_x672_y672.png", "mound_probability": 0.98 }, "geometry": { "type": "Point", "coordinates": [ 26.058306547063342, 42.461105976087097 ] } },
{ "type": "Feature", "properties": { "vote_count": 10, "source_tile": "K-35-062-2_Rakovski_x1008_y0.png", "mound_probability": 0.98 }, "geometry": { "type": "Point", "coordinates": [ 24.813814088074075, 42.320839582985265 ] } },
{ "type": "Feature", "properties": { "vote_count": 10, "source_tile": "K-35-062-2_Rakovski_x1344_y336.png", "mound_probability": 0.98 }, "geometry": { "type": "Point", "coordinates": [ 24.833556670528655, 42.315249041593319 ] } },
{ "type": "Feature", "properties": { "vote_count": 10, "source_tile": "K-35-062-2_Rakovski_x1344_y336.png", "mound_probability": 0.99 }, "geometry": { "type": "Point", "coordinates": [ 24.833608015325026, 42.312077222733031 ] } },
{ "type": "Feature", "properties": { "vote_count": 10, "source_tile": "K-35-062-2_Rakovski_x1344_y336.png", "mound_probability": 1.0 }, "geometry": { "type": "Point", "coordinates": [ 24.841157460607246, 42.312229136444337 ] } },
{ "type": "Feature", "properties": { "vote_count": 10, "source_tile": "K-35-062-2_Rakovski_x1344_y336.png", "mound_probability": 0.98 }, "geometry": { "type": "Point", "coordinates": [ 24.841838027573417, 42.312728060744739 ] } },
{ "type": "Feature", "properties": { "vote_count": 10, "source_tile": "K-35-062-2_Rakovski_x1008_y336.png", "mound_probability": 0.99 }, "geometry": { "type": "Point", "coordinates": [ 24.824700699751418, 42.309057322485316 ] } },
{ "type": "Feature", "properties": { "vote_count": 10, "source_tile": "K-35-062-2_Rakovski_x1008_y336.png", "mound_probability": 0.98 }, "geometry": { "type": "Point", "coordinates": [ 24.816192441483061, 42.313397849413995 ] } },
{ "type": "Feature", "properties": { "vote_count": 10, "source_tile": "K-35-062-2_Rakovski_x1008_y336.png", "mound_probability": 0.98 }, "geometry": { "type": "Point", "coordinates": [ 24.823659218656562, 42.307897563723557 ] } },
{ "type": "Feature", "properties": { "vote_count": 10, "source_tile": "K-35-062-2_Rakovski_x1008_y336.png", "mound_probability": 0.98 }, "geometry": { "type": "Point", "coordinates": [ 24.819772331409464, 42.30667899076473 ] } },
{ "type": "Feature", "properties": { "vote_count": 10, "source_tile": "K-35-062-2_Rakovski_x1008_y1680.png", "mound_probability": 1.0 }, "geometry": { "type": "Point", "coordinates": [ 24.823245652648396, 42.251002631888404 ] } },
{ "type": "Feature", "properties": { "vote_count": 10, "source_tile": "K-35-062-2_Rakovski_x1344_y2016.png", "mound_probability": 0.99 }, "geometry": { "type": "Point", "coordinates": [ 24.831862985460212, 42.24181560175861 ] } },
{ "type": "Feature", "properties": { "vote_count": 10, "source_tile": "K-35-062-2_Rakovski_x1008_y672.png", "mound_probability": 0.98 }, "geometry": { "type": "Point", "coordinates": [ 24.81559218280011, 42.289033062270683 ] } },
{ "type": "Feature", "properties": { "vote_count": 10, "source_tile": "K-35-062-2_Rakovski_x1344_y1008.png", "mound_probability": 0.99 }, "geometry": { "type": "Point", "coordinates": [ 24.847130262543335, 42.280775029233418 ] } },
{ "type": "Feature", "properties": { "vote_count": 10, "source_tile": "K-35-062-2_Rakovski_x1680_y1008.png", "mound_probability": 0.99 }, "geometry": { "type": "Point", "coordinates": [ 24.848099688906991, 42.280069489442319 ] } },
{ "type": "Feature", "properties": { "vote_count": 10, "source_tile": "K-35-062-2_Rakovski_x1344_y1344.png", "mound_probability": 0.99 }, "geometry": { "type": "Point", "coordinates": [ 24.842393589280093, 42.271809571575673 ] } },
{ "type": "Feature", "properties": { "vote_count": 10, "source_tile": "K-35-062-2_Rakovski_x1680_y1008.png", "mound_probability": 0.99 }, "geometry": { "type": "Point", "coordinates": [ 24.859666948601465, 42.28068610204226 ] } },
{ "type": "Feature", "properties": { "vote_count": 10, "source_tile": "K-35-062-2_Rakovski_x1680_y1680.png", "mound_probability": 0.98 }, "geometry": { "type": "Point", "coordinates": [ 24.866226257135665, 42.246620771439204 ] } },
{ "type": "Feature", "properties": { "vote_count": 10, "source_tile": "K-35-062-2_Rakovski_x1680_y0.png", "mound_probability": 0.98 }, "geometry": { "type": "Point", "coordinates": [ 24.849148270543488, 42.32660202766089 ] } },
{ "type": "Feature", "properties": { "vote_count": 10, "source_tile": "K-35-062-2_Rakovski_x1680_y0.png", "mound_probability": 0.99 }, "geometry": { "type": "Point", "coordinates": [ 24.852237962695778, 42.326190491725747 ] } },
{ "type": "Feature", "properties": { "vote_count": 10, "source_tile": "K-35-062-2_Rakovski_x2016_y0.png", "mound_probability": 0.98 }, "geometry": { "type": "Point", "coordinates": [ 24.868977801171788, 42.325680936586409 ] } },
{ "type": "Feature", "properties": { "vote_count": 10, "source_tile": "K-35-062-2_Rakovski_x1680_y0.png", "mound_probability": 0.98 }, "geometry": { "type": "Point", "coordinates": [ 24.848513679839826, 42.321435006811441 ] } },
{ "type": "Feature", "properties": { "vote_count": 10, "source_tile": "K-35-062-2_Rakovski_x1680_y336.png", "mound_probability": 0.99 }, "geometry": { "type": "Point", "coordinates": [ 24.849930706453836, 42.314821762559966 ] } },
{ "type": "Feature", "properties": { "vote_count": 10, "source_tile": "K-35-062-2_Rakovski_x1680_y336.png", "mound_probability": 0.98 }, "geometry": { "type": "Point", "coordinates": [ 24.855993312939098, 42.311310267347181 ] } },
{ "type": "Feature", "properties": { "vote_count": 10, "source_tile": "K-35-062-2_Rakovski_x1680_y672.png", "mound_probability": 0.98 }, "geometry": { "type": "Point", "coordinates": [ 24.854751738588167, 42.303377246561226 ] } },
{ "type": "Feature", "properties": { "vote_count": 10, "source_tile": "K-35-062-2_Rakovski_x2016_y336.png", "mound_probability": 0.98 }, "geometry": { "type": "Point", "coordinates": [ 24.871023192865547, 42.306470432627904 ] } },
{ "type": "Feature", "properties": { "vote_count": 10, "source_tile": "K-35-062-2_Rakovski_x2016_y336.png", "mound_probability": 0.99 }, "geometry": { "type": "Point", "coordinates": [ 24.868872596929133, 42.304687720566847 ] } },
{ "type": "Feature", "properties": { "vote_count": 10, "source_tile": "K-35-062-2_Rakovski_x1680_y672.png", "mound_probability": 0.98 }, "geometry": { "type": "Point", "coordinates": [ 24.866410492997062, 42.302800747890743 ] } },
{ "type": "Feature", "properties": { "vote_count": 10, "source_tile": "K-35-062-2_Rakovski_x1680_y672.png", "mound_probability": 0.99 }, "geometry": { "type": "Point", "coordinates": [ 24.865553843921546, 42.299881737294307 ] } },
{ "type": "Feature", "properties": { "vote_count": 10, "source_tile": "K-35-062-2_Rakovski_x1680_y672.png", "mound_probability": 0.99 }, "geometry": { "type": "Point", "coordinates": [ 24.866922968258638, 42.29880078498055 ] } },
{ "type": "Feature", "properties": { "vote_count": 10, "source_tile": "K-35-062-2_Rakovski_x1680_y672.png", "mound_probability": 0.98 }, "geometry": { "type": "Point", "coordinates": [ 24.855654529200788, 42.300128702755742 ] } },
{ "type": "Feature", "properties": { "vote_count": 10, "source_tile": "K-35-062-2_Rakovski_x1344_y336.png", "mound_probability": 0.98 }, "geometry": { "type": "Point", "coordinates": [ 24.843063920844077, 42.305945547500684 ] } },
{ "type": "Feature", "properties": { "vote_count": 10, "source_tile": "K-35-062-2_Rakovski_x1680_y336.png", "mound_probability": 0.98 }, "geometry": { "type": "Point", "coordinates": [ 24.847803680285821, 42.30868943581337 ] } },
{ "type": "Feature", "properties": { "vote_count": 10, "source_tile": "K-35-062-2_Rakovski_x2016_y0.png", "mound_probability": 0.98 }, "geometry": { "type": "Point", "coordinates": [ 24.873149207577107, 42.323295407224983 ] } },
{ "type": "Feature", "properties": { "vote_count": 10, "source_tile": "K-35-062-2_Rakovski_x2016_y0.png", "mound_probability": 0.98 }, "geometry": { "type": "Point", "coordinates": [ 24.872571836836752, 42.321458785032497 ] } },
{ "type": "Feature", "properties": { "vote_count": 10, "source_tile": "K-35-062-2_Rakovski_x2016_y336.png", "mound_probability": 0.98 }, "geometry": { "type": "Point", "coordinates": [ 24.880968530989648, 42.31897276591377 ] } },
{ "type": "Feature", "properties": { "vote_count": 10, "source_tile": "K-35-062-2_Rakovski_x1680_y2016.png", "mound_probability": 1.0 }, "geometry": { "type": "Point", "coordinates": [ 24.860040924664059, 42.237362104802244 ] } },
{ "type": "Feature", "properties": { "vote_count": 10, "source_tile": "K-35-062-2_Rakovski_x2016_y2016.png", "mound_probability": 0.98 }, "geometry": { "type": "Point", "coordinates": [ 24.871117232571887, 42.23973521619881 ] } },
{ "type": "Feature", "properties": { "vote_count": 10, "source_tile": "K-35-053-3_Elenovo_x672_y2352.png", "mound_probability": 0.98 }, "geometry": { "type": "Point", "coordinates": [ 26.046810545839335, 42.38703433855536 ] } },
{ "type": "Feature", "properties": { "vote_count": 10, "source_tile": "K-35-053-3_Elenovo_x672_y2352.png", "mound_probability": 0.98 }, "geometry": { "type": "Point", "coordinates": [ 26.045862257196998, 42.387148886801398 ] } },
{ "type": "Feature", "properties": { "vote_count": 10, "source_tile": "K-35-062-2_Rakovski_x336_y1344.png", "mound_probability": 0.98 }, "geometry": { "type": "Point", "coordinates": [ 24.77347577396861, 42.266697564203511 ] } },
{ "type": "Feature", "properties": { "vote_count": 10, "source_tile": "K-35-062-2_Rakovski_x336_y1344.png", "mound_probability": 0.98 }, "geometry": { "type": "Point", "coordinates": [ 24.778126452239412, 42.267399686570762 ] } },
{ "type": "Feature", "properties": { "vote_count": 10, "source_tile": "K-35-062-2_Rakovski_x336_y1344.png", "mound_probability": 0.98 }, "geometry": { "type": "Point", "coordinates": [ 24.777881805981067, 42.263264295783266 ] } },
{ "type": "Feature", "properties": { "vote_count": 10, "source_tile": "K-35-062-2_Rakovski_x336_y1344.png", "mound_probability": 0.98 }, "geometry": { "type": "Point", "coordinates": [ 24.775049649523027, 42.25673908260854 ] } },
{ "type": "Feature", "properties": { "vote_count": 10, "source_tile": "K-35-062-2_Rakovski_x0_y1344.png", "mound_probability": 0.98 }, "geometry": { "type": "Point", "coordinates": [ 24.763435860705656, 42.261252256552019 ] } },
{ "type": "Feature", "properties": { "vote_count": 10, "source_tile": "K-35-062-2_Rakovski_x0_y1344.png", "mound_probability": 0.98 }, "geometry": { "type": "Point", "coordinates": [ 24.764304503235106, 42.261895314151857 ] } },
{ "type": "Feature", "properties": { "vote_count": 10, "source_tile": "K-35-062-2_Rakovski_x336_y1344.png", "mound_probability": 0.98 }, "geometry": { "type": "Point", "coordinates": [ 24.771108858553294, 42.255893373891254 ] } },
{ "type": "Feature", "properties": { "vote_count": 10, "source_tile": "K-35-062-2_Rakovski_x0_y1344.png", "mound_probability": 0.98 }, "geometry": { "type": "Point", "coordinates": [ 24.751274970578656, 42.258246520981587 ] } },
{ "type": "Feature", "properties": { "vote_count": 10, "source_tile": "K-35-062-2_Rakovski_x336_y1008.png", "mound_probability": 0.99 }, "geometry": { "type": "Point", "coordinates": [ 24.771337948543842, 42.278298405881571 ] } },
{ "type": "Feature", "properties": { "vote_count": 10, "source_tile": "K-35-062-2_Rakovski_x336_y1008.png", "mound_probability": 0.98 }, "geometry": { "type": "Point", "coordinates": [ 24.769087274044811, 42.27495462771234 ] } },
{ "type": "Feature", "properties": { "vote_count": 10, "source_tile": "K-35-062-2_Rakovski_x336_y1008.png", "mound_probability": 0.98 }, "geometry": { "type": "Point", "coordinates": [ 24.777972615112876, 42.279762036526101 ] } },
{ "type": "Feature", "properties": { "vote_count": 10, "source_tile": "K-35-062-2_Rakovski_x336_y672.png", "mound_probability": 0.98 }, "geometry": { "type": "Point", "coordinates": [ 24.770737164819728, 42.30187964118084 ] } },
{ "type": "Feature", "properties": { "vote_count": 10, "source_tile": "K-35-062-2_Rakovski_x336_y672.png", "mound_probability": 1.0 }, "geometry": { "type": "Point", "coordinates": [ 24.770370644862389, 42.300673733490463 ] } },
{ "type": "Feature", "properties": { "vote_count": 10, "source_tile": "K-35-062-2_Rakovski_x336_y336.png", "mound_probability": 0.98 }, "geometry": { "type": "Point", "coordinates": [ 24.775040682781061, 42.305943519647549 ] } },
{ "type": "Feature", "properties": { "vote_count": 10, "source_tile": "K-35-062-2_Rakovski_x336_y672.png", "mound_probability": 0.98 }, "geometry": { "type": "Point", "coordinates": [ 24.776677924416205, 42.300437563663777 ] } },
{ "type": "Feature", "properties": { "vote_count": 10, "source_tile": "K-35-062-2_Rakovski_x2352_y2352.png", "mound_probability": 0.98 }, "geometry": { "type": "Point", "coordinates": [ 24.892525440112802, 42.22758358272192 ] } },
{ "type": "Feature", "properties": { "vote_count": 10, "source_tile": "K-35-062-2_Rakovski_x2352_y2352.png", "mound_probability": 0.98 }, "geometry": { "type": "Point", "coordinates": [ 24.891180409965635, 42.227429114732004 ] } },
{ "type": "Feature", "properties": { "vote_count": 10, "source_tile": "K-35-062-2_Rakovski_x2016_y2352.png", "mound_probability": 0.99 }, "geometry": { "type": "Point", "coordinates": [ 24.882961959108577, 42.226733039127119 ] } },
{ "type": "Feature", "properties": { "vote_count": 10, "source_tile": "K-35-062-2_Rakovski_x2352_y2016.png", "mound_probability": 0.98 }, "geometry": { "type": "Point", "coordinates": [ 24.897076845553318, 42.234622830015084 ] } },
{ "type": "Feature", "properties": { "vote_count": 10, "source_tile": "K-35-062-2_Rakovski_x2016_y2016.png", "mound_probability": 0.98 }, "geometry": { "type": "Point", "coordinates": [ 24.877604233822311, 42.23084768398823 ] } },
{ "type": "Feature", "properties": { "vote_count": 10, "source_tile": "K-35-062-2_Rakovski_x2016_y1008.png", "mound_probability": 0.98 }, "geometry": { "type": "Point", "coordinates": [ 24.875072118007502, 42.27850388607618 ] } },
{ "type": "Feature", "properties": { "vote_count": 10, "source_tile": "K-35-062-2_Rakovski_x336_y1344.png", "mound_probability": 0.98 }, "geometry": { "type": "Point", "coordinates": [ 24.779739541821488, 42.268047994977572 ] } },
{ "type": "Feature", "properties": { "vote_count": 10, "source_tile": "K-35-062-2_Rakovski_x2352_y2352.png", "mound_probability": 0.98 }, "geometry": { "type": "Point", "coordinates": [ 24.892406370105316, 42.221018176374841 ] } },
{ "type": "Feature", "properties": { "vote_count": 10, "source_tile": "K-35-062-2_Rakovski_x2352_y3360.png", "mound_probability": 0.99 }, "geometry": { "type": "Point", "coordinates": [ 24.902975565450653, 42.182814141509667 ] } },
{ "type": "Feature", "properties": { "vote_count": 10, "source_tile": "K-35-062-2_Rakovski_x2352_y3360.png", "mound_probability": 0.98 }, "geometry": { "type": "Point", "coordinates": [ 24.900178707588864, 42.174922129989241 ] } },
{ "type": "Feature", "properties": { "vote_count": 10, "source_tile": "K-35-062-2_Rakovski_x2688_y0.png", "mound_probability": 0.98 }, "geometry": { "type": "Point", "coordinates": [ 24.912031702231801, 42.321878573008071 ] } },
{ "type": "Feature", "properties": { "vote_count": 10, "source_tile": "K-35-062-2_Rakovski_x2688_y336.png", "mound_probability": 0.98 }, "geometry": { "type": "Point", "coordinates": [ 24.91705464033247, 42.316501697310173 ] } },
{ "type": "Feature", "properties": { "vote_count": 10, "source_tile": "K-35-062-2_Rakovski_x2688_y336.png", "mound_probability": 0.98 }, "geometry": { "type": "Point", "coordinates": [ 24.916517783143657, 42.312561549598179 ] } },
{ "type": "Feature", "properties": { "vote_count": 10, "source_tile": "K-35-062-2_Rakovski_x2352_y1344.png", "mound_probability": 1.0 }, "geometry": { "type": "Point", "coordinates": [ 24.90258485181808, 42.259823426227953 ] } },
{ "type": "Feature", "properties": { "vote_count": 10, "source_tile": "K-35-062-2_Rakovski_x2352_y1680.png", "mound_probability": 0.98 }, "geometry": { "type": "Point", "coordinates": [ 24.904306401188627, 42.2580544828105 ] } },
{ "type": "Feature", "properties": { "vote_count": 10, "source_tile": "K-35-062-2_Rakovski_x2352_y1680.png", "mound_probability": 0.98 }, "geometry": { "type": "Point", "coordinates": [ 24.907959278466876, 42.256853510811418 ] } },
{ "type": "Feature", "properties": { "vote_count": 10, "source_tile": "K-35-062-2_Rakovski_x336_y0.png", "mound_probability": 1.0 }, "geometry": { "type": "Point", "coordinates": [ 24.776762358316038, 42.329120605348926 ] } },
{ "type": "Feature", "properties": { "vote_count": 10, "source_tile": "K-35-062-2_Rakovski_x2352_y2688.png", "mound_probability": 0.99 }, "geometry": { "type": "Point", "coordinates": [ 24.907228842143173, 42.202893875442896 ] } },
{ "type": "Feature", "properties": { "vote_count": 10, "source_tile": "K-35-062-2_Rakovski_x2688_y3024.png", "mound_probability": 0.98 }, "geometry": { "type": "Point", "coordinates": [ 24.914939625807197, 42.185110572557171 ] } },
{ "type": "Feature", "properties": { "vote_count": 10, "source_tile": "K-35-062-2_Rakovski_x2688_y1344.png", "mound_probability": 0.98 }, "geometry": { "type": "Point", "coordinates": [ 24.920426024709261, 42.268443255013182 ] } },
{ "type": "Feature", "properties": { "vote_count": 10, "source_tile": "K-35-062-2_Rakovski_x2688_y1344.png", "mound_probability": 0.98 }, "geometry": { "type": "Point", "coordinates": [ 24.915589532385187, 42.26763363171802 ] } },
{ "type": "Feature", "properties": { "vote_count": 10, "source_tile": "K-35-062-2_Rakovski_x2688_y0.png", "mound_probability": 0.98 }, "geometry": { "type": "Point", "coordinates": [ 24.928075113194932, 42.331921108330697 ] } },
{ "type": "Feature", "properties": { "vote_count": 10, "source_tile": "K-35-062-2_Rakovski_x2688_y0.png", "mound_probability": 0.98 }, "geometry": { "type": "Point", "coordinates": [ 24.926705112335444, 42.328534934842736 ] } },
{ "type": "Feature", "properties": { "vote_count": 10, "source_tile": "K-35-062-2_Rakovski_x2688_y0.png", "mound_probability": 0.99 }, "geometry": { "type": "Point", "coordinates": [ 24.918754306983057, 42.327155824575158 ] } },
{ "type": "Feature", "properties": { "vote_count": 10, "source_tile": "K-35-062-2_Rakovski_x2688_y336.png", "mound_probability": 0.99 }, "geometry": { "type": "Point", "coordinates": [ 24.928561391207214, 42.319680614341259 ] } },
{ "type": "Feature", "properties": { "vote_count": 10, "source_tile": "K-35-062-2_Rakovski_x2688_y1344.png", "mound_probability": 0.98 }, "geometry": { "type": "Point", "coordinates": [ 24.914544855333148, 42.268010205381415 ] } },
{ "type": "Feature", "properties": { "vote_count": 10, "source_tile": "K-35-062-2_Rakovski_x2688_y1344.png", "mound_probability": 0.98 }, "geometry": { "type": "Point", "coordinates": [ 24.917911164719648, 42.263686100532134 ] } },
{ "type": "Feature", "properties": { "vote_count": 10, "source_tile": "K-35-062-2_Rakovski_x2688_y1344.png", "mound_probability": 0.98 }, "geometry": { "type": "Point", "coordinates": [ 24.928759696564125, 42.261638620010324 ] } },
{ "type": "Feature", "properties": { "vote_count": 10, "source_tile": "K-35-062-2_Rakovski_x2688_y336.png", "mound_probability": 0.99 }, "geometry": { "type": "Point", "coordinates": [ 24.921704416006879, 42.317113357572964 ] } },
{ "type": "Feature", "properties": { "vote_count": 10, "source_tile": "K-35-062-2_Rakovski_x2688_y336.png", "mound_probability": 0.98 }, "geometry": { "type": "Point", "coordinates": [ 24.921563807299776, 42.311400639153909 ] } },
{ "type": "Feature", "properties": { "vote_count": 10, "source_tile": "K-35-062-2_Rakovski_x3024_y336.png", "mound_probability": 1.0 }, "geometry": { "type": "Point", "coordinates": [ 24.929664491736752, 42.311716314178049 ] } },
{ "type": "Feature", "properties": { "vote_count": 10, "source_tile": "K-35-062-2_Rakovski_x2688_y2688.png", "mound_probability": 0.98 }, "geometry": { "type": "Point", "coordinates": [ 24.926438854089163, 42.20467820483897 ] } },
{ "type": "Feature", "properties": { "vote_count": 10, "source_tile": "K-35-062-2_Rakovski_x2688_y2688.png", "mound_probability": 0.98 }, "geometry": { "type": "Point", "coordinates": [ 24.931095659309381, 42.200892465953828 ] } },
{ "type": "Feature", "properties": { "vote_count": 10, "source_tile": "K-35-053-3_Elenovo_x672_y2352.png", "mound_probability": 0.98 }, "geometry": { "type": "Point", "coordinates": [ 26.048191671895797, 42.388564870120746 ] } },
{ "type": "Feature", "properties": { "vote_count": 10, "source_tile": "K-35-062-2_Rakovski_x2352_y2016.png", "mound_probability": 0.98 }, "geometry": { "type": "Point", "coordinates": [ 24.901969218034473, 42.23159118116061 ] } },
{ "type": "Feature", "properties": { "vote_count": 10, "source_tile": "K-35-062-2_Rakovski_x2352_y2688.png", "mound_probability": 0.99 }, "geometry": { "type": "Point", "coordinates": [ 24.898279837848698, 42.203282555774933 ] } },
{ "type": "Feature", "properties": { "vote_count": 10, "source_tile": "K-35-062-2_Rakovski_x2688_y3360.png", "mound_probability": 0.98 }, "geometry": { "type": "Point", "coordinates": [ 24.926029213032553, 42.174819808218103 ] } },
{ "type": "Feature", "properties": { "vote_count": 10, "source_tile": "K-35-062-2_Rakovski_x3024_y0.png", "mound_probability": 0.98 }, "geometry": { "type": "Point", "coordinates": [ 24.930883791079133, 42.323066971988155 ] } },
{ "type": "Feature", "properties": { "vote_count": 10, "source_tile": "K-35-062-2_Rakovski_x3024_y0.png", "mound_probability": 0.98 }, "geometry": { "type": "Point", "coordinates": [ 24.937301198673151, 42.32646594129389 ] } },
{ "type": "Feature", "properties": { "vote_count": 10, "source_tile": "K-35-062-2_Rakovski_x3024_y1680.png", "mound_probability": 1.0 }, "geometry": { "type": "Point", "coordinates": [ 24.931331828887917, 42.247862169876178 ] } },
{ "type": "Feature", "properties": { "vote_count": 10, "source_tile": "K-35-062-2_Rakovski_x3024_y3360.png", "mound_probability": 0.99 }, "geometry": { "type": "Point", "coordinates": [ 24.938654249816572, 42.174646801344032 ] } },
{ "type": "Feature", "properties": { "vote_count": 10, "source_tile": "K-35-062-2_Rakovski_x3024_y672.png", "mound_probability": 0.99 }, "geometry": { "type": "Point", "coordinates": [ 24.937708347510554, 42.296677206990879 ] } },
{ "type": "Feature", "properties": { "vote_count": 10, "source_tile": "K-35-062-2_Rakovski_x3024_y1008.png", "mound_probability": 0.98 }, "geometry": { "type": "Point", "coordinates": [ 24.940249467090339, 42.286350984923715 ] } },
{ "type": "Feature", "properties": { "vote_count": 10, "source_tile": "K-35-062-2_Rakovski_x3024_y1680.png", "mound_probability": 0.98 }, "geometry": { "type": "Point", "coordinates": [ 24.943436785741767, 42.249749821638488 ] } },
{ "type": "Feature", "properties": { "vote_count": 10, "source_tile": "K-35-062-2_Rakovski_x3024_y2016.png", "mound_probability": 0.98 }, "geometry": { "type": "Point", "coordinates": [ 24.95058314117616, 42.244473726948954 ] } },
{ "type": "Feature", "properties": { "vote_count": 10, "source_tile": "K-35-062-2_Rakovski_x2352_y2688.png", "mound_probability": 0.98 }, "geometry": { "type": "Point", "coordinates": [ 24.901566149313592, 42.205850279515992 ] } },
{ "type": "Feature", "properties": { "vote_count": 10, "source_tile": "K-35-062-2_Rakovski_x3024_y0.png", "mound_probability": 0.98 }, "geometry": { "type": "Point", "coordinates": [ 24.936786968346667, 42.332214937316238 ] } },
{ "type": "Feature", "properties": { "vote_count": 10, "source_tile": "K-35-062-2_Rakovski_x3024_y0.png", "mound_probability": 0.98 }, "geometry": { "type": "Point", "coordinates": [ 24.934372594769989, 42.330234534501152 ] } },
{ "type": "Feature", "properties": { "vote_count": 10, "source_tile": "K-35-062-2_Rakovski_x3024_y336.png", "mound_probability": 0.98 }, "geometry": { "type": "Point", "coordinates": [ 24.945593273439169, 42.318598165774297 ] } },
{ "type": "Feature", "properties": { "vote_count": 10, "source_tile": "K-35-062-2_Rakovski_x3024_y336.png", "mound_probability": 0.98 }, "geometry": { "type": "Point", "coordinates": [ 24.943501927116941, 42.3184730158222 ] } },
{ "type": "Feature", "properties": { "vote_count": 10, "source_tile": "K-35-062-2_Rakovski_x3024_y336.png", "mound_probability": 0.98 }, "geometry": { "type": "Point", "coordinates": [ 24.945385666062275, 42.317827312471387 ] } },
{ "type": "Feature", "properties": { "vote_count": 10, "source_tile": "K-35-062-2_Rakovski_x3024_y336.png", "mound_probability": 0.98 }, "geometry": { "type": "Point", "coordinates": [ 24.94360035713553, 42.316743527670504 ] } },
{ "type": "Feature", "properties": { "vote_count": 10, "source_tile": "K-35-062-2_Rakovski_x3024_y336.png", "mound_probability": 0.98 }, "geometry": { "type": "Point", "coordinates": [ 24.945440096248092, 42.316064925193075 ] } },
{ "type": "Feature", "properties": { "vote_count": 10, "source_tile": "K-35-062-2_Rakovski_x3024_y336.png", "mound_probability": 0.98 }, "geometry": { "type": "Point", "coordinates": [ 24.945643544438848, 42.316855663365203 ] } },
{ "type": "Feature", "properties": { "vote_count": 10, "source_tile": "K-35-062-2_Rakovski_x3360_y1680.png", "mound_probability": 0.99 }, "geometry": { "type": "Point", "coordinates": [ 24.956009427219112, 42.249555054608678 ] } },
{ "type": "Feature", "properties": { "vote_count": 10, "source_tile": "K-35-062-2_Rakovski_x3024_y3024.png", "mound_probability": 0.98 }, "geometry": { "type": "Point", "coordinates": [ 24.949478133310556, 42.187930827541614 ] } },
{ "type": "Feature", "properties": { "vote_count": 10, "source_tile": "K-35-062-2_Rakovski_x3360_y1344.png", "mound_probability": 0.98 }, "geometry": { "type": "Point", "coordinates": [ 24.96514644247307, 42.261335575708102 ] } },
{ "type": "Feature", "properties": { "vote_count": 10, "source_tile": "K-35-062-2_Rakovski_x3360_y1680.png", "mound_probability": 1.0 }, "geometry": { "type": "Point", "coordinates": [ 24.970677031600765, 42.253343267700679 ] } },
{ "type": "Feature", "properties": { "vote_count": 10, "source_tile": "K-35-062-2_Rakovski_x3696_y1344.png", "mound_probability": 0.98 }, "geometry": { "type": "Point", "coordinates": [ 24.972263289259775, 42.270434557809097 ] } },
{ "type": "Feature", "properties": { "vote_count": 10, "source_tile": "K-35-062-2_Rakovski_x3696_y3360.png", "mound_probability": 0.99 }, "geometry": { "type": "Point", "coordinates": [ 24.975744939032172, 42.179033413835512 ] } },
{ "type": "Feature", "properties": { "vote_count": 10, "source_tile": "K-35-062-2_Rakovski_x3696_y672.png", "mound_probability": 0.98 }, "geometry": { "type": "Point", "coordinates": [ 24.976009250688286, 42.290583453068528 ] } },
{ "type": "Feature", "properties": { "vote_count": 10, "source_tile": "K-35-062-2_Rakovski_x3696_y1344.png", "mound_probability": 0.98 }, "geometry": { "type": "Point", "coordinates": [ 24.983001480825028, 42.274930683310444 ] } },
{ "type": "Feature", "properties": { "vote_count": 10, "source_tile": "K-35-062-2_Rakovski_x3696_y1008.png", "mound_probability": 0.98 }, "geometry": { "type": "Point", "coordinates": [ 24.984944327311503, 42.282229886085311 ] } },
{ "type": "Feature", "properties": { "vote_count": 10, "source_tile": "K-35-062-2_Rakovski_x3696_y336.png", "mound_probability": 0.98 }, "geometry": { "type": "Point", "coordinates": [ 24.978405279994988, 42.317905895669867 ] } },
{ "type": "Feature", "properties": { "vote_count": 10, "source_tile": "K-35-062-2_Rakovski_x3696_y336.png", "mound_probability": 0.98 }, "geometry": { "type": "Point", "coordinates": [ 24.983971408714424, 42.31679161315413 ] } },
{ "type": "Feature", "properties": { "vote_count": 10, "source_tile": "K-35-062-2_Rakovski_x3696_y2688.png", "mound_probability": 0.98 }, "geometry": { "type": "Point", "coordinates": [ 24.990611879860044, 42.209177015580543 ] } },
{ "type": "Feature", "properties": { "vote_count": 10, "source_tile": "K-35-062-2_Rakovski_x3696_y2016.png", "mound_probability": 0.98 }, "geometry": { "type": "Point", "coordinates": [ 24.983773390233008, 42.242068065200264 ] } },
{ "type": "Feature", "properties": { "vote_count": 10, "source_tile": "K-35-062-2_Rakovski_x3696_y2016.png", "mound_probability": 0.98 }, "geometry": { "type": "Point", "coordinates": [ 24.986977616358903, 42.241833218189676 ] } },
{ "type": "Feature", "properties": { "vote_count": 10, "source_tile": "K-35-062-2_Rakovski_x3360_y2352.png", "mound_probability": 1.0 }, "geometry": { "type": "Point", "coordinates": [ 24.969718243094057, 42.216212855276289 ] } },
{ "type": "Feature", "properties": { "vote_count": 10, "source_tile": "K-35-062-2_Rakovski_x3360_y2352.png", "mound_probability": 1.0 }, "geometry": { "type": "Point", "coordinates": [ 24.970985142784897, 42.215895532600832 ] } },
{ "type": "Feature", "properties": { "vote_count": 10, "source_tile": "K-35-062-2_Rakovski_x3696_y1680.png", "mound_probability": 0.98 }, "geometry": { "type": "Point", "coordinates": [ 24.982383929264817, 42.252548075203727 ] } },
{ "type": "Feature", "properties": { "vote_count": 10, "source_tile": "K-35-062-2_Rakovski_x4032_y3024.png", "mound_probability": 0.98 }, "geometry": { "type": "Point", "coordinates": [ 24.997274501283126, 42.187675433377464 ] } },
{ "type": "Feature", "properties": { "vote_count": 10, "source_tile": "K-35-062-2_Rakovski_x4032_y672.png", "mound_probability": 0.99 }, "geometry": { "type": "Point", "coordinates": [ 24.994983363669558, 42.303084133216203 ] } },
{ "type": "Feature", "properties": { "vote_count": 10, "source_tile": "K-35-062-2_Rakovski_x3696_y1008.png", "mound_probability": 0.99 }, "geometry": { "type": "Point", "coordinates": [ 24.983745415751478, 42.287373535226102 ] } },
{ "type": "Feature", "properties": { "vote_count": 10, "source_tile": "K-35-062-2_Rakovski_x3696_y1008.png", "mound_probability": 0.98 }, "geometry": { "type": "Point", "coordinates": [ 24.990043598048629, 42.276929040602205 ] } },
{ "type": "Feature", "properties": { "vote_count": 10, "source_tile": "K-35-062-2_Rakovski_x672_y1344.png", "mound_probability": 0.99 }, "geometry": { "type": "Point", "coordinates": [ 24.789114461439144, 42.260484911587781 ] } },
{ "type": "Feature", "properties": { "vote_count": 10, "source_tile": "K-35-062-2_Rakovski_x672_y1680.png", "mound_probability": 0.99 }, "geometry": { "type": "Point", "coordinates": [ 24.791220945956525, 42.250135752698974 ] } },
{ "type": "Feature", "properties": { "vote_count": 10, "source_tile": "K-35-062-2_Rakovski_x672_y1008.png", "mound_probability": 0.99 }, "geometry": { "type": "Point", "coordinates": [ 24.795467639032641, 42.272600409618818 ] } },
{ "type": "Feature", "properties": { "vote_count": 10, "source_tile": "K-35-062-2_Rakovski_x672_y672.png", "mound_probability": 0.98 }, "geometry": { "type": "Point", "coordinates": [ 24.790726611638487, 42.291365987444465 ] } },
{ "type": "Feature", "properties": { "vote_count": 10, "source_tile": "K-35-062-2_Rakovski_x1008_y336.png", "mound_probability": 0.98 }, "geometry": { "type": "Point", "coordinates": [ 24.806410363776166, 42.317243673780297 ] } },
{ "type": "Feature", "properties": { "vote_count": 10, "source_tile": "K-35-062-2_Rakovski_x3024_y1008.png", "mound_probability": 0.98 }, "geometry": { "type": "Point", "coordinates": [ 24.930836978958968, 42.276359924301751 ] } },
{ "type": "Feature", "properties": { "vote_count": 10, "source_tile": "K-35-062-2_Rakovski_x672_y1008.png", "mound_probability": 0.98 }, "geometry": { "type": "Point", "coordinates": [ 24.788553140747116, 42.285359379591398 ] } },
{ "type": "Feature", "properties": { "vote_count": 10, "source_tile": "K-35-062-2_Rakovski_x2688_y3024.png", "mound_probability": 0.98 }, "geometry": { "type": "Point", "coordinates": [ 24.927544048483604, 42.197206977107697 ] } },
{ "type": "Feature", "properties": { "vote_count": 10, "source_tile": "K-35-062-2_Rakovski_x672_y1008.png", "mound_probability": 0.98 }, "geometry": { "type": "Point", "coordinates": [ 24.798687228713888, 42.284365349135065 ] } },
{ "type": "Feature", "properties": { "vote_count": 10, "source_tile": "K-35-062-2_Rakovski_x1008_y336.png", "mound_probability": 1.0 }, "geometry": { "type": "Point", "coordinates": [ 24.811072503246947, 42.304643757754157 ] } },
{ "type": "Feature", "properties": { "vote_count": 10, "source_tile": "K-35-062-2_Rakovski_x1008_y336.png", "mound_probability": 1.0 }, "geometry": { "type": "Point", "coordinates": [ 24.810812779725541, 42.316227217832342 ] } },
{ "type": "Feature", "properties": { "vote_count": 10, "source_tile": "K-35-062-2_Rakovski_x672_y336.png", "mound_probability": 0.98 }, "geometry": { "type": "Point", "coordinates": [ 24.805908346694775, 42.312586742874501 ] } },
{ "type": "Feature", "properties": { "vote_count": 10, "source_tile": "K-35-062-2_Rakovski_x1008_y336.png", "mound_probability": 0.98 }, "geometry": { "type": "Point", "coordinates": [ 24.810528142340498, 42.311131377638247 ] } },
{ "type": "Feature", "properties": { "vote_count": 10, "source_tile": "K-35-078-1_Lesovo_x336_y3024.png", "mound_probability": 0.98 }, "geometry": { "type": "Point", "coordinates": [ 26.520607416497029, 41.853000857739268 ] } },
{ "type": "Feature", "properties": { "vote_count": 10, "source_tile": "K-35-078-1_Lesovo_x336_y3024.png", "mound_probability": 0.98 }, "geometry": { "type": "Point", "coordinates": [ 26.52949212399761, 41.858037344750848 ] } },
{ "type": "Feature", "properties": { "vote_count": 10, "source_tile": "K-35-062-2_Rakovski_x336_y0.png", "mound_probability": 0.98 }, "geometry": { "type": "Point", "coordinates": [ 24.780631996695604, 42.332502736359608 ] } },
{ "type": "Feature", "properties": { "vote_count": 10, "source_tile": "K-35-078-1_Lesovo_x2352_y0.png", "mound_probability": 0.98 }, "geometry": { "type": "Point", "coordinates": [ 26.650135495366666, 41.985765824449047 ] } },
{ "type": "Feature", "properties": { "vote_count": 10, "source_tile": "K-35-078-1_Lesovo_x0_y3360.png", "mound_probability": 0.98 }, "geometry": { "type": "Point", "coordinates": [ 26.509496660328775, 41.838153212357966 ] } },
{ "type": "Feature", "properties": { "vote_count": 10, "source_tile": "K-35-078-1_Lesovo_x0_y3360.png", "mound_probability": 0.98 }, "geometry": { "type": "Point", "coordinates": [ 26.506880574105075, 41.842233236066477 ] } },
{ "type": "Feature", "properties": { "vote_count": 10, "source_tile": "K-35-078-1_Lesovo_x2352_y0.png", "mound_probability": 0.98 }, "geometry": { "type": "Point", "coordinates": [ 26.659454767685489, 41.984182867937761 ] } },
{ "type": "Feature", "properties": { "vote_count": 10, "source_tile": "K-35-078-1_Lesovo_x2352_y336.png", "mound_probability": 0.98 }, "geometry": { "type": "Point", "coordinates": [ 26.653529577705253, 41.975727065163397 ] } },
{ "type": "Feature", "properties": { "vote_count": 10, "source_tile": "K-35-078-1_Lesovo_x2352_y336.png", "mound_probability": 0.98 }, "geometry": { "type": "Point", "coordinates": [ 26.659727758793622, 41.975634074492454 ] } },
{ "type": "Feature", "properties": { "vote_count": 10, "source_tile": "K-35-078-1_Lesovo_x2688_y1680.png", "mound_probability": 0.98 }, "geometry": { "type": "Point", "coordinates": [ 26.678403846758833, 41.916349721868286 ] } },
{ "type": "Feature", "properties": { "vote_count": 10, "source_tile": "K-35-078-1_Lesovo_x2352_y0.png", "mound_probability": 0.98 }, "geometry": { "type": "Point", "coordinates": [ 26.641806090571539, 41.993981100837715 ] } },
{ "type": "Feature", "properties": { "vote_count": 10, "source_tile": "K-35-078-1_Lesovo_x3024_y336.png", "mound_probability": 0.98 }, "geometry": { "type": "Point", "coordinates": [ 26.700402690448364, 41.975835028524656 ] } },
{ "type": "Feature", "properties": { "vote_count": 10, "source_tile": "K-35-078-1_Lesovo_x3696_y0.png", "mound_probability": 0.98 }, "geometry": { "type": "Point", "coordinates": [ 26.727866491166338, 41.995878358637526 ] } },
{ "type": "Feature", "properties": { "vote_count": 10, "source_tile": "K-35-078-1_Lesovo_x336_y3360.png", "mound_probability": 0.98 }, "geometry": { "type": "Point", "coordinates": [ 26.539033360184693, 41.841622402647332 ] } },
{ "type": "Feature", "properties": { "vote_count": 10, "source_tile": "K-35-078-1_Lesovo_x336_y3360.png", "mound_probability": 0.98 }, "geometry": { "type": "Point", "coordinates": [ 26.536947467068348, 41.83712645221042 ] } },
{ "type": "Feature", "properties": { "vote_count": 10, "source_tile": "K-35-078-1_Lesovo_x4032_y336.png", "mound_probability": 0.98 }, "geometry": { "type": "Point", "coordinates": [ 26.744250955993099, 41.977681035373742 ] } }
]
}
