{
"type": "FeatureCollection",
"name": "gs-4maps-active-area-bounds",
"crs": { "type": "name", "properties": { "name": "urn:ogc:def:crs:EPSG::32635" } },
"features": [
{ "type": "Feature", "properties": { "sheet_id": "K-35-052-4_32635" }, "geometry": { "type": "Polygon", "coordinates": [ [ [ 397168.768330009654164, 4706013.031798309646547 ], [ 417710.923148492933251, 4705740.566762841306627 ], [ 417493.089750141429249, 4687233.898892702534795 ], [ 396896.444205141393468, 4687506.218208347447217 ], [ 397168.768330009654164, 4706013.031798309646547 ] ] ] } },
{ "type": "Feature", "properties": { "sheet_id": "K-35-053-3_Elenovo" }, "geometry": { "type": "Polygon", "coordinates": [ [ [ 417710.923148492933251, 4705740.566762841306627 ], [ 438252.938675974903163, 4705528.676177867688239 ], [ 438089.586513770045713, 4687022.121740765869617 ], [ 417493.089750141429249, 4687233.898892702534795 ], [ 417710.923148492933251, 4705740.566762841306627 ] ] ] } },
{ "type": "Feature", "properties": { "sheet_id": "K-35-062-2_Rakovski" }, "geometry": { "type": "Polygon", "coordinates": [ [ [ 314507.635343458328862, 4689201.195020973682404 ], [ 335105.245144439977594, 4688686.561473369598389 ], [ 334670.768954650731757, 4670179.592433673329651 ], [ 314018.781571036553942, 4670693.934737728908658 ], [ 314507.635343458328862, 4689201.195020973682404 ] ] ] } },
{ "type": "Feature", "properties": { "sheet_id": "K-35-078-1_Lesovo" }, "geometry": { "type": "Polygon", "coordinates": [ [ [ 458469.267362757178489, 4649859.5382165228948 ], [ 479173.99061773554422, 4649768.926820060238242 ], [ 479120.108590705203824, 4631264.118120226077735 ], [ 458361.442950299941003, 4631354.671633531339467 ], [ 458469.267362757178489, 4649859.5382165228948 ] ] ] } }
]
}
