{
"type": "FeatureCollection",
"name": "gs-4maps-sheet-bounds",
"crs": { "type": "name", "properties": { "name": "urn:ogc:def:crs:EPSG::32635" } },
"features": [
{ "type": "Feature", "properties": { "sheet_id": "K-35-052-4_32635" }, "geometry": { "type": "Polygon", "coordinates": [ [ [ 417706.433481822081376, 4687227.862144149839878 ], [ 417706.433481822081376, 4706006.125313682481647 ], [ 396889.015266932197846, 4706006.125313682481647 ], [ 396889.015266932197846, 4687227.862144149839878 ], [ 417706.433481822081376, 4687227.862144149839878 ] ] ] } },
{ "type": "Feature", "properties": { "sheet_id": "K-35-053-3_Elenovo" }, "geometry": { "type": "Polygon", "coordinates": [ [ [ 438247.10980658774497, 4687016.244709293358028 ], [ 438247.10980658774497, 4705733.604015892371535 ], [ 417485.670575713505968, 4705733.604015892371535 ], [ 417485.670575713505968, 4687016.244709293358028 ], [ 438247.10980658774497, 4687016.244709293358028 ] ] ] } },
{ "type": "Feature", "properties": { "sheet_id": "K-35-062-2_Rakovski" }, "geometry": { "type": "Polygon", "coordinates": [ [ [ 335100.432657155906782, 4670173.141191147267818 ], [ 335100.432657155906782, 4689194.542498392984271 ], [ 314011.269519148918334, 4689194.542498392984271 ], [ 314011.269519148918334, 4670173.141191147267818 ], [ 335100.432657155906782, 4670173.141191147267818 ] ] ] } },
{ "type": "Feature", "properties": { "sheet_id": "K-35-078-1_Lesovo" }, "geometry": { "type": "Polygon", "coordinates": [ [ [ 479169.074335725570563, 4631256.090677645988762 ], [ 479169.074335725570563, 4649852.411821395158768 ], [ 458353.873964597121812, 4649852.411821395158768 ], [ 458353.873964597121812, 4631256.090677645988762 ], [ 479169.074335725570563, 4631256.090677645988762 ] ] ] } }
]
}
