{
"type": "FeatureCollection",
"name": "f3prop-f35vf-n10-6of10-pt0.25",
"crs": { "type": "name", "properties": { "name": "urn:ogc:def:crs:OGC:1.3:CRS84" } },
"features": [
{ "type": "Feature", "properties": { "source_tile": "K-35-052-4_32635_x0_y1680.png" }, "geometry": { "type": "Point", "coordinates": [ 25.764864, 42.420295 ] } },
{ "type": "Feature", "properties": { "source_tile": "K-35-052-4_32635_x0_y1680.png" }, "geometry": { "type": "Point", "coordinates": [ 25.765785, 42.420806 ] } },
{ "type": "Feature", "properties": { "source_tile": "K-35-052-4_32635_x0_y2016.png" }, "geometry": { "type": "Point", "coordinates": [ 25.751911, 42.401168 ] } },
{ "type": "Feature", "properties": { "source_tile": "K-35-052-4_32635_x0_y2016.png" }, "geometry": { "type": "Point", "coordinates": [ 25.76484, 42.39367 ] } },
{ "type": "Feature", "properties": { "source_tile": "K-35-052-4_32635_x0_y2016.png" }, "geometry": { "type": "Point", "coordinates": [ 25.764832, 42.392619 ] } },
{ "type": "Feature", "properties": { "source_tile": "K-35-052-4_32635_x0_y2016.png" }, "geometry": { "type": "Point", "coordinates": [ 25.768681, 42.393598 ] } },
{ "type": "Feature", "properties": { "source_tile": "K-35-052-4_32635_x0_y2352.png" }, "geometry": { "type": "Point", "coordinates": [ 25.763937, 42.389477 ] } },
{ "type": "Feature", "properties": { "source_tile": "K-35-052-4_32635_x0_y2352.png" }, "geometry": { "type": "Point", "coordinates": [ 25.769368, 42.384751 ] } },
{ "type": "Feature", "properties": { "source_tile": "K-35-052-4_32635_x0_y2352.png" }, "geometry": { "type": "Point", "coordinates": [ 25.769807, 42.38373 ] } },
{ "type": "Feature", "properties": { "source_tile": "K-35-052-4_32635_x0_y2352.png" }, "geometry": { "type": "Point", "coordinates": [ 25.769048, 42.385809 ] } },
{ "type": "Feature", "properties": { "source_tile": "K-35-052-4_32635_x0_y2688.png" }, "geometry": { "type": "Point", "coordinates": [ 25.751793, 42.365237 ] } },
{ "type": "Feature", "properties": { "source_tile": "K-35-052-4_32635_x0_y2688.png" }, "geometry": { "type": "Point", "coordinates": [ 25.769319, 42.366904 ] } },
{ "type": "Feature", "properties": { "source_tile": "K-35-052-4_32635_x0_y2688.png" }, "geometry": { "type": "Point", "coordinates": [ 25.750747, 42.372657 ] } },
{ "type": "Feature", "properties": { "source_tile": "K-35-052-4_32635_x0_y3024.png" }, "geometry": { "type": "Point", "coordinates": [ 25.75712, 42.354941 ] } },
{ "type": "Feature", "properties": { "source_tile": "K-35-052-4_32635_x0_y336.png" }, "geometry": { "type": "Point", "coordinates": [ 25.767933, 42.471061 ] } },
{ "type": "Feature", "properties": { "source_tile": "K-35-052-4_32635_x0_y672.png" }, "geometry": { "type": "Point", "coordinates": [ 25.76229, 42.466938 ] } },
{ "type": "Feature", "properties": { "source_tile": "K-35-052-4_32635_x1008_y0.png" }, "geometry": { "type": "Point", "coordinates": [ 25.819111, 42.498158 ] } },
{ "type": "Feature", "properties": { "source_tile": "K-35-052-4_32635_x1008_y336.png" }, "geometry": { "type": "Point", "coordinates": [ 25.827013, 42.479133 ] } },
{ "type": "Feature", "properties": { "source_tile": "K-35-052-4_32635_x1008_y3360.png" }, "geometry": { "type": "Point", "coordinates": [ 25.824449, 42.338266 ] } },
{ "type": "Feature", "properties": { "source_tile": "K-35-052-4_32635_x1008_y672.png" }, "geometry": { "type": "Point", "coordinates": [ 25.82602, 42.466489 ] } },
{ "type": "Feature", "properties": { "source_tile": "K-35-052-4_32635_x1344_y336.png" }, "geometry": { "type": "Point", "coordinates": [ 25.835945, 42.472697 ] } },
{ "type": "Feature", "properties": { "source_tile": "K-35-052-4_32635_x1680_y0.png" }, "geometry": { "type": "Point", "coordinates": [ 25.863739, 42.496012 ] } },
{ "type": "Feature", "properties": { "source_tile": "K-35-052-4_32635_x1680_y0.png" }, "geometry": { "type": "Point", "coordinates": [ 25.863825, 42.494905 ] } },
{ "type": "Feature", "properties": { "source_tile": "K-35-052-4_32635_x1680_y0.png" }, "geometry": { "type": "Point", "coordinates": [ 25.864876, 42.485827 ] } },
{ "type": "Feature", "properties": { "source_tile": "K-35-052-4_32635_x2016_y0.png" }, "geometry": { "type": "Point", "coordinates": [ 25.871035, 42.496121 ] } },
{ "type": "Feature", "properties": { "source_tile": "K-35-052-4_32635_x2016_y0.png" }, "geometry": { "type": "Point", "coordinates": [ 25.869583, 42.494597 ] } },
{ "type": "Feature", "properties": { "source_tile": "K-35-052-4_32635_x1680_y336.png" }, "geometry": { "type": "Point", "coordinates": [ 25.870727, 42.483765 ] } },
{ "type": "Feature", "properties": { "source_tile": "K-35-052-4_32635_x2016_y1008.png" }, "geometry": { "type": "Point", "coordinates": [ 25.873058, 42.451428 ] } },
{ "type": "Feature", "properties": { "source_tile": "K-35-052-4_32635_x2016_y1008.png" }, "geometry": { "type": "Point", "coordinates": [ 25.87994, 42.450282 ] } },
{ "type": "Feature", "properties": { "source_tile": "K-35-052-4_32635_x2016_y1344.png" }, "geometry": { "type": "Point", "coordinates": [ 25.869816, 42.430997 ] } },
{ "type": "Feature", "properties": { "source_tile": "K-35-052-4_32635_x2016_y3024.png" }, "geometry": { "type": "Point", "coordinates": [ 25.883857, 42.363357 ] } },
{ "type": "Feature", "properties": { "source_tile": "K-35-052-4_32635_x2016_y336.png" }, "geometry": { "type": "Point", "coordinates": [ 25.885732, 42.481709 ] } },
{ "type": "Feature", "properties": { "source_tile": "K-35-052-4_32635_x2352_y1008.png" }, "geometry": { "type": "Point", "coordinates": [ 25.90437, 42.453675 ] } },
{ "type": "Feature", "properties": { "source_tile": "K-35-052-4_32635_x2352_y3024.png" }, "geometry": { "type": "Point", "coordinates": [ 25.896076, 42.363331 ] } },
{ "type": "Feature", "properties": { "source_tile": "K-35-052-4_32635_x2352_y3024.png" }, "geometry": { "type": "Point", "coordinates": [ 25.906602, 42.35273 ] } },
{ "type": "Feature", "properties": { "source_tile": "K-35-052-4_32635_x2352_y336.png" }, "geometry": { "type": "Point", "coordinates": [ 25.903253, 42.478884 ] } },
{ "type": "Feature", "properties": { "source_tile": "K-35-052-4_32635_x2688_y1008.png" }, "geometry": { "type": "Point", "coordinates": [ 25.918276, 42.439664 ] } },
{ "type": "Feature", "properties": { "source_tile": "K-35-052-4_32635_x2688_y1344.png" }, "geometry": { "type": "Point", "coordinates": [ 25.926837, 42.424921 ] } },
{ "type": "Feature", "properties": { "source_tile": "K-35-052-4_32635_x2688_y1680.png" }, "geometry": { "type": "Point", "coordinates": [ 25.921072, 42.41415 ] } },
{ "type": "Feature", "properties": { "source_tile": "K-35-052-4_32635_x2688_y336.png" }, "geometry": { "type": "Point", "coordinates": [ 25.91592, 42.469066 ] } },
{ "type": "Feature", "properties": { "source_tile": "K-35-052-4_32635_x3024_y2016.png" }, "geometry": { "type": "Point", "coordinates": [ 25.944115, 42.408164 ] } },
{ "type": "Feature", "properties": { "source_tile": "K-35-052-4_32635_x3024_y2016.png" }, "geometry": { "type": "Point", "coordinates": [ 25.948683, 42.394504 ] } },
{ "type": "Feature", "properties": { "source_tile": "K-35-052-4_32635_x3024_y2352.png" }, "geometry": { "type": "Point", "coordinates": [ 25.939951, 42.381961 ] } },
{ "type": "Feature", "properties": { "source_tile": "K-35-052-4_32635_x3024_y3024.png" }, "geometry": { "type": "Point", "coordinates": [ 25.9463, 42.351773 ] } },
{ "type": "Feature", "properties": { "source_tile": "K-35-052-4_32635_x3024_y3024.png" }, "geometry": { "type": "Point", "coordinates": [ 25.94616, 42.350811 ] } },
{ "type": "Feature", "properties": { "source_tile": "K-35-052-4_32635_x3024_y3024.png" }, "geometry": { "type": "Point", "coordinates": [ 25.946116, 42.35729 ] } },
{ "type": "Feature", "properties": { "source_tile": "K-35-052-4_32635_x3024_y3024.png" }, "geometry": { "type": "Point", "coordinates": [ 25.945841, 42.354269 ] } },
{ "type": "Feature", "properties": { "source_tile": "K-35-052-4_32635_x3360_y2016.png" }, "geometry": { "type": "Point", "coordinates": [ 25.967493, 42.399606 ] } },
{ "type": "Feature", "properties": { "source_tile": "K-35-052-4_32635_x3360_y2352.png" }, "geometry": { "type": "Point", "coordinates": [ 25.970219, 42.385118 ] } },
{ "type": "Feature", "properties": { "source_tile": "K-35-052-4_32635_x3360_y2688.png" }, "geometry": { "type": "Point", "coordinates": [ 25.959134, 42.370783 ] } },
{ "type": "Feature", "properties": { "source_tile": "K-35-052-4_32635_x3360_y3360.png" }, "geometry": { "type": "Point", "coordinates": [ 25.959025, 42.333765 ] } },
{ "type": "Feature", "properties": { "source_tile": "K-35-052-4_32635_x3360_y3696.png" }, "geometry": { "type": "Point", "coordinates": [ 25.959232, 42.333788 ] } },
{ "type": "Feature", "properties": { "source_tile": "K-35-052-4_32635_x336_y1344.png" }, "geometry": { "type": "Point", "coordinates": [ 25.786398, 42.437411 ] } },
{ "type": "Feature", "properties": { "source_tile": "K-35-052-4_32635_x336_y1680.png" }, "geometry": { "type": "Point", "coordinates": [ 25.775173, 42.421467 ] } },
{ "type": "Feature", "properties": { "source_tile": "K-35-052-4_32635_x336_y1680.png" }, "geometry": { "type": "Point", "coordinates": [ 25.786299, 42.413675 ] } },
{ "type": "Feature", "properties": { "source_tile": "K-35-052-4_32635_x336_y1680.png" }, "geometry": { "type": "Point", "coordinates": [ 25.788241, 42.413767 ] } },
{ "type": "Feature", "properties": { "source_tile": "K-35-052-4_32635_x336_y2016.png" }, "geometry": { "type": "Point", "coordinates": [ 25.772605, 42.405261 ] } },
{ "type": "Feature", "properties": { "source_tile": "K-35-052-4_32635_x336_y2016.png" }, "geometry": { "type": "Point", "coordinates": [ 25.773867, 42.393166 ] } },
{ "type": "Feature", "properties": { "source_tile": "K-35-052-4_32635_x336_y2016.png" }, "geometry": { "type": "Point", "coordinates": [ 25.776003, 42.392741 ] } },
{ "type": "Feature", "properties": { "source_tile": "K-35-052-4_32635_x336_y2352.png" }, "geometry": { "type": "Point", "coordinates": [ 25.785769, 42.38491 ] } },
{ "type": "Feature", "properties": { "source_tile": "K-35-052-4_32635_x336_y2352.png" }, "geometry": { "type": "Point", "coordinates": [ 25.775486, 42.387083 ] } },
{ "type": "Feature", "properties": { "source_tile": "K-35-052-4_32635_x336_y2352.png" }, "geometry": { "type": "Point", "coordinates": [ 25.772415, 42.387578 ] } },
{ "type": "Feature", "properties": { "source_tile": "K-35-052-4_32635_x336_y336.png" }, "geometry": { "type": "Point", "coordinates": [ 25.780456, 42.477531 ] } },
{ "type": "Feature", "properties": { "source_tile": "K-35-052-4_32635_x336_y336.png" }, "geometry": { "type": "Point", "coordinates": [ 25.779986, 42.469788 ] } },
{ "type": "Feature", "properties": { "source_tile": "K-35-052-4_32635_x336_y3360.png" }, "geometry": { "type": "Point", "coordinates": [ 25.789212, 42.341188 ] } },
{ "type": "Feature", "properties": { "source_tile": "K-35-052-4_32635_x3696_y1344.png" }, "geometry": { "type": "Point", "coordinates": [ 25.972455, 42.433389 ] } },
{ "type": "Feature", "properties": { "source_tile": "K-35-052-4_32635_x3696_y1344.png" }, "geometry": { "type": "Point", "coordinates": [ 25.984293, 42.426966 ] } },
{ "type": "Feature", "properties": { "source_tile": "K-35-052-4_32635_x3696_y2016.png" }, "geometry": { "type": "Point", "coordinates": [ 25.987006, 42.397189 ] } },
{ "type": "Feature", "properties": { "source_tile": "K-35-052-4_32635_x3696_y2352.png" }, "geometry": { "type": "Point", "coordinates": [ 25.989295, 42.384641 ] } },
{ "type": "Feature", "properties": { "source_tile": "K-35-052-4_32635_x3696_y2688.png" }, "geometry": { "type": "Point", "coordinates": [ 25.984774, 42.37608 ] } },
{ "type": "Feature", "properties": { "source_tile": "K-35-052-4_32635_x3696_y3360.png" }, "geometry": { "type": "Point", "coordinates": [ 25.988632, 42.334691 ] } },
{ "type": "Feature", "properties": { "source_tile": "K-35-052-4_32635_x672_y0.png" }, "geometry": { "type": "Point", "coordinates": [ 25.788608, 42.497507 ] } },
{ "type": "Feature", "properties": { "source_tile": "K-35-052-4_32635_x672_y1008.png" }, "geometry": { "type": "Point", "coordinates": [ 25.803681, 42.448871 ] } },
{ "type": "Feature", "properties": { "source_tile": "K-35-052-4_32635_x672_y1008.png" }, "geometry": { "type": "Point", "coordinates": [ 25.805761, 42.438956 ] } },
{ "type": "Feature", "properties": { "source_tile": "K-35-052-4_32635_x672_y1008.png" }, "geometry": { "type": "Point", "coordinates": [ 25.800386, 42.440371 ] } },
{ "type": "Feature", "properties": { "source_tile": "K-35-052-4_32635_x672_y1344.png" }, "geometry": { "type": "Point", "coordinates": [ 25.79949, 42.432956 ] } },
{ "type": "Feature", "properties": { "source_tile": "K-35-052-4_32635_x672_y1344.png" }, "geometry": { "type": "Point", "coordinates": [ 25.795442, 42.422802 ] } },
{ "type": "Feature", "properties": { "source_tile": "K-35-052-4_32635_x672_y2352.png" }, "geometry": { "type": "Point", "coordinates": [ 25.802748, 42.385314 ] } },
{ "type": "Feature", "properties": { "source_tile": "K-35-052-4_32635_x672_y2352.png" }, "geometry": { "type": "Point", "coordinates": [ 25.800535, 42.387567 ] } },
{ "type": "Feature", "properties": { "source_tile": "K-35-052-4_32635_x672_y2352.png" }, "geometry": { "type": "Point", "coordinates": [ 25.794542, 42.386503 ] } },
{ "type": "Feature", "properties": { "source_tile": "K-35-053-3_Elenovo_x0_y1008.png" }, "geometry": { "type": "Point", "coordinates": [ 26.004089, 42.45255 ] } },
{ "type": "Feature", "properties": { "source_tile": "K-35-053-3_Elenovo_x0_y1344.png" }, "geometry": { "type": "Point", "coordinates": [ 26.014608, 42.428918 ] } },
{ "type": "Feature", "properties": { "source_tile": "K-35-053-3_Elenovo_x0_y1680.png" }, "geometry": { "type": "Point", "coordinates": [ 26.010489, 42.417722 ] } },
{ "type": "Feature", "properties": { "source_tile": "K-35-053-3_Elenovo_x0_y1680.png" }, "geometry": { "type": "Point", "coordinates": [ 26.007408, 42.415204 ] } },
{ "type": "Feature", "properties": { "source_tile": "K-35-053-3_Elenovo_x0_y2016.png" }, "geometry": { "type": "Point", "coordinates": [ 26.00206, 42.405343 ] } },
{ "type": "Feature", "properties": { "source_tile": "K-35-053-3_Elenovo_x0_y2016.png" }, "geometry": { "type": "Point", "coordinates": [ 26.002953, 42.396448 ] } },
{ "type": "Feature", "properties": { "source_tile": "K-35-053-3_Elenovo_x0_y2688.png" }, "geometry": { "type": "Point", "coordinates": [ 26.006249, 42.36288 ] } },
{ "type": "Feature", "properties": { "source_tile": "K-35-053-3_Elenovo_x0_y336.png" }, "geometry": { "type": "Point", "coordinates": [ 26.002725, 42.479169 ] } },
{ "type": "Feature", "properties": { "source_tile": "K-35-053-3_Elenovo_x0_y336.png" }, "geometry": { "type": "Point", "coordinates": [ 26.003546, 42.47753 ] } },
{ "type": "Feature", "properties": { "source_tile": "K-35-053-3_Elenovo_x0_y672.png" }, "geometry": { "type": "Point", "coordinates": [ 26.00366, 42.46183 ] } },
{ "type": "Feature", "properties": { "source_tile": "K-35-053-3_Elenovo_x0_y672.png" }, "geometry": { "type": "Point", "coordinates": [ 25.999786, 42.460109 ] } },
{ "type": "Feature", "properties": { "source_tile": "K-35-053-3_Elenovo_x1008_y0.png" }, "geometry": { "type": "Point", "coordinates": [ 26.058979, 42.499086 ] } },
{ "type": "Feature", "properties": { "source_tile": "K-35-053-3_Elenovo_x1008_y0.png" }, "geometry": { "type": "Point", "coordinates": [ 26.077381, 42.497567 ] } },
{ "type": "Feature", "properties": { "source_tile": "K-35-053-3_Elenovo_x1008_y0.png" }, "geometry": { "type": "Point", "coordinates": [ 26.071028, 42.492593 ] } },
{ "type": "Feature", "properties": { "source_tile": "K-35-053-3_Elenovo_x1008_y0.png" }, "geometry": { "type": "Point", "coordinates": [ 26.076638, 42.483936 ] } },
{ "type": "Feature", "properties": { "source_tile": "K-35-053-3_Elenovo_x1008_y2016.png" }, "geometry": { "type": "Point", "coordinates": [ 26.075093, 42.397433 ] } },
{ "type": "Feature", "properties": { "source_tile": "K-35-053-3_Elenovo_x1008_y3024.png" }, "geometry": { "type": "Point", "coordinates": [ 26.080236, 42.346942 ] } },
{ "type": "Feature", "properties": { "source_tile": "K-35-053-3_Elenovo_x1008_y3024.png" }, "geometry": { "type": "Point", "coordinates": [ 26.063298, 42.360428 ] } },
{ "type": "Feature", "properties": { "source_tile": "K-35-053-3_Elenovo_x1008_y3024.png" }, "geometry": { "type": "Point", "coordinates": [ 26.075518, 42.346932 ] } },
{ "type": "Feature", "properties": { "source_tile": "K-35-053-3_Elenovo_x1344_y0.png" }, "geometry": { "type": "Point", "coordinates": [ 26.090958, 42.494172 ] } },
{ "type": "Feature", "properties": { "source_tile": "K-35-053-3_Elenovo_x1344_y0.png" }, "geometry": { "type": "Point", "coordinates": [ 26.094359, 42.49299 ] } },
{ "type": "Feature", "properties": { "source_tile": "K-35-053-3_Elenovo_x1344_y0.png" }, "geometry": { "type": "Point", "coordinates": [ 26.097648, 42.490376 ] } },
{ "type": "Feature", "properties": { "source_tile": "K-35-053-3_Elenovo_x1344_y2016.png" }, "geometry": { "type": "Point", "coordinates": [ 26.083077, 42.404501 ] } },
{ "type": "Feature", "properties": { "source_tile": "K-35-053-3_Elenovo_x1344_y2016.png" }, "geometry": { "type": "Point", "coordinates": [ 26.089242, 42.402227 ] } },
{ "type": "Feature", "properties": { "source_tile": "K-35-053-3_Elenovo_x1344_y2016.png" }, "geometry": { "type": "Point", "coordinates": [ 26.096651, 42.396042 ] } },
{ "type": "Feature", "properties": { "source_tile": "K-35-053-3_Elenovo_x1344_y2352.png" }, "geometry": { "type": "Point", "coordinates": [ 26.099052, 42.377688 ] } },
{ "type": "Feature", "properties": { "source_tile": "K-35-053-3_Elenovo_x1344_y2688.png" }, "geometry": { "type": "Point", "coordinates": [ 26.099598, 42.375468 ] } },
{ "type": "Feature", "properties": { "source_tile": "K-35-053-3_Elenovo_x1344_y336.png" }, "geometry": { "type": "Point", "coordinates": [ 26.099415, 42.48369 ] } },
{ "type": "Feature", "properties": { "source_tile": "K-35-053-3_Elenovo_x1344_y672.png" }, "geometry": { "type": "Point", "coordinates": [ 26.090518, 42.466694 ] } },
{ "type": "Feature", "properties": { "source_tile": "K-35-053-3_Elenovo_x1344_y672.png" }, "geometry": { "type": "Point", "coordinates": [ 26.09115, 42.465704 ] } },
{ "type": "Feature", "properties": { "source_tile": "K-35-053-3_Elenovo_x1680_y0.png" }, "geometry": { "type": "Point", "coordinates": [ 26.120861, 42.496243 ] } },
{ "type": "Feature", "properties": { "source_tile": "K-35-053-3_Elenovo_x1680_y0.png" }, "geometry": { "type": "Point", "coordinates": [ 26.11268, 42.492321 ] } },
{ "type": "Feature", "properties": { "source_tile": "K-35-053-3_Elenovo_x1680_y1680.png" }, "geometry": { "type": "Point", "coordinates": [ 26.109069, 42.413723 ] } },
{ "type": "Feature", "properties": { "source_tile": "K-35-053-3_Elenovo_x1680_y3024.png" }, "geometry": { "type": "Point", "coordinates": [ 26.115151, 42.348917 ] } },
{ "type": "Feature", "properties": { "source_tile": "K-35-053-3_Elenovo_x1680_y3024.png" }, "geometry": { "type": "Point", "coordinates": [ 26.114483, 42.347387 ] } },
{ "type": "Feature", "properties": { "source_tile": "K-35-053-3_Elenovo_x1680_y3360.png" }, "geometry": { "type": "Point", "coordinates": [ 26.11339, 42.341915 ] } },
{ "type": "Feature", "properties": { "source_tile": "K-35-053-3_Elenovo_x1680_y3360.png" }, "geometry": { "type": "Point", "coordinates": [ 26.113512, 42.341256 ] } },
{ "type": "Feature", "properties": { "source_tile": "K-35-053-3_Elenovo_x1680_y3360.png" }, "geometry": { "type": "Point", "coordinates": [ 26.117934, 42.338563 ] } },
{ "type": "Feature", "properties": { "source_tile": "K-35-053-3_Elenovo_x1680_y672.png" }, "geometry": { "type": "Point", "coordinates": [ 26.107674, 42.46517 ] } },
{ "type": "Feature", "properties": { "source_tile": "K-35-053-3_Elenovo_x1680_y672.png" }, "geometry": { "type": "Point", "coordinates": [ 26.103289, 42.458032 ] } },
{ "type": "Feature", "properties": { "source_tile": "K-35-053-3_Elenovo_x2016_y0.png" }, "geometry": { "type": "Point", "coordinates": [ 26.122176, 42.491516 ] } },
{ "type": "Feature", "properties": { "source_tile": "K-35-053-3_Elenovo_x2016_y1008.png" }, "geometry": { "type": "Point", "coordinates": [ 26.137191, 42.450587 ] } },
{ "type": "Feature", "properties": { "source_tile": "K-35-053-3_Elenovo_x2016_y336.png" }, "geometry": { "type": "Point", "coordinates": [ 26.129334, 42.479328 ] } },
{ "type": "Feature", "properties": { "source_tile": "K-35-053-3_Elenovo_x2352_y0.png" }, "geometry": { "type": "Point", "coordinates": [ 26.145041, 42.498533 ] } },
{ "type": "Feature", "properties": { "source_tile": "K-35-053-3_Elenovo_x2352_y0.png" }, "geometry": { "type": "Point", "coordinates": [ 26.155599, 42.497351 ] } },
{ "type": "Feature", "properties": { "source_tile": "K-35-053-3_Elenovo_x2352_y0.png" }, "geometry": { "type": "Point", "coordinates": [ 26.156857, 42.498023 ] } },
{ "type": "Feature", "properties": { "source_tile": "K-35-053-3_Elenovo_x2352_y0.png" }, "geometry": { "type": "Point", "coordinates": [ 26.142525, 42.490894 ] } },
{ "type": "Feature", "properties": { "source_tile": "K-35-053-3_Elenovo_x2688_y1008.png" }, "geometry": { "type": "Point", "coordinates": [ 26.170184, 42.453415 ] } },
{ "type": "Feature", "properties": { "source_tile": "K-35-053-3_Elenovo_x2688_y1680.png" }, "geometry": { "type": "Point", "coordinates": [ 26.173369, 42.418108 ] } },
{ "type": "Feature", "properties": { "source_tile": "K-35-053-3_Elenovo_x2688_y336.png" }, "geometry": { "type": "Point", "coordinates": [ 26.175864, 42.473718 ] } },
{ "type": "Feature", "properties": { "source_tile": "K-35-053-3_Elenovo_x2688_y672.png" }, "geometry": { "type": "Point", "coordinates": [ 26.170292, 42.454235 ] } },
{ "type": "Feature", "properties": { "source_tile": "K-35-053-3_Elenovo_x3024_y1680.png" }, "geometry": { "type": "Point", "coordinates": [ 26.186311, 42.419357 ] } },
{ "type": "Feature", "properties": { "source_tile": "K-35-053-3_Elenovo_x3024_y1680.png" }, "geometry": { "type": "Point", "coordinates": [ 26.200238, 42.416407 ] } },
{ "type": "Feature", "properties": { "source_tile": "K-35-053-3_Elenovo_x3024_y1680.png" }, "geometry": { "type": "Point", "coordinates": [ 26.196378, 42.411438 ] } },
{ "type": "Feature", "properties": { "source_tile": "K-35-053-3_Elenovo_x3024_y2016.png" }, "geometry": { "type": "Point", "coordinates": [ 26.196948, 42.407372 ] } },
{ "type": "Feature", "properties": { "source_tile": "K-35-053-3_Elenovo_x3024_y2016.png" }, "geometry": { "type": "Point", "coordinates": [ 26.199373, 42.40512 ] } },
{ "type": "Feature", "properties": { "source_tile": "K-35-053-3_Elenovo_x3024_y2016.png" }, "geometry": { "type": "Point", "coordinates": [ 26.186273, 42.398411 ] } },
{ "type": "Feature", "properties": { "source_tile": "K-35-053-3_Elenovo_x3024_y2352.png" }, "geometry": { "type": "Point", "coordinates": [ 26.186361, 42.389698 ] } },
{ "type": "Feature", "properties": { "source_tile": "K-35-053-3_Elenovo_x3024_y2352.png" }, "geometry": { "type": "Point", "coordinates": [ 26.189198, 42.387669 ] } },
{ "type": "Feature", "properties": { "source_tile": "K-35-053-3_Elenovo_x3024_y2352.png" }, "geometry": { "type": "Point", "coordinates": [ 26.191849, 42.381159 ] } },
{ "type": "Feature", "properties": { "source_tile": "K-35-053-3_Elenovo_x3024_y672.png" }, "geometry": { "type": "Point", "coordinates": [ 26.202853, 42.468792 ] } },
{ "type": "Feature", "properties": { "source_tile": "K-35-053-3_Elenovo_x3360_y0.png" }, "geometry": { "type": "Point", "coordinates": [ 26.203922, 42.492812 ] } },
{ "type": "Feature", "properties": { "source_tile": "K-35-053-3_Elenovo_x3360_y0.png" }, "geometry": { "type": "Point", "coordinates": [ 26.215457, 42.493142 ] } },
{ "type": "Feature", "properties": { "source_tile": "K-35-053-3_Elenovo_x3360_y0.png" }, "geometry": { "type": "Point", "coordinates": [ 26.221654, 42.489523 ] } },
{ "type": "Feature", "properties": { "source_tile": "K-35-053-3_Elenovo_x3360_y1008.png" }, "geometry": { "type": "Point", "coordinates": [ 26.221508, 42.452979 ] } },
{ "type": "Feature", "properties": { "source_tile": "K-35-053-3_Elenovo_x3360_y1680.png" }, "geometry": { "type": "Point", "coordinates": [ 26.212499, 42.41725 ] } },
{ "type": "Feature", "properties": { "source_tile": "K-35-053-3_Elenovo_x3360_y1680.png" }, "geometry": { "type": "Point", "coordinates": [ 26.219647, 42.417285 ] } },
{ "type": "Feature", "properties": { "source_tile": "K-35-053-3_Elenovo_x3360_y1680.png" }, "geometry": { "type": "Point", "coordinates": [ 26.210086, 42.41088 ] } },
{ "type": "Feature", "properties": { "source_tile": "K-35-053-3_Elenovo_x3360_y1680.png" }, "geometry": { "type": "Point", "coordinates": [ 26.214937, 42.408763 ] } },
{ "type": "Feature", "properties": { "source_tile": "K-35-053-3_Elenovo_x3360_y2016.png" }, "geometry": { "type": "Point", "coordinates": [ 26.205575, 42.401788 ] } },
{ "type": "Feature", "properties": { "source_tile": "K-35-053-3_Elenovo_x3360_y2016.png" }, "geometry": { "type": "Point", "coordinates": [ 26.221563, 42.400877 ] } },
{ "type": "Feature", "properties": { "source_tile": "K-35-053-3_Elenovo_x3360_y2352.png" }, "geometry": { "type": "Point", "coordinates": [ 26.206317, 42.383394 ] } },
{ "type": "Feature", "properties": { "source_tile": "K-35-053-3_Elenovo_x3360_y2352.png" }, "geometry": { "type": "Point", "coordinates": [ 26.217531, 42.384158 ] } },
{ "type": "Feature", "properties": { "source_tile": "K-35-053-3_Elenovo_x3360_y336.png" }, "geometry": { "type": "Point", "coordinates": [ 26.209738, 42.481622 ] } },
{ "type": "Feature", "properties": { "source_tile": "K-35-053-3_Elenovo_x3360_y336.png" }, "geometry": { "type": "Point", "coordinates": [ 26.216439, 42.481089 ] } },
{ "type": "Feature", "properties": { "source_tile": "K-35-053-3_Elenovo_x3360_y336.png" }, "geometry": { "type": "Point", "coordinates": [ 26.221888, 42.480822 ] } },
{ "type": "Feature", "properties": { "source_tile": "K-35-053-3_Elenovo_x336_y0.png" }, "geometry": { "type": "Point", "coordinates": [ 26.036846, 42.485014 ] } },
{ "type": "Feature", "properties": { "source_tile": "K-35-053-3_Elenovo_x336_y1008.png" }, "geometry": { "type": "Point", "coordinates": [ 26.02581, 42.439981 ] } },
{ "type": "Feature", "properties": { "source_tile": "K-35-053-3_Elenovo_x336_y1680.png" }, "geometry": { "type": "Point", "coordinates": [ 26.035311, 42.415721 ] } },
{ "type": "Feature", "properties": { "source_tile": "K-35-053-3_Elenovo_x336_y2016.png" }, "geometry": { "type": "Point", "coordinates": [ 26.040049, 42.403749 ] } },
{ "type": "Feature", "properties": { "source_tile": "K-35-053-3_Elenovo_x336_y2016.png" }, "geometry": { "type": "Point", "coordinates": [ 26.040382, 42.399433 ] } },
{ "type": "Feature", "properties": { "source_tile": "K-35-053-3_Elenovo_x336_y2352.png" }, "geometry": { "type": "Point", "coordinates": [ 26.034203, 42.390259 ] } },
{ "type": "Feature", "properties": { "source_tile": "K-35-053-3_Elenovo_x336_y2352.png" }, "geometry": { "type": "Point", "coordinates": [ 26.039679, 42.389961 ] } },
{ "type": "Feature", "properties": { "source_tile": "K-35-053-3_Elenovo_x336_y2352.png" }, "geometry": { "type": "Point", "coordinates": [ 26.041087, 42.384319 ] } },
{ "type": "Feature", "properties": { "source_tile": "K-35-053-3_Elenovo_x336_y2352.png" }, "geometry": { "type": "Point", "coordinates": [ 26.026256, 42.380461 ] } },
{ "type": "Feature", "properties": { "source_tile": "K-35-053-3_Elenovo_x336_y2688.png" }, "geometry": { "type": "Point", "coordinates": [ 26.036563, 42.365699 ] } },
{ "type": "Feature", "properties": { "source_tile": "K-35-053-3_Elenovo_x336_y2688.png" }, "geometry": { "type": "Point", "coordinates": [ 26.04055, 42.371469 ] } },
{ "type": "Feature", "properties": { "source_tile": "K-35-053-3_Elenovo_x336_y3024.png" }, "geometry": { "type": "Point", "coordinates": [ 26.03871, 42.357038 ] } },
{ "type": "Feature", "properties": { "source_tile": "K-35-053-3_Elenovo_x336_y336.png" }, "geometry": { "type": "Point", "coordinates": [ 26.025213, 42.479897 ] } },
{ "type": "Feature", "properties": { "source_tile": "K-35-053-3_Elenovo_x336_y336.png" }, "geometry": { "type": "Point", "coordinates": [ 26.027721, 42.474497 ] } },
{ "type": "Feature", "properties": { "source_tile": "K-35-053-3_Elenovo_x336_y336.png" }, "geometry": { "type": "Point", "coordinates": [ 26.033983, 42.471411 ] } },
{ "type": "Feature", "properties": { "source_tile": "K-35-053-3_Elenovo_x3696_y2016.png" }, "geometry": { "type": "Point", "coordinates": [ 26.229993, 42.408246 ] } },
{ "type": "Feature", "properties": { "source_tile": "K-35-053-3_Elenovo_x3696_y2352.png" }, "geometry": { "type": "Point", "coordinates": [ 26.227384, 42.392534 ] } },
{ "type": "Feature", "properties": { "source_tile": "K-35-053-3_Elenovo_x3696_y2352.png" }, "geometry": { "type": "Point", "coordinates": [ 26.231141, 42.390197 ] } },
{ "type": "Feature", "properties": { "source_tile": "K-35-053-3_Elenovo_x3696_y2352.png" }, "geometry": { "type": "Point", "coordinates": [ 26.241806, 42.391907 ] } },
{ "type": "Feature", "properties": { "source_tile": "K-35-053-3_Elenovo_x3696_y2352.png" }, "geometry": { "type": "Point", "coordinates": [ 26.245159, 42.390555 ] } },
{ "type": "Feature", "properties": { "source_tile": "K-35-053-3_Elenovo_x3696_y2352.png" }, "geometry": { "type": "Point", "coordinates": [ 26.236245, 42.381785 ] } },
{ "type": "Feature", "properties": { "source_tile": "K-35-053-3_Elenovo_x3696_y2352.png" }, "geometry": { "type": "Point", "coordinates": [ 26.231949, 42.384569 ] } },
{ "type": "Feature", "properties": { "source_tile": "K-35-053-3_Elenovo_x3696_y2688.png" }, "geometry": { "type": "Point", "coordinates": [ 26.228757, 42.372498 ] } },
{ "type": "Feature", "properties": { "source_tile": "K-35-053-3_Elenovo_x3696_y2688.png" }, "geometry": { "type": "Point", "coordinates": [ 26.232931, 42.370116 ] } },
{ "type": "Feature", "properties": { "source_tile": "K-35-053-3_Elenovo_x3696_y2688.png" }, "geometry": { "type": "Point", "coordinates": [ 26.233431, 42.368794 ] } },
{ "type": "Feature", "properties": { "source_tile": "K-35-053-3_Elenovo_x3696_y2688.png" }, "geometry": { "type": "Point", "coordinates": [ 26.237588, 42.372714 ] } },
{ "type": "Feature", "properties": { "source_tile": "K-35-053-3_Elenovo_x3696_y2688.png" }, "geometry": { "type": "Point", "coordinates": [ 26.240833, 42.368198 ] } },
{ "type": "Feature", "properties": { "source_tile": "K-35-053-3_Elenovo_x3696_y2688.png" }, "geometry": { "type": "Point", "coordinates": [ 26.227114, 42.363794 ] } },
{ "type": "Feature", "properties": { "source_tile": "K-35-053-3_Elenovo_x3696_y3024.png" }, "geometry": { "type": "Point", "coordinates": [ 26.23963, 42.359117 ] } },
{ "type": "Feature", "properties": { "source_tile": "K-35-053-3_Elenovo_x3696_y3024.png" }, "geometry": { "type": "Point", "coordinates": [ 26.243123, 42.362959 ] } },
{ "type": "Feature", "properties": { "source_tile": "K-35-053-3_Elenovo_x3696_y3024.png" }, "geometry": { "type": "Point", "coordinates": [ 26.242315, 42.35089 ] } },
{ "type": "Feature", "properties": { "source_tile": "K-35-053-3_Elenovo_x3696_y3024.png" }, "geometry": { "type": "Point", "coordinates": [ 26.24339, 42.351463 ] } },
{ "type": "Feature", "properties": { "source_tile": "K-35-053-3_Elenovo_x3696_y3024.png" }, "geometry": { "type": "Point", "coordinates": [ 26.242883, 42.350245 ] } },
{ "type": "Feature", "properties": { "source_tile": "K-35-053-3_Elenovo_x3696_y336.png" }, "geometry": { "type": "Point", "coordinates": [ 26.225672, 42.481798 ] } },
{ "type": "Feature", "properties": { "source_tile": "K-35-053-3_Elenovo_x3696_y3360.png" }, "geometry": { "type": "Point", "coordinates": [ 26.240457, 42.347165 ] } },
{ "type": "Feature", "properties": { "source_tile": "K-35-053-3_Elenovo_x3696_y672.png" }, "geometry": { "type": "Point", "coordinates": [ 26.233841, 42.465037 ] } },
{ "type": "Feature", "properties": { "source_tile": "K-35-053-3_Elenovo_x4032_y1680.png" }, "geometry": { "type": "Point", "coordinates": [ 26.246787, 42.411379 ] } },
{ "type": "Feature", "properties": { "source_tile": "K-35-053-3_Elenovo_x4032_y2016.png" }, "geometry": { "type": "Point", "coordinates": [ 26.247789, 42.409776 ] } },
{ "type": "Feature", "properties": { "source_tile": "K-35-053-3_Elenovo_x4032_y2016.png" }, "geometry": { "type": "Point", "coordinates": [ 26.248151, 42.405994 ] } },
{ "type": "Feature", "properties": { "source_tile": "K-35-053-3_Elenovo_x4032_y3024.png" }, "geometry": { "type": "Point", "coordinates": [ 26.245548, 42.35876 ] } },
{ "type": "Feature", "properties": { "source_tile": "K-35-053-3_Elenovo_x4032_y3024.png" }, "geometry": { "type": "Point", "coordinates": [ 26.247088, 42.351323 ] } },
{ "type": "Feature", "properties": { "source_tile": "K-35-053-3_Elenovo_x672_y0.png" }, "geometry": { "type": "Point", "coordinates": [ 26.041762, 42.496167 ] } },
{ "type": "Feature", "properties": { "source_tile": "K-35-053-3_Elenovo_x672_y0.png" }, "geometry": { "type": "Point", "coordinates": [ 26.049539, 42.486246 ] } },
{ "type": "Feature", "properties": { "source_tile": "K-35-053-3_Elenovo_x672_y0.png" }, "geometry": { "type": "Point", "coordinates": [ 26.054217, 42.484243 ] } },
{ "type": "Feature", "properties": { "source_tile": "K-35-053-3_Elenovo_x672_y2016.png" }, "geometry": { "type": "Point", "coordinates": [ 26.0507, 42.401026 ] } },
{ "type": "Feature", "properties": { "source_tile": "K-35-053-3_Elenovo_x672_y2016.png" }, "geometry": { "type": "Point", "coordinates": [ 26.045002, 42.392657 ] } },
{ "type": "Feature", "properties": { "source_tile": "K-35-053-3_Elenovo_x672_y2016.png" }, "geometry": { "type": "Point", "coordinates": [ 26.043255, 42.405537 ] } },
{ "type": "Feature", "properties": { "source_tile": "K-35-053-3_Elenovo_x672_y2352.png" }, "geometry": { "type": "Point", "coordinates": [ 26.052107, 42.391035 ] } },
{ "type": "Feature", "properties": { "source_tile": "K-35-053-3_Elenovo_x672_y2352.png" }, "geometry": { "type": "Point", "coordinates": [ 26.050366, 42.390653 ] } },
{ "type": "Feature", "properties": { "source_tile": "K-35-053-3_Elenovo_x672_y2352.png" }, "geometry": { "type": "Point", "coordinates": [ 26.048265, 42.388538 ] } },
{ "type": "Feature", "properties": { "source_tile": "K-35-053-3_Elenovo_x672_y2352.png" }, "geometry": { "type": "Point", "coordinates": [ 26.047417, 42.388572 ] } },
{ "type": "Feature", "properties": { "source_tile": "K-35-053-3_Elenovo_x672_y2688.png" }, "geometry": { "type": "Point", "coordinates": [ 26.058831, 42.372877 ] } },
{ "type": "Feature", "properties": { "source_tile": "K-35-053-3_Elenovo_x672_y3024.png" }, "geometry": { "type": "Point", "coordinates": [ 26.042112, 42.358291 ] } },
{ "type": "Feature", "properties": { "source_tile": "K-35-053-3_Elenovo_x672_y336.png" }, "geometry": { "type": "Point", "coordinates": [ 26.052771, 42.477373 ] } },
{ "type": "Feature", "properties": { "source_tile": "K-35-053-3_Elenovo_x672_y336.png" }, "geometry": { "type": "Point", "coordinates": [ 26.048196, 42.473534 ] } },
{ "type": "Feature", "properties": { "source_tile": "K-35-053-3_Elenovo_x672_y672.png" }, "geometry": { "type": "Point", "coordinates": [ 26.043927, 42.454331 ] } },
{ "type": "Feature", "properties": { "source_tile": "K-35-062-2_Rakovski_x0_y0.png" }, "geometry": { "type": "Point", "coordinates": [ 24.749023, 42.322656 ] } },
{ "type": "Feature", "properties": { "source_tile": "K-35-062-2_Rakovski_x0_y1008.png" }, "geometry": { "type": "Point", "coordinates": [ 24.762003, 42.283127 ] } },
{ "type": "Feature", "properties": { "source_tile": "K-35-062-2_Rakovski_x0_y1008.png" }, "geometry": { "type": "Point", "coordinates": [ 24.759761, 42.271802 ] } },
{ "type": "Feature", "properties": { "source_tile": "K-35-062-2_Rakovski_x0_y1344.png" }, "geometry": { "type": "Point", "coordinates": [ 24.765816, 42.270023 ] } },
{ "type": "Feature", "properties": { "source_tile": "K-35-062-2_Rakovski_x0_y1344.png" }, "geometry": { "type": "Point", "coordinates": [ 24.763423, 42.261239 ] } },
{ "type": "Feature", "properties": { "source_tile": "K-35-062-2_Rakovski_x0_y1344.png" }, "geometry": { "type": "Point", "coordinates": [ 24.764328, 42.261891 ] } },
{ "type": "Feature", "properties": { "source_tile": "K-35-062-2_Rakovski_x0_y1344.png" }, "geometry": { "type": "Point", "coordinates": [ 24.751283, 42.258248 ] } },
{ "type": "Feature", "properties": { "source_tile": "K-35-062-2_Rakovski_x0_y2352.png" }, "geometry": { "type": "Point", "coordinates": [ 24.768536, 42.220798 ] } },
{ "type": "Feature", "properties": { "source_tile": "K-35-062-2_Rakovski_x0_y2352.png" }, "geometry": { "type": "Point", "coordinates": [ 24.767631, 42.223777 ] } },
{ "type": "Feature", "properties": { "source_tile": "K-35-062-2_Rakovski_x0_y2352.png" }, "geometry": { "type": "Point", "coordinates": [ 24.76489, 42.226607 ] } },
{ "type": "Feature", "properties": { "source_tile": "K-35-062-2_Rakovski_x0_y2352.png" }, "geometry": { "type": "Point", "coordinates": [ 24.761183, 42.225882 ] } },
{ "type": "Feature", "properties": { "source_tile": "K-35-062-2_Rakovski_x0_y2352.png" }, "geometry": { "type": "Point", "coordinates": [ 24.750689, 42.216011 ] } },
{ "type": "Feature", "properties": { "source_tile": "K-35-062-2_Rakovski_x0_y2352.png" }, "geometry": { "type": "Point", "coordinates": [ 24.748755, 42.213285 ] } },
{ "type": "Feature", "properties": { "source_tile": "K-35-062-2_Rakovski_x0_y336.png" }, "geometry": { "type": "Point", "coordinates": [ 24.760083, 42.301876 ] } },
{ "type": "Feature", "properties": { "source_tile": "K-35-062-2_Rakovski_x0_y672.png" }, "geometry": { "type": "Point", "coordinates": [ 24.762036, 42.289914 ] } },
{ "type": "Feature", "properties": { "source_tile": "K-35-062-2_Rakovski_x1008_y0.png" }, "geometry": { "type": "Point", "coordinates": [ 24.81392, 42.320836 ] } },
{ "type": "Feature", "properties": { "source_tile": "K-35-062-2_Rakovski_x1008_y1008.png" }, "geometry": { "type": "Point", "coordinates": [ 24.823732, 42.273853 ] } },
{ "type": "Feature", "properties": { "source_tile": "K-35-062-2_Rakovski_x1008_y1008.png" }, "geometry": { "type": "Point", "coordinates": [ 24.824213, 42.272813 ] } },
{ "type": "Feature", "properties": { "source_tile": "K-35-062-2_Rakovski_x1008_y1008.png" }, "geometry": { "type": "Point", "coordinates": [ 24.825573, 42.271727 ] } },
{ "type": "Feature", "properties": { "source_tile": "K-35-062-2_Rakovski_x1008_y1344.png" }, "geometry": { "type": "Point", "coordinates": [ 24.82571, 42.271555 ] } },
{ "type": "Feature", "properties": { "source_tile": "K-35-062-2_Rakovski_x1008_y1680.png" }, "geometry": { "type": "Point", "coordinates": [ 24.823265, 42.250987 ] } },
{ "type": "Feature", "properties": { "source_tile": "K-35-062-2_Rakovski_x1008_y336.png" }, "geometry": { "type": "Point", "coordinates": [ 24.810808, 42.316211 ] } },
{ "type": "Feature", "properties": { "source_tile": "K-35-062-2_Rakovski_x1008_y336.png" }, "geometry": { "type": "Point", "coordinates": [ 24.805919, 42.312557 ] } },
{ "type": "Feature", "properties": { "source_tile": "K-35-062-2_Rakovski_x1008_y336.png" }, "geometry": { "type": "Point", "coordinates": [ 24.816165, 42.313397 ] } },
{ "type": "Feature", "properties": { "source_tile": "K-35-062-2_Rakovski_x1008_y336.png" }, "geometry": { "type": "Point", "coordinates": [ 24.810529, 42.311119 ] } },
{ "type": "Feature", "properties": { "source_tile": "K-35-062-2_Rakovski_x1008_y336.png" }, "geometry": { "type": "Point", "coordinates": [ 24.823659, 42.307895 ] } },
{ "type": "Feature", "properties": { "source_tile": "K-35-062-2_Rakovski_x1008_y336.png" }, "geometry": { "type": "Point", "coordinates": [ 24.819665, 42.306669 ] } },
{ "type": "Feature", "properties": { "source_tile": "K-35-062-2_Rakovski_x1008_y336.png" }, "geometry": { "type": "Point", "coordinates": [ 24.824736, 42.309088 ] } },
{ "type": "Feature", "properties": { "source_tile": "K-35-062-2_Rakovski_x1008_y336.png" }, "geometry": { "type": "Point", "coordinates": [ 24.811066, 42.304635 ] } },
{ "type": "Feature", "properties": { "source_tile": "K-35-062-2_Rakovski_x1008_y672.png" }, "geometry": { "type": "Point", "coordinates": [ 24.815588, 42.289022 ] } },
{ "type": "Feature", "properties": { "source_tile": "K-35-062-2_Rakovski_x1344_y0.png" }, "geometry": { "type": "Point", "coordinates": [ 24.846222, 42.327521 ] } },
{ "type": "Feature", "properties": { "source_tile": "K-35-062-2_Rakovski_x1344_y0.png" }, "geometry": { "type": "Point", "coordinates": [ 24.844482, 42.320454 ] } },
{ "type": "Feature", "properties": { "source_tile": "K-35-062-2_Rakovski_x1344_y0.png" }, "geometry": { "type": "Point", "coordinates": [ 24.82904, 42.318121 ] } },
{ "type": "Feature", "properties": { "source_tile": "K-35-062-2_Rakovski_x1344_y1008.png" }, "geometry": { "type": "Point", "coordinates": [ 24.847134, 42.280786 ] } },
{ "type": "Feature", "properties": { "source_tile": "K-35-062-2_Rakovski_x1344_y1008.png" }, "geometry": { "type": "Point", "coordinates": [ 24.848091, 42.280062 ] } },
{ "type": "Feature", "properties": { "source_tile": "K-35-062-2_Rakovski_x1344_y1344.png" }, "geometry": { "type": "Point", "coordinates": [ 24.8424, 42.27178 ] } },
{ "type": "Feature", "properties": { "source_tile": "K-35-062-2_Rakovski_x1344_y1344.png" }, "geometry": { "type": "Point", "coordinates": [ 24.834513, 42.26591 ] } },
{ "type": "Feature", "properties": { "source_tile": "K-35-062-2_Rakovski_x1344_y1680.png" }, "geometry": { "type": "Point", "coordinates": [ 24.831854, 42.241815 ] } },
{ "type": "Feature", "properties": { "source_tile": "K-35-062-2_Rakovski_x1344_y336.png" }, "geometry": { "type": "Point", "coordinates": [ 24.833545, 42.315254 ] } },
{ "type": "Feature", "properties": { "source_tile": "K-35-062-2_Rakovski_x1344_y336.png" }, "geometry": { "type": "Point", "coordinates": [ 24.833598, 42.312072 ] } },
{ "type": "Feature", "properties": { "source_tile": "K-35-062-2_Rakovski_x1344_y336.png" }, "geometry": { "type": "Point", "coordinates": [ 24.841149, 42.312198 ] } },
{ "type": "Feature", "properties": { "source_tile": "K-35-062-2_Rakovski_x1344_y336.png" }, "geometry": { "type": "Point", "coordinates": [ 24.841841, 42.312706 ] } },
{ "type": "Feature", "properties": { "source_tile": "K-35-062-2_Rakovski_x1344_y336.png" }, "geometry": { "type": "Point", "coordinates": [ 24.8478, 42.308691 ] } },
{ "type": "Feature", "properties": { "source_tile": "K-35-062-2_Rakovski_x1344_y336.png" }, "geometry": { "type": "Point", "coordinates": [ 24.843066, 42.305931 ] } },
{ "type": "Feature", "properties": { "source_tile": "K-35-062-2_Rakovski_x1680_y0.png" }, "geometry": { "type": "Point", "coordinates": [ 24.849127, 42.326616 ] } },
{ "type": "Feature", "properties": { "source_tile": "K-35-062-2_Rakovski_x1680_y0.png" }, "geometry": { "type": "Point", "coordinates": [ 24.852223, 42.326191 ] } },
{ "type": "Feature", "properties": { "source_tile": "K-35-062-2_Rakovski_x1680_y0.png" }, "geometry": { "type": "Point", "coordinates": [ 24.848483, 42.321434 ] } },
{ "type": "Feature", "properties": { "source_tile": "K-35-062-2_Rakovski_x1680_y1008.png" }, "geometry": { "type": "Point", "coordinates": [ 24.859654, 42.280656 ] } },
{ "type": "Feature", "properties": { "source_tile": "K-35-062-2_Rakovski_x1680_y1680.png" }, "geometry": { "type": "Point", "coordinates": [ 24.86601, 42.246609 ] } },
{ "type": "Feature", "properties": { "source_tile": "K-35-062-2_Rakovski_x1680_y2016.png" }, "geometry": { "type": "Point", "coordinates": [ 24.859992, 42.237368 ] } },
{ "type": "Feature", "properties": { "source_tile": "K-35-062-2_Rakovski_x1680_y336.png" }, "geometry": { "type": "Point", "coordinates": [ 24.849927, 42.314837 ] } },
{ "type": "Feature", "properties": { "source_tile": "K-35-062-2_Rakovski_x1680_y336.png" }, "geometry": { "type": "Point", "coordinates": [ 24.855992, 42.311307 ] } },
{ "type": "Feature", "properties": { "source_tile": "K-35-062-2_Rakovski_x1680_y336.png" }, "geometry": { "type": "Point", "coordinates": [ 24.854727, 42.303392 ] } },
{ "type": "Feature", "properties": { "source_tile": "K-35-062-2_Rakovski_x1680_y336.png" }, "geometry": { "type": "Point", "coordinates": [ 24.868824, 42.304665 ] } },
{ "type": "Feature", "properties": { "source_tile": "K-35-062-2_Rakovski_x1680_y672.png" }, "geometry": { "type": "Point", "coordinates": [ 24.85569, 42.30012 ] } },
{ "type": "Feature", "properties": { "source_tile": "K-35-062-2_Rakovski_x1680_y672.png" }, "geometry": { "type": "Point", "coordinates": [ 24.865571, 42.299878 ] } },
{ "type": "Feature", "properties": { "source_tile": "K-35-062-2_Rakovski_x1680_y672.png" }, "geometry": { "type": "Point", "coordinates": [ 24.866912, 42.298792 ] } },
{ "type": "Feature", "properties": { "source_tile": "K-35-062-2_Rakovski_x1680_y336.png" }, "geometry": { "type": "Point", "coordinates": [ 24.86636, 42.302786 ] } },
{ "type": "Feature", "properties": { "source_tile": "K-35-062-2_Rakovski_x2016_y0.png" }, "geometry": { "type": "Point", "coordinates": [ 24.868933, 42.325687 ] } },
{ "type": "Feature", "properties": { "source_tile": "K-35-062-2_Rakovski_x2016_y0.png" }, "geometry": { "type": "Point", "coordinates": [ 24.873103, 42.323294 ] } },
{ "type": "Feature", "properties": { "source_tile": "K-35-062-2_Rakovski_x2016_y0.png" }, "geometry": { "type": "Point", "coordinates": [ 24.872575, 42.321479 ] } },
{ "type": "Feature", "properties": { "source_tile": "K-35-062-2_Rakovski_x2016_y0.png" }, "geometry": { "type": "Point", "coordinates": [ 24.88094, 42.318987 ] } },
{ "type": "Feature", "properties": { "source_tile": "K-35-062-2_Rakovski_x2016_y1008.png" }, "geometry": { "type": "Point", "coordinates": [ 24.875052, 42.278519 ] } },
{ "type": "Feature", "properties": { "source_tile": "K-35-062-2_Rakovski_x2016_y2016.png" }, "geometry": { "type": "Point", "coordinates": [ 24.871135, 42.23974 ] } },
{ "type": "Feature", "properties": { "source_tile": "K-35-062-2_Rakovski_x2016_y2352.png" }, "geometry": { "type": "Point", "coordinates": [ 24.882945, 42.226777 ] } },
{ "type": "Feature", "properties": { "source_tile": "K-35-062-2_Rakovski_x2016_y336.png" }, "geometry": { "type": "Point", "coordinates": [ 24.871006, 42.306448 ] } },
{ "type": "Feature", "properties": { "source_tile": "K-35-062-2_Rakovski_x2352_y1344.png" }, "geometry": { "type": "Point", "coordinates": [ 24.904332, 42.258061 ] } },
{ "type": "Feature", "properties": { "source_tile": "K-35-062-2_Rakovski_x2352_y2016.png" }, "geometry": { "type": "Point", "coordinates": [ 24.897073, 42.234605 ] } },
{ "type": "Feature", "properties": { "source_tile": "K-35-062-2_Rakovski_x2352_y2016.png" }, "geometry": { "type": "Point", "coordinates": [ 24.901964, 42.231593 ] } },
{ "type": "Feature", "properties": { "source_tile": "K-35-062-2_Rakovski_x2352_y2016.png" }, "geometry": { "type": "Point", "coordinates": [ 24.892529, 42.227603 ] } },
{ "type": "Feature", "properties": { "source_tile": "K-35-062-2_Rakovski_x2352_y2352.png" }, "geometry": { "type": "Point", "coordinates": [ 24.892414, 42.221 ] } },
{ "type": "Feature", "properties": { "source_tile": "K-35-062-2_Rakovski_x2352_y2688.png" }, "geometry": { "type": "Point", "coordinates": [ 24.901571, 42.205834 ] } },
{ "type": "Feature", "properties": { "source_tile": "K-35-062-2_Rakovski_x2352_y2688.png" }, "geometry": { "type": "Point", "coordinates": [ 24.898285, 42.203224 ] } },
{ "type": "Feature", "properties": { "source_tile": "K-35-062-2_Rakovski_x2352_y2688.png" }, "geometry": { "type": "Point", "coordinates": [ 24.907221, 42.202848 ] } },
{ "type": "Feature", "properties": { "source_tile": "K-35-062-2_Rakovski_x2352_y3024.png" }, "geometry": { "type": "Point", "coordinates": [ 24.902931, 42.182823 ] } },
{ "type": "Feature", "properties": { "source_tile": "K-35-062-2_Rakovski_x2688_y0.png" }, "geometry": { "type": "Point", "coordinates": [ 24.918763, 42.327233 ] } },
{ "type": "Feature", "properties": { "source_tile": "K-35-062-2_Rakovski_x2688_y0.png" }, "geometry": { "type": "Point", "coordinates": [ 24.912033, 42.321918 ] } },
{ "type": "Feature", "properties": { "source_tile": "K-35-062-2_Rakovski_x2688_y0.png" }, "geometry": { "type": "Point", "coordinates": [ 24.926752, 42.328581 ] } },
{ "type": "Feature", "properties": { "source_tile": "K-35-062-2_Rakovski_x2688_y0.png" }, "geometry": { "type": "Point", "coordinates": [ 24.928062, 42.331928 ] } },
{ "type": "Feature", "properties": { "source_tile": "K-35-062-2_Rakovski_x2688_y0.png" }, "geometry": { "type": "Point", "coordinates": [ 24.928535, 42.319687 ] } },
{ "type": "Feature", "properties": { "source_tile": "K-35-062-2_Rakovski_x2688_y1344.png" }, "geometry": { "type": "Point", "coordinates": [ 24.920379, 42.268447 ] } },
{ "type": "Feature", "properties": { "source_tile": "K-35-062-2_Rakovski_x2688_y1344.png" }, "geometry": { "type": "Point", "coordinates": [ 24.915564, 42.267637 ] } },
{ "type": "Feature", "properties": { "source_tile": "K-35-062-2_Rakovski_x2688_y1344.png" }, "geometry": { "type": "Point", "coordinates": [ 24.917926, 42.263725 ] } },
{ "type": "Feature", "properties": { "source_tile": "K-35-062-2_Rakovski_x2688_y1680.png" }, "geometry": { "type": "Point", "coordinates": [ 24.931299, 42.247877 ] } },
{ "type": "Feature", "properties": { "source_tile": "K-35-062-2_Rakovski_x2688_y2688.png" }, "geometry": { "type": "Point", "coordinates": [ 24.926498, 42.204687 ] } },
{ "type": "Feature", "properties": { "source_tile": "K-35-062-2_Rakovski_x2688_y2688.png" }, "geometry": { "type": "Point", "coordinates": [ 24.931103, 42.200874 ] } },
{ "type": "Feature", "properties": { "source_tile": "K-35-062-2_Rakovski_x2688_y3024.png" }, "geometry": { "type": "Point", "coordinates": [ 24.927494, 42.197303 ] } },
{ "type": "Feature", "properties": { "source_tile": "K-35-062-2_Rakovski_x2688_y336.png" }, "geometry": { "type": "Point", "coordinates": [ 24.929669, 42.311711 ] } },
{ "type": "Feature", "properties": { "source_tile": "K-35-062-2_Rakovski_x2688_y336.png" }, "geometry": { "type": "Point", "coordinates": [ 24.921705, 42.317124 ] } },
{ "type": "Feature", "properties": { "source_tile": "K-35-062-2_Rakovski_x2688_y336.png" }, "geometry": { "type": "Point", "coordinates": [ 24.91706, 42.316479 ] } },
{ "type": "Feature", "properties": { "source_tile": "K-35-062-2_Rakovski_x2688_y336.png" }, "geometry": { "type": "Point", "coordinates": [ 24.916523, 42.312527 ] } },
{ "type": "Feature", "properties": { "source_tile": "K-35-062-2_Rakovski_x2688_y336.png" }, "geometry": { "type": "Point", "coordinates": [ 24.921532, 42.311383 ] } },
{ "type": "Feature", "properties": { "source_tile": "K-35-062-2_Rakovski_x2688_y3360.png" }, "geometry": { "type": "Point", "coordinates": [ 24.926013, 42.174842 ] } },
{ "type": "Feature", "properties": { "source_tile": "K-35-062-2_Rakovski_x3024_y0.png" }, "geometry": { "type": "Point", "coordinates": [ 24.936745, 42.332243 ] } },
{ "type": "Feature", "properties": { "source_tile": "K-35-062-2_Rakovski_x3024_y0.png" }, "geometry": { "type": "Point", "coordinates": [ 24.934351, 42.330301 ] } },
{ "type": "Feature", "properties": { "source_tile": "K-35-062-2_Rakovski_x3024_y0.png" }, "geometry": { "type": "Point", "coordinates": [ 24.937255, 42.326502 ] } },
{ "type": "Feature", "properties": { "source_tile": "K-35-062-2_Rakovski_x3024_y0.png" }, "geometry": { "type": "Point", "coordinates": [ 24.930898, 42.323074 ] } },
{ "type": "Feature", "properties": { "source_tile": "K-35-062-2_Rakovski_x3024_y1008.png" }, "geometry": { "type": "Point", "coordinates": [ 24.940227, 42.286241 ] } },
{ "type": "Feature", "properties": { "source_tile": "K-35-062-2_Rakovski_x3024_y1680.png" }, "geometry": { "type": "Point", "coordinates": [ 24.943429, 42.249752 ] } },
{ "type": "Feature", "properties": { "source_tile": "K-35-062-2_Rakovski_x3024_y1680.png" }, "geometry": { "type": "Point", "coordinates": [ 24.950687, 42.244505 ] } },
{ "type": "Feature", "properties": { "source_tile": "K-35-062-2_Rakovski_x3024_y336.png" }, "geometry": { "type": "Point", "coordinates": [ 24.943635, 42.316734 ] } },
{ "type": "Feature", "properties": { "source_tile": "K-35-062-2_Rakovski_x3024_y336.png" }, "geometry": { "type": "Point", "coordinates": [ 24.945624, 42.316853 ] } },
{ "type": "Feature", "properties": { "source_tile": "K-35-062-2_Rakovski_x3024_y336.png" }, "geometry": { "type": "Point", "coordinates": [ 24.945454, 42.316098 ] } },
{ "type": "Feature", "properties": { "source_tile": "K-35-062-2_Rakovski_x3024_y3360.png" }, "geometry": { "type": "Point", "coordinates": [ 24.938662, 42.174602 ] } },
{ "type": "Feature", "properties": { "source_tile": "K-35-062-2_Rakovski_x3024_y3360.png" }, "geometry": { "type": "Point", "coordinates": [ 24.942285, 42.171614 ] } },
{ "type": "Feature", "properties": { "source_tile": "K-35-062-2_Rakovski_x3024_y672.png" }, "geometry": { "type": "Point", "coordinates": [ 24.937734, 42.296683 ] } },
{ "type": "Feature", "properties": { "source_tile": "K-35-062-2_Rakovski_x3360_y1344.png" }, "geometry": { "type": "Point", "coordinates": [ 24.965121, 42.261339 ] } },
{ "type": "Feature", "properties": { "source_tile": "K-35-062-2_Rakovski_x3360_y1344.png" }, "geometry": { "type": "Point", "coordinates": [ 24.972229, 42.270427 ] } },
{ "type": "Feature", "properties": { "source_tile": "K-35-062-2_Rakovski_x3360_y1680.png" }, "geometry": { "type": "Point", "coordinates": [ 24.970726, 42.253337 ] } },
{ "type": "Feature", "properties": { "source_tile": "K-35-062-2_Rakovski_x3360_y1680.png" }, "geometry": { "type": "Point", "coordinates": [ 24.955896, 42.249569 ] } },
{ "type": "Feature", "properties": { "source_tile": "K-35-062-2_Rakovski_x3360_y2352.png" }, "geometry": { "type": "Point", "coordinates": [ 24.969726, 42.216242 ] } },
{ "type": "Feature", "properties": { "source_tile": "K-35-062-2_Rakovski_x3360_y2352.png" }, "geometry": { "type": "Point", "coordinates": [ 24.971008, 42.215924 ] } },
{ "type": "Feature", "properties": { "source_tile": "K-35-062-2_Rakovski_x336_y0.png" }, "geometry": { "type": "Point", "coordinates": [ 24.776792, 42.32913 ] } },
{ "type": "Feature", "properties": { "source_tile": "K-35-062-2_Rakovski_x336_y0.png" }, "geometry": { "type": "Point", "coordinates": [ 24.777409, 42.33238 ] } },
{ "type": "Feature", "properties": { "source_tile": "K-35-062-2_Rakovski_x336_y0.png" }, "geometry": { "type": "Point", "coordinates": [ 24.780576, 42.332494 ] } },
{ "type": "Feature", "properties": { "source_tile": "K-35-062-2_Rakovski_x336_y1008.png" }, "geometry": { "type": "Point", "coordinates": [ 24.778006, 42.279738 ] } },
{ "type": "Feature", "properties": { "source_tile": "K-35-062-2_Rakovski_x336_y1008.png" }, "geometry": { "type": "Point", "coordinates": [ 24.771359, 42.27827 ] } },
{ "type": "Feature", "properties": { "source_tile": "K-35-062-2_Rakovski_x336_y1008.png" }, "geometry": { "type": "Point", "coordinates": [ 24.769088, 42.27492 ] } },
{ "type": "Feature", "properties": { "source_tile": "K-35-062-2_Rakovski_x336_y1344.png" }, "geometry": { "type": "Point", "coordinates": [ 24.77349, 42.266696 ] } },
{ "type": "Feature", "properties": { "source_tile": "K-35-062-2_Rakovski_x336_y1344.png" }, "geometry": { "type": "Point", "coordinates": [ 24.77814, 42.267385 ] } },
{ "type": "Feature", "properties": { "source_tile": "K-35-062-2_Rakovski_x336_y1344.png" }, "geometry": { "type": "Point", "coordinates": [ 24.779845, 42.268005 ] } },
{ "type": "Feature", "properties": { "source_tile": "K-35-062-2_Rakovski_x336_y1344.png" }, "geometry": { "type": "Point", "coordinates": [ 24.77788, 42.263247 ] } },
{ "type": "Feature", "properties": { "source_tile": "K-35-062-2_Rakovski_x336_y1344.png" }, "geometry": { "type": "Point", "coordinates": [ 24.775084, 42.256748 ] } },
{ "type": "Feature", "properties": { "source_tile": "K-35-062-2_Rakovski_x336_y1344.png" }, "geometry": { "type": "Point", "coordinates": [ 24.771067, 42.255821 ] } },
{ "type": "Feature", "properties": { "source_tile": "K-35-062-2_Rakovski_x336_y336.png" }, "geometry": { "type": "Point", "coordinates": [ 24.775315, 42.305995 ] } },
{ "type": "Feature", "properties": { "source_tile": "K-35-062-2_Rakovski_x336_y336.png" }, "geometry": { "type": "Point", "coordinates": [ 24.770734, 42.301921 ] } },
{ "type": "Feature", "properties": { "source_tile": "K-35-062-2_Rakovski_x336_y672.png" }, "geometry": { "type": "Point", "coordinates": [ 24.770355, 42.30071 ] } },
{ "type": "Feature", "properties": { "source_tile": "K-35-062-2_Rakovski_x3696_y0.png" }, "geometry": { "type": "Point", "coordinates": [ 24.98425, 42.327957 ] } },
{ "type": "Feature", "properties": { "source_tile": "K-35-062-2_Rakovski_x3696_y1008.png" }, "geometry": { "type": "Point", "coordinates": [ 24.983753, 42.287371 ] } },
{ "type": "Feature", "properties": { "source_tile": "K-35-062-2_Rakovski_x3696_y1008.png" }, "geometry": { "type": "Point", "coordinates": [ 24.975995, 42.290581 ] } },
{ "type": "Feature", "properties": { "source_tile": "K-35-062-2_Rakovski_x3696_y1008.png" }, "geometry": { "type": "Point", "coordinates": [ 24.984958, 42.282219 ] } },
{ "type": "Feature", "properties": { "source_tile": "K-35-062-2_Rakovski_x3696_y1008.png" }, "geometry": { "type": "Point", "coordinates": [ 24.989953, 42.278682 ] } },
{ "type": "Feature", "properties": { "source_tile": "K-35-062-2_Rakovski_x3696_y1008.png" }, "geometry": { "type": "Point", "coordinates": [ 24.983013, 42.274939 ] } },
{ "type": "Feature", "properties": { "source_tile": "K-35-062-2_Rakovski_x3696_y1680.png" }, "geometry": { "type": "Point", "coordinates": [ 24.982368, 42.252574 ] } },
{ "type": "Feature", "properties": { "source_tile": "K-35-062-2_Rakovski_x3696_y2016.png" }, "geometry": { "type": "Point", "coordinates": [ 24.983752, 42.24202 ] } },
{ "type": "Feature", "properties": { "source_tile": "K-35-062-2_Rakovski_x3696_y2016.png" }, "geometry": { "type": "Point", "coordinates": [ 24.986989, 42.241852 ] } },
{ "type": "Feature", "properties": { "source_tile": "K-35-062-2_Rakovski_x3696_y2352.png" }, "geometry": { "type": "Point", "coordinates": [ 24.976187, 42.222063 ] } },
{ "type": "Feature", "properties": { "source_tile": "K-35-062-2_Rakovski_x3696_y2688.png" }, "geometry": { "type": "Point", "coordinates": [ 24.990625, 42.209165 ] } },
{ "type": "Feature", "properties": { "source_tile": "K-35-062-2_Rakovski_x3696_y336.png" }, "geometry": { "type": "Point", "coordinates": [ 24.978432, 42.317914 ] } },
{ "type": "Feature", "properties": { "source_tile": "K-35-062-2_Rakovski_x3696_y336.png" }, "geometry": { "type": "Point", "coordinates": [ 24.983999, 42.316814 ] } },
{ "type": "Feature", "properties": { "source_tile": "K-35-062-2_Rakovski_x3696_y3360.png" }, "geometry": { "type": "Point", "coordinates": [ 24.975708, 42.179017 ] } },
{ "type": "Feature", "properties": { "source_tile": "K-35-062-2_Rakovski_x3696_y3360.png" }, "geometry": { "type": "Point", "coordinates": [ 24.995016, 42.169161 ] } },
{ "type": "Feature", "properties": { "source_tile": "K-35-062-2_Rakovski_x4032_y1008.png" }, "geometry": { "type": "Point", "coordinates": [ 24.990145, 42.276928 ] } },
{ "type": "Feature", "properties": { "source_tile": "K-35-062-2_Rakovski_x4032_y3024.png" }, "geometry": { "type": "Point", "coordinates": [ 24.997289, 42.187675 ] } },
{ "type": "Feature", "properties": { "source_tile": "K-35-062-2_Rakovski_x4032_y3360.png" }, "geometry": { "type": "Point", "coordinates": [ 24.997786, 42.170751 ] } },
{ "type": "Feature", "properties": { "source_tile": "K-35-062-2_Rakovski_x4032_y672.png" }, "geometry": { "type": "Point", "coordinates": [ 24.99497, 42.303029 ] } },
{ "type": "Feature", "properties": { "source_tile": "K-35-062-2_Rakovski_x672_y1008.png" }, "geometry": { "type": "Point", "coordinates": [ 24.788565, 42.285358 ] } },
{ "type": "Feature", "properties": { "source_tile": "K-35-062-2_Rakovski_x672_y1008.png" }, "geometry": { "type": "Point", "coordinates": [ 24.798714, 42.284333 ] } },
{ "type": "Feature", "properties": { "source_tile": "K-35-062-2_Rakovski_x672_y1008.png" }, "geometry": { "type": "Point", "coordinates": [ 24.795441, 42.27254 ] } },
{ "type": "Feature", "properties": { "source_tile": "K-35-062-2_Rakovski_x672_y1680.png" }, "geometry": { "type": "Point", "coordinates": [ 24.79121, 42.250133 ] } },
{ "type": "Feature", "properties": { "source_tile": "K-35-062-2_Rakovski_x672_y672.png" }, "geometry": { "type": "Point", "coordinates": [ 24.79076, 42.291375 ] } },
{ "type": "Feature", "properties": { "source_tile": "K-35-078-1_Lesovo_x0_y2016.png" }, "geometry": { "type": "Point", "coordinates": [ 26.517084, 41.900857 ] } },
{ "type": "Feature", "properties": { "source_tile": "K-35-078-1_Lesovo_x0_y3024.png" }, "geometry": { "type": "Point", "coordinates": [ 26.520619, 41.853014 ] } },
{ "type": "Feature", "properties": { "source_tile": "K-35-078-1_Lesovo_x0_y3360.png" }, "geometry": { "type": "Point", "coordinates": [ 26.506897, 41.842222 ] } },
{ "type": "Feature", "properties": { "source_tile": "K-35-078-1_Lesovo_x0_y3360.png" }, "geometry": { "type": "Point", "coordinates": [ 26.509494, 41.838167 ] } },
{ "type": "Feature", "properties": { "source_tile": "K-35-078-1_Lesovo_x2352_y336.png" }, "geometry": { "type": "Point", "coordinates": [ 26.659454, 41.98423 ] } },
{ "type": "Feature", "properties": { "source_tile": "K-35-078-1_Lesovo_x2352_y336.png" }, "geometry": { "type": "Point", "coordinates": [ 26.653376, 41.975744 ] } },
{ "type": "Feature", "properties": { "source_tile": "K-35-078-1_Lesovo_x2352_y336.png" }, "geometry": { "type": "Point", "coordinates": [ 26.659644, 41.975617 ] } },
{ "type": "Feature", "properties": { "source_tile": "K-35-078-1_Lesovo_x2688_y2352.png" }, "geometry": { "type": "Point", "coordinates": [ 26.666297, 41.885152 ] } },
{ "type": "Feature", "properties": { "source_tile": "K-35-078-1_Lesovo_x336_y3024.png" }, "geometry": { "type": "Point", "coordinates": [ 26.529489, 41.857924 ] } },
{ "type": "Feature", "properties": { "source_tile": "K-35-078-1_Lesovo_x336_y3360.png" }, "geometry": { "type": "Point", "coordinates": [ 26.539016, 41.841629 ] } },
{ "type": "Feature", "properties": { "source_tile": "K-35-078-1_Lesovo_x336_y3360.png" }, "geometry": { "type": "Point", "coordinates": [ 26.536972, 41.837108 ] } },
{ "type": "Feature", "properties": { "source_tile": "K-35-078-1_Lesovo_x336_y3360.png" }, "geometry": { "type": "Point", "coordinates": [ 26.536163, 41.833374 ] } },
{ "type": "Feature", "properties": { "source_tile": "K-35-078-1_Lesovo_x336_y672.png" }, "geometry": { "type": "Point", "coordinates": [ 26.529462, 41.968199 ] } },
{ "type": "Feature", "properties": { "source_tile": "K-35-078-1_Lesovo_x3696_y0.png" }, "geometry": { "type": "Point", "coordinates": [ 26.72782, 41.995909 ] } },
{ "type": "Feature", "properties": { "source_tile": "K-35-078-1_Lesovo_x4032_y336.png" }, "geometry": { "type": "Point", "coordinates": [ 26.744234, 41.977715 ] } },
{ "type": "Feature", "properties": { "source_tile": "K-35-078-1_Lesovo_x672_y1008.png" }, "geometry": { "type": "Point", "coordinates": [ 26.554336, 41.948169 ] } },
{ "type": "Feature", "properties": { "source_tile": "K-35-052-4_32635_x336_y1008.png" }, "geometry": { "type": "Point", "coordinates": [ 25.772194, 42.447176 ] } },
{ "type": "Feature", "properties": { "source_tile": "K-35-062-2_Rakovski_x2352_y1344.png" }, "geometry": { "type": "Point", "coordinates": [ 24.902609, 42.259847 ] } },
{ "type": "Feature", "properties": { "source_tile": "K-35-052-4_32635_x0_y336.png" }, "geometry": { "type": "Point", "coordinates": [ 25.764258, 42.469955 ] } },
{ "type": "Feature", "properties": { "source_tile": "K-35-052-4_32635_x672_y2352.png" }, "geometry": { "type": "Point", "coordinates": [ 25.798226, 42.388189 ] } },
{ "type": "Feature", "properties": { "source_tile": "K-35-053-3_Elenovo_x1344_y2352.png" }, "geometry": { "type": "Point", "coordinates": [ 26.100231, 42.388147 ] } },
{ "type": "Feature", "properties": { "source_tile": "K-35-062-2_Rakovski_x2352_y3360.png" }, "geometry": { "type": "Point", "coordinates": [ 24.90016, 42.174906 ] } },
{ "type": "Feature", "properties": { "source_tile": "K-35-062-2_Rakovski_x2688_y1344.png" }, "geometry": { "type": "Point", "coordinates": [ 24.92883, 42.261599 ] } },
{ "type": "Feature", "properties": { "source_tile": "K-35-062-2_Rakovski_x2688_y1344.png" }, "geometry": { "type": "Point", "coordinates": [ 24.914554, 42.267975 ] } },
{ "type": "Feature", "properties": { "source_tile": "K-35-062-2_Rakovski_x336_y1344.png" }, "geometry": { "type": "Point", "coordinates": [ 24.776102, 42.268411 ] } },
{ "type": "Feature", "properties": { "source_tile": "K-35-062-2_Rakovski_x336_y672.png" }, "geometry": { "type": "Point", "coordinates": [ 24.776501, 42.300498 ] } }
]
}
