{
  "type": "FeatureCollection",
  "features": [
    {
      "type": "Feature",
      "geometry": {
        "type": "Point",
        "coordinates": [
          404069.855168,
          4698143.191557
        ]
      },
      "properties": {
        "subtype": "burial_mound",
        "confidence": 1.0,
        "vote_count": 5,
        "total_passes": 5,
        "contributing_passes": [
          "pass_01",
          "pass_02",
          "pass_03",
          "pass_04",
          "pass_05"
        ],
        "source_tiles": [
          "K-35-052-4_32635_x1344_y1344.png"
        ],
        "cluster_size": 5
      }
    },
    {
      "type": "Feature",
      "geometry": {
        "type": "Point",
        "coordinates": [
          405469.443012,
          4697424.928001
        ]
      },
      "properties": {
        "subtype": "burial_mound",
        "confidence": 1.0,
        "vote_count": 5,
        "total_passes": 5,
        "contributing_passes": [
          "pass_01",
          "pass_02",
          "pass_03",
          "pass_04",
          "pass_05"
        ],
        "source_tiles": [
          "K-35-052-4_32635_x1344_y1344.png"
        ],
        "cluster_size": 5
      }
    },
    {
      "type": "Feature",
      "geometry": {
        "type": "Point",
        "coordinates": [
          404008.161459,
          4697276.657881
        ]
      },
      "properties": {
        "subtype": "burial_mound",
        "confidence": 0.8,
        "vote_count": 4,
        "total_passes": 5,
        "contributing_passes": [
          "pass_01",
          "pass_03",
          "pass_04",
          "pass_05"
        ],
        "source_tiles": [
          "K-35-052-4_32635_x1344_y1344.png"
        ],
        "cluster_size": 4
      }
    },
    {
      "type": "Feature",
      "geometry": {
        "type": "Point",
        "coordinates": [
          404361.521477,
          4697100.170264
        ]
      },
      "properties": {
        "subtype": "burial_mound",
        "confidence": 1.0,
        "vote_count": 5,
        "total_passes": 5,
        "contributing_passes": [
          "pass_01",
          "pass_02",
          "pass_03",
          "pass_04",
          "pass_05"
        ],
        "source_tiles": [
          "K-35-052-4_32635_x1344_y1344.png"
        ],
        "cluster_size": 5
      }
    },
    {
      "type": "Feature",
      "geometry": {
        "type": "Point",
        "coordinates": [
          404620.609402,
          4697140.187805
        ]
      },
      "properties": {
        "subtype": "burial_mound",
        "confidence": 1.0,
        "vote_count": 5,
        "total_passes": 5,
        "contributing_passes": [
          "pass_01",
          "pass_02",
          "pass_03",
          "pass_04",
          "pass_05"
        ],
        "source_tiles": [
          "K-35-052-4_32635_x1344_y1344.png"
        ],
        "cluster_size": 5
      }
    },
    {
      "type": "Feature",
      "geometry": {
        "type": "Point",
        "coordinates": [
          404747.331615,
          4697130.18342
        ]
      },
      "properties": {
        "subtype": "burial_mound",
        "confidence": 1.0,
        "vote_count": 5,
        "total_passes": 5,
        "contributing_passes": [
          "pass_01",
          "pass_02",
          "pass_03",
          "pass_04",
          "pass_05"
        ],
        "source_tiles": [
          "K-35-052-4_32635_x1344_y1344.png"
        ],
        "cluster_size": 5
      }
    },
    {
      "type": "Feature",
      "geometry": {
        "type": "Point",
        "coordinates": [
          404236.851445,
          4696934.200079
        ]
      },
      "properties": {
        "subtype": "burial_mound",
        "confidence": 1.0,
        "vote_count": 5,
        "total_passes": 5,
        "contributing_passes": [
          "pass_01",
          "pass_02",
          "pass_03",
          "pass_04",
          "pass_05"
        ],
        "source_tiles": [
          "K-35-052-4_32635_x1344_y1344.png"
        ],
        "cluster_size": 5
      }
    },
    {
      "type": "Feature",
      "geometry": {
        "type": "Point",
        "coordinates": [
          404452.159497,
          4696788.837216
        ]
      },
      "properties": {
        "subtype": "burial_mound",
        "confidence": 0.6,
        "vote_count": 3,
        "total_passes": 5,
        "contributing_passes": [
          "pass_01",
          "pass_02",
          "pass_05"
        ],
        "source_tiles": [
          "K-35-052-4_32635_x1344_y1344.png"
        ],
        "cluster_size": 3
      }
    },
    {
      "type": "Feature",
      "geometry": {
        "type": "Point",
        "coordinates": [
          404663.961738,
          4693785.383953
        ]
      },
      "properties": {
        "subtype": "burial_mound",
        "confidence": 1.0,
        "vote_count": 5,
        "total_passes": 5,
        "contributing_passes": [
          "pass_01",
          "pass_02",
          "pass_03",
          "pass_04",
          "pass_05"
        ],
        "source_tiles": [
          "K-35-052-4_32635_x1344_y2240.png"
        ],
        "cluster_size": 5
      }
    },
    {
      "type": "Feature",
      "geometry": {
        "type": "Point",
        "coordinates": [
          404859.175511,
          4693797.568782
        ]
      },
      "properties": {
        "subtype": "burial_mound",
        "confidence": 0.4,
        "vote_count": 2,
        "total_passes": 5,
        "contributing_passes": [
          "pass_01",
          "pass_02"
        ],
        "source_tiles": [
          "K-35-052-4_32635_x1344_y2240.png"
        ],
        "cluster_size": 2
      }
    },
    {
      "type": "Feature",
      "geometry": {
        "type": "Point",
        "coordinates": [
          409162.34378,
          4693845.666787
        ]
      },
      "properties": {
        "subtype": "burial_mound",
        "confidence": 1.0,
        "vote_count": 5,
        "total_passes": 5,
        "contributing_passes": [
          "pass_01",
          "pass_02",
          "pass_03",
          "pass_04",
          "pass_05"
        ],
        "source_tiles": [
          "K-35-052-4_32635_x2240_y2240.png"
        ],
        "cluster_size": 5
      }
    },
    {
      "type": "Feature",
      "geometry": {
        "type": "Point",
        "coordinates": [
          408647.246202,
          4687479.286454
        ]
      },
      "properties": {
        "subtype": "burial_mound",
        "confidence": 1.0,
        "vote_count": 5,
        "total_passes": 5,
        "contributing_passes": [
          "pass_01",
          "pass_02",
          "pass_03",
          "pass_04",
          "pass_05"
        ],
        "source_tiles": [
          "K-35-052-4_32635_x2240_y3584.png"
        ],
        "cluster_size": 5
      }
    },
    {
      "type": "Feature",
      "geometry": {
        "type": "Point",
        "coordinates": [
          410190.572264,
          4687769.499134
        ]
      },
      "properties": {
        "subtype": "triangulation_mound",
        "confidence": 0.6,
        "vote_count": 3,
        "total_passes": 5,
        "contributing_passes": [
          "pass_01",
          "pass_02",
          "pass_03"
        ],
        "source_tiles": [
          "K-35-052-4_32635_x2240_y3584.png"
        ],
        "cluster_size": 3
      }
    },
    {
      "type": "Feature",
      "geometry": {
        "type": "Point",
        "coordinates": [
          413706.899909,
          4699797.249917
        ]
      },
      "properties": {
        "subtype": "burial_mound",
        "confidence": 1.0,
        "vote_count": 5,
        "total_passes": 5,
        "contributing_passes": [
          "pass_01",
          "pass_02",
          "pass_03",
          "pass_04",
          "pass_05"
        ],
        "source_tiles": [
          "K-35-052-4_32635_x3136_y896.png"
        ],
        "cluster_size": 5
      }
    },
    {
      "type": "Feature",
      "geometry": {
        "type": "Point",
        "coordinates": [
          427903.26379,
          4693885.315175
        ]
      },
      "properties": {
        "subtype": "burial_mound",
        "confidence": 0.4,
        "vote_count": 2,
        "total_passes": 5,
        "contributing_passes": [
          "pass_01",
          "pass_05"
        ],
        "source_tiles": [
          "K-35-053-3_Elenovo_x1792_y2240.png"
        ],
        "cluster_size": 2
      }
    },
    {
      "type": "Feature",
      "geometry": {
        "type": "Point",
        "coordinates": [
          427363.94733,
          4693955.855972
        ]
      },
      "properties": {
        "subtype": "burial_mound",
        "confidence": 0.2,
        "vote_count": 1,
        "total_passes": 5,
        "contributing_passes": [
          "pass_01"
        ],
        "source_tiles": [
          "K-35-053-3_Elenovo_x1792_y2240.png"
        ],
        "cluster_size": 1
      }
    },
    {
      "type": "Feature",
      "geometry": {
        "type": "Point",
        "coordinates": [
          426554.652,
          4693795.535978
        ]
      },
      "properties": {
        "subtype": "burial_mound",
        "confidence": 0.2,
        "vote_count": 1,
        "total_passes": 5,
        "contributing_passes": [
          "pass_01"
        ],
        "source_tiles": [
          "K-35-053-3_Elenovo_x1792_y2240.png"
        ],
        "cluster_size": 1
      }
    },
    {
      "type": "Feature",
      "geometry": {
        "type": "Point",
        "coordinates": [
          426972.766544,
          4693401.790073
        ]
      },
      "properties": {
        "subtype": "burial_mound",
        "confidence": 0.2,
        "vote_count": 1,
        "total_passes": 5,
        "contributing_passes": [
          "pass_01"
        ],
        "source_tiles": [
          "K-35-053-3_Elenovo_x1792_y2240.png"
        ],
        "cluster_size": 1
      }
    },
    {
      "type": "Feature",
      "geometry": {
        "type": "Point",
        "coordinates": [
          427263.266374,
          4692788.726415
        ]
      },
      "properties": {
        "subtype": "burial_mound",
        "confidence": 0.4,
        "vote_count": 2,
        "total_passes": 5,
        "contributing_passes": [
          "pass_01",
          "pass_05"
        ],
        "source_tiles": [
          "K-35-053-3_Elenovo_x1792_y2240.png"
        ],
        "cluster_size": 2
      }
    },
    {
      "type": "Feature",
      "geometry": {
        "type": "Point",
        "coordinates": [
          428522.098967,
          4692824.638094
        ]
      },
      "properties": {
        "subtype": "burial_mound",
        "confidence": 0.2,
        "vote_count": 1,
        "total_passes": 5,
        "contributing_passes": [
          "pass_01"
        ],
        "source_tiles": [
          "K-35-053-3_Elenovo_x1792_y2240.png"
        ],
        "cluster_size": 1
      }
    },
    {
      "type": "Feature",
      "geometry": {
        "type": "Point",
        "coordinates": [
          428241.218337,
          4694271.36572
        ]
      },
      "properties": {
        "subtype": "burial_mound",
        "confidence": 0.2,
        "vote_count": 1,
        "total_passes": 5,
        "contributing_passes": [
          "pass_01"
        ],
        "source_tiles": [
          "K-35-053-3_Elenovo_x1792_y2240.png"
        ],
        "cluster_size": 1
      }
    },
    {
      "type": "Feature",
      "geometry": {
        "type": "Point",
        "coordinates": [
          428561.858325,
          4694307.277399
        ]
      },
      "properties": {
        "subtype": "burial_mound",
        "confidence": 0.2,
        "vote_count": 1,
        "total_passes": 5,
        "contributing_passes": [
          "pass_01"
        ],
        "source_tiles": [
          "K-35-053-3_Elenovo_x1792_y2240.png"
        ],
        "cluster_size": 1
      }
    },
    {
      "type": "Feature",
      "geometry": {
        "type": "Point",
        "coordinates": [
          428683.701521,
          4693957.138532
        ]
      },
      "properties": {
        "subtype": "burial_mound",
        "confidence": 0.2,
        "vote_count": 1,
        "total_passes": 5,
        "contributing_passes": [
          "pass_01"
        ],
        "source_tiles": [
          "K-35-053-3_Elenovo_x1792_y2240.png"
        ],
        "cluster_size": 1
      }
    },
    {
      "type": "Feature",
      "geometry": {
        "type": "Point",
        "coordinates": [
          429810.430439,
          4693478.74367
        ]
      },
      "properties": {
        "subtype": "burial_mound",
        "confidence": 0.8,
        "vote_count": 4,
        "total_passes": 5,
        "contributing_passes": [
          "pass_01",
          "pass_02",
          "pass_04",
          "pass_05"
        ],
        "source_tiles": [
          "K-35-053-3_Elenovo_x2240_y2240.png"
        ],
        "cluster_size": 4
      }
    },
    {
      "type": "Feature",
      "geometry": {
        "type": "Point",
        "coordinates": [
          429281.374459,
          4693941.747813
        ]
      },
      "properties": {
        "subtype": "burial_mound",
        "confidence": 0.2,
        "vote_count": 1,
        "total_passes": 5,
        "contributing_passes": [
          "pass_01"
        ],
        "source_tiles": [
          "K-35-053-3_Elenovo_x2240_y2240.png"
        ],
        "cluster_size": 1
      }
    },
    {
      "type": "Feature",
      "geometry": {
        "type": "Point",
        "coordinates": [
          429231.354621,
          4692584.799383
        ]
      },
      "properties": {
        "subtype": "burial_mound",
        "confidence": 0.2,
        "vote_count": 1,
        "total_passes": 5,
        "contributing_passes": [
          "pass_01"
        ],
        "source_tiles": [
          "K-35-053-3_Elenovo_x2240_y2240.png"
        ],
        "cluster_size": 1
      }
    },
    {
      "type": "Feature",
      "geometry": {
        "type": "Point",
        "coordinates": [
          428851.716875,
          4687532.795731
        ]
      },
      "properties": {
        "subtype": "benchmark_mound",
        "confidence": 0.2,
        "vote_count": 1,
        "total_passes": 5,
        "contributing_passes": [
          "pass_01"
        ],
        "source_tiles": [
          "K-35-053-3_Elenovo_x2240_y3584.png"
        ],
        "cluster_size": 1
      }
    },
    {
      "type": "Feature",
      "geometry": {
        "type": "Point",
        "coordinates": [
          434245.65101,
          4689080.589081
        ]
      },
      "properties": {
        "subtype": "burial_mound",
        "confidence": 1.0,
        "vote_count": 5,
        "total_passes": 5,
        "contributing_passes": [
          "pass_01",
          "pass_02",
          "pass_03",
          "pass_04",
          "pass_05"
        ],
        "source_tiles": [
          "K-35-053-3_Elenovo_x3136_y3136.png"
        ],
        "cluster_size": 5
      }
    },
    {
      "type": "Feature",
      "geometry": {
        "type": "Point",
        "coordinates": [
          433547.810141,
          4688992.348956
        ]
      },
      "properties": {
        "subtype": "burial_mound",
        "confidence": 0.4,
        "vote_count": 2,
        "total_passes": 5,
        "contributing_passes": [
          "pass_01",
          "pass_03"
        ],
        "source_tiles": [
          "K-35-053-3_Elenovo_x3136_y3136.png"
        ],
        "cluster_size": 2
      }
    },
    {
      "type": "Feature",
      "geometry": {
        "type": "Point",
        "coordinates": [
          423393.141717,
          4696776.205308
        ]
      },
      "properties": {
        "subtype": "burial_mound",
        "confidence": 0.2,
        "vote_count": 1,
        "total_passes": 5,
        "contributing_passes": [
          "pass_01"
        ],
        "source_tiles": [
          "K-35-053-3_Elenovo_x896_y1344.png"
        ],
        "cluster_size": 1
      }
    },
    {
      "type": "Feature",
      "geometry": {
        "type": "Point",
        "coordinates": [
          423259.755482,
          4697275.441769
        ]
      },
      "properties": {
        "subtype": "burial_mound",
        "confidence": 0.8,
        "vote_count": 4,
        "total_passes": 5,
        "contributing_passes": [
          "pass_01",
          "pass_02",
          "pass_04",
          "pass_05"
        ],
        "source_tiles": [
          "K-35-053-3_Elenovo_x896_y1344.png"
        ],
        "cluster_size": 4
      }
    },
    {
      "type": "Feature",
      "geometry": {
        "type": "Point",
        "coordinates": [
          423458.552274,
          4696771.075068
        ]
      },
      "properties": {
        "subtype": "burial_mound",
        "confidence": 0.2,
        "vote_count": 1,
        "total_passes": 5,
        "contributing_passes": [
          "pass_01"
        ],
        "source_tiles": [
          "K-35-053-3_Elenovo_x896_y1344.png"
        ],
        "cluster_size": 1
      }
    },
    {
      "type": "Feature",
      "geometry": {
        "type": "Point",
        "coordinates": [
          424344.159922,
          4696560.735236
        ]
      },
      "properties": {
        "subtype": "burial_mound",
        "confidence": 0.4,
        "vote_count": 2,
        "total_passes": 5,
        "contributing_passes": [
          "pass_01",
          "pass_02"
        ],
        "source_tiles": [
          "K-35-053-3_Elenovo_x896_y1344.png"
        ],
        "cluster_size": 2
      }
    },
    {
      "type": "Feature",
      "geometry": {
        "type": "Point",
        "coordinates": [
          424491.974956,
          4697355.281126
        ]
      },
      "properties": {
        "subtype": "burial_mound",
        "confidence": 0.8,
        "vote_count": 4,
        "total_passes": 5,
        "contributing_passes": [
          "pass_01",
          "pass_03",
          "pass_04",
          "pass_05"
        ],
        "source_tiles": [
          "K-35-053-3_Elenovo_x896_y1344.png"
        ],
        "cluster_size": 4
      }
    },
    {
      "type": "Feature",
      "geometry": {
        "type": "Point",
        "coordinates": [
          423358.940118,
          4696754.401789
        ]
      },
      "properties": {
        "subtype": "burial_mound",
        "confidence": 0.6,
        "vote_count": 3,
        "total_passes": 5,
        "contributing_passes": [
          "pass_01",
          "pass_02",
          "pass_04"
        ],
        "source_tiles": [
          "K-35-053-3_Elenovo_x896_y1344.png"
        ],
        "cluster_size": 3
      }
    },
    {
      "type": "Feature",
      "geometry": {
        "type": "Point",
        "coordinates": [
          422203.246721,
          4697734.277592
        ]
      },
      "properties": {
        "subtype": "burial_mound",
        "confidence": 0.8,
        "vote_count": 4,
        "total_passes": 5,
        "contributing_passes": [
          "pass_01",
          "pass_02",
          "pass_03",
          "pass_04"
        ],
        "source_tiles": [
          "K-35-053-3_Elenovo_x896_y1344.png"
        ],
        "cluster_size": 4
      }
    },
    {
      "type": "Feature",
      "geometry": {
        "type": "Point",
        "coordinates": [
          422496.63231,
          4698852.028591
        ]
      },
      "properties": {
        "subtype": "settlement_mound",
        "confidence": 0.4,
        "vote_count": 2,
        "total_passes": 5,
        "contributing_passes": [
          "pass_01",
          "pass_04"
        ],
        "source_tiles": [
          "K-35-053-3_Elenovo_x896_y1344.png"
        ],
        "cluster_size": 2
      }
    },
    {
      "type": "Feature",
      "geometry": {
        "type": "Point",
        "coordinates": [
          314945.335757,
          4678021.20876
        ]
      },
      "properties": {
        "subtype": "burial_mound",
        "confidence": 1.0,
        "vote_count": 5,
        "total_passes": 5,
        "contributing_passes": [
          "pass_01",
          "pass_02",
          "pass_03",
          "pass_04",
          "pass_05"
        ],
        "source_tiles": [
          "K-35-062-2_Rakovski_x0_y1792.png"
        ],
        "cluster_size": 5
      }
    },
    {
      "type": "Feature",
      "geometry": {
        "type": "Point",
        "coordinates": [
          315509.116039,
          4672881.146326
        ]
      },
      "properties": {
        "subtype": "burial_mound",
        "confidence": 1.0,
        "vote_count": 5,
        "total_passes": 5,
        "contributing_passes": [
          "pass_01",
          "pass_02",
          "pass_03",
          "pass_04",
          "pass_05"
        ],
        "source_tiles": [
          "K-35-062-2_Rakovski_x0_y3136.png"
        ],
        "cluster_size": 5
      }
    },
    {
      "type": "Feature",
      "geometry": {
        "type": "Point",
        "coordinates": [
          317374.421903,
          4675215.669508
        ]
      },
      "properties": {
        "subtype": "burial_mound",
        "confidence": 1.0,
        "vote_count": 5,
        "total_passes": 5,
        "contributing_passes": [
          "pass_01",
          "pass_02",
          "pass_03",
          "pass_04",
          "pass_05"
        ],
        "source_tiles": [
          "K-35-062-2_Rakovski_x448_y2688.png"
        ],
        "cluster_size": 5
      }
    },
    {
      "type": "Feature",
      "geometry": {
        "type": "Point",
        "coordinates": [
          320213.36655,
          4673429.508733
        ]
      },
      "properties": {
        "subtype": "burial_mound",
        "confidence": 1.0,
        "vote_count": 5,
        "total_passes": 5,
        "contributing_passes": [
          "pass_01",
          "pass_02",
          "pass_03",
          "pass_04",
          "pass_05"
        ],
        "source_tiles": [
          "K-35-062-2_Rakovski_x896_y2688.png"
        ],
        "cluster_size": 5
      }
    },
    {
      "type": "Feature",
      "geometry": {
        "type": "Point",
        "coordinates": [
          320524.036724,
          4672868.298097
        ]
      },
      "properties": {
        "subtype": "burial_mound",
        "confidence": 0.6,
        "vote_count": 3,
        "total_passes": 5,
        "contributing_passes": [
          "pass_01",
          "pass_04",
          "pass_05"
        ],
        "source_tiles": [
          "K-35-062-2_Rakovski_x896_y3136.png"
        ],
        "cluster_size": 3
      }
    },
    {
      "type": "Feature",
      "geometry": {
        "type": "Point",
        "coordinates": [
          320444.056499,
          4672866.049657
        ]
      },
      "properties": {
        "subtype": "burial_mound",
        "confidence": 0.8,
        "vote_count": 4,
        "total_passes": 5,
        "contributing_passes": [
          "pass_01",
          "pass_02",
          "pass_03",
          "pass_04"
        ],
        "source_tiles": [
          "K-35-062-2_Rakovski_x896_y3136.png"
        ],
        "cluster_size": 4
      }
    },
    {
      "type": "Feature",
      "geometry": {
        "type": "Point",
        "coordinates": [
          320213.53786,
          4672525.250387
        ]
      },
      "properties": {
        "subtype": "burial_mound",
        "confidence": 0.6,
        "vote_count": 3,
        "total_passes": 5,
        "contributing_passes": [
          "pass_01",
          "pass_04",
          "pass_05"
        ],
        "source_tiles": [
          "K-35-062-2_Rakovski_x896_y3136.png"
        ],
        "cluster_size": 3
      }
    },
    {
      "type": "Feature",
      "geometry": {
        "type": "Point",
        "coordinates": [
          320130.880921,
          4671943.22562
        ]
      },
      "properties": {
        "subtype": "burial_mound",
        "confidence": 0.4,
        "vote_count": 2,
        "total_passes": 5,
        "contributing_passes": [
          "pass_01",
          "pass_04"
        ],
        "source_tiles": [
          "K-35-062-2_Rakovski_x896_y3136.png"
        ],
        "cluster_size": 2
      }
    },
    {
      "type": "Feature",
      "geometry": {
        "type": "Point",
        "coordinates": [
          318865.330379,
          4671540.647782
        ]
      },
      "properties": {
        "subtype": "burial_mound",
        "confidence": 0.6,
        "vote_count": 3,
        "total_passes": 5,
        "contributing_passes": [
          "pass_01",
          "pass_02",
          "pass_05"
        ],
        "source_tiles": [
          "K-35-062-2_Rakovski_x896_y3136.png"
        ],
        "cluster_size": 3
      }
    },
    {
      "type": "Feature",
      "geometry": {
        "type": "Point",
        "coordinates": [
          319189.105746,
          4673069.587016
        ]
      },
      "properties": {
        "subtype": "burial_mound",
        "confidence": 0.6,
        "vote_count": 3,
        "total_passes": 5,
        "contributing_passes": [
          "pass_01",
          "pass_02",
          "pass_04"
        ],
        "source_tiles": [
          "K-35-062-2_Rakovski_x896_y3136.png"
        ],
        "cluster_size": 3
      }
    },
    {
      "type": "Feature",
      "geometry": {
        "type": "Point",
        "coordinates": [
          467389.592948,
          4649087.306037
        ]
      },
      "properties": {
        "subtype": "burial_mound",
        "confidence": 0.6,
        "vote_count": 3,
        "total_passes": 5,
        "contributing_passes": [
          "pass_01",
          "pass_02",
          "pass_03"
        ],
        "source_tiles": [
          "K-35-078-1_Lesovo_x1344_y0.png"
        ],
        "cluster_size": 3
      }
    },
    {
      "type": "Feature",
      "geometry": {
        "type": "Point",
        "coordinates": [
          466443.386367,
          4648307.258794
        ]
      },
      "properties": {
        "subtype": "burial_mound",
        "confidence": 1.0,
        "vote_count": 5,
        "total_passes": 5,
        "contributing_passes": [
          "pass_01",
          "pass_02",
          "pass_03",
          "pass_04",
          "pass_05"
        ],
        "source_tiles": [
          "K-35-078-1_Lesovo_x1344_y0.png"
        ],
        "cluster_size": 5
      }
    },
    {
      "type": "Feature",
      "geometry": {
        "type": "Point",
        "coordinates": [
          466157.88856,
          4647590.583948
        ]
      },
      "properties": {
        "subtype": "burial_mound",
        "confidence": 0.8,
        "vote_count": 4,
        "total_passes": 5,
        "contributing_passes": [
          "pass_01",
          "pass_02",
          "pass_03",
          "pass_05"
        ],
        "source_tiles": [
          "K-35-078-1_Lesovo_x1344_y0.png"
        ],
        "cluster_size": 4
      }
    },
    {
      "type": "Feature",
      "geometry": {
        "type": "Point",
        "coordinates": [
          465691.933986,
          4644072.385397
        ]
      },
      "properties": {
        "subtype": "triangulation_mound",
        "confidence": 1.0,
        "vote_count": 5,
        "total_passes": 5,
        "contributing_passes": [
          "pass_01",
          "pass_02",
          "pass_03",
          "pass_04",
          "pass_05"
        ],
        "source_tiles": [
          "K-35-078-1_Lesovo_x1344_y896.png"
        ],
        "cluster_size": 5
      }
    },
    {
      "type": "Feature",
      "geometry": {
        "type": "Point",
        "coordinates": [
          475652.048453,
          4635087.845207
        ]
      },
      "properties": {
        "subtype": "burial_mound",
        "confidence": 0.6,
        "vote_count": 3,
        "total_passes": 5,
        "contributing_passes": [
          "pass_01",
          "pass_02",
          "pass_05"
        ],
        "source_tiles": [
          "K-35-078-1_Lesovo_x3136_y2688.png"
        ],
        "cluster_size": 3
      }
    },
    {
      "type": "Feature",
      "geometry": {
        "type": "Point",
        "coordinates": [
          477610.324257,
          4633894.031159
        ]
      },
      "properties": {
        "subtype": "burial_mound",
        "confidence": 0.4,
        "vote_count": 2,
        "total_passes": 5,
        "contributing_passes": [
          "pass_01",
          "pass_05"
        ],
        "source_tiles": [
          "K-35-078-1_Lesovo_x3584_y3136.png"
        ],
        "cluster_size": 2
      }
    },
    {
      "type": "Feature",
      "geometry": {
        "type": "Point",
        "coordinates": [
          464324.017584,
          4633371.080068
        ]
      },
      "properties": {
        "subtype": "burial_mound",
        "confidence": 0.4,
        "vote_count": 2,
        "total_passes": 5,
        "contributing_passes": [
          "pass_01",
          "pass_03"
        ],
        "source_tiles": [
          "K-35-078-1_Lesovo_x896_y3136.png"
        ],
        "cluster_size": 2
      }
    },
    {
      "type": "Feature",
      "geometry": {
        "type": "Point",
        "coordinates": [
          404017.78106,
          4697259.983905
        ]
      },
      "properties": {
        "subtype": "burial_mound",
        "confidence": 0.2,
        "vote_count": 1,
        "total_passes": 5,
        "contributing_passes": [
          "pass_02"
        ],
        "source_tiles": [
          "K-35-052-4_32635_x1344_y1344.png"
        ],
        "cluster_size": 1
      }
    },
    {
      "type": "Feature",
      "geometry": {
        "type": "Point",
        "coordinates": [
          404644.979058,
          4696729.409457
        ]
      },
      "properties": {
        "subtype": "burial_mound",
        "confidence": 0.6,
        "vote_count": 3,
        "total_passes": 5,
        "contributing_passes": [
          "pass_02",
          "pass_03",
          "pass_04"
        ],
        "source_tiles": [
          "K-35-052-4_32635_x1344_y1344.png"
        ],
        "cluster_size": 3
      }
    },
    {
      "type": "Feature",
      "geometry": {
        "type": "Point",
        "coordinates": [
          427389.598529,
          4693922.509414
        ]
      },
      "properties": {
        "subtype": "burial_mound",
        "confidence": 0.2,
        "vote_count": 1,
        "total_passes": 5,
        "contributing_passes": [
          "pass_02"
        ],
        "source_tiles": [
          "K-35-053-3_Elenovo_x1792_y2240.png"
        ],
        "cluster_size": 1
      }
    },
    {
      "type": "Feature",
      "geometry": {
        "type": "Point",
        "coordinates": [
          427930.838829,
          4693891.727975
        ]
      },
      "properties": {
        "subtype": "burial_mound",
        "confidence": 0.2,
        "vote_count": 1,
        "total_passes": 5,
        "contributing_passes": [
          "pass_02"
        ],
        "source_tiles": [
          "K-35-053-3_Elenovo_x1792_y2240.png"
        ],
        "cluster_size": 1
      }
    },
    {
      "type": "Feature",
      "geometry": {
        "type": "Point",
        "coordinates": [
          426994.570063,
          4693378.703994
        ]
      },
      "properties": {
        "subtype": "burial_mound",
        "confidence": 0.4,
        "vote_count": 2,
        "total_passes": 5,
        "contributing_passes": [
          "pass_02",
          "pass_05"
        ],
        "source_tiles": [
          "K-35-053-3_Elenovo_x1792_y2240.png"
        ],
        "cluster_size": 2
      }
    },
    {
      "type": "Feature",
      "geometry": {
        "type": "Point",
        "coordinates": [
          427257.494853,
          4692764.357777
        ]
      },
      "properties": {
        "subtype": "burial_mound",
        "confidence": 0.2,
        "vote_count": 1,
        "total_passes": 5,
        "contributing_passes": [
          "pass_02"
        ],
        "source_tiles": [
          "K-35-053-3_Elenovo_x1792_y2240.png"
        ],
        "cluster_size": 1
      }
    },
    {
      "type": "Feature",
      "geometry": {
        "type": "Point",
        "coordinates": [
          428546.895126,
          4692809.674894
        ]
      },
      "properties": {
        "subtype": "burial_mound",
        "confidence": 0.6,
        "vote_count": 3,
        "total_passes": 5,
        "contributing_passes": [
          "pass_02",
          "pass_03",
          "pass_04"
        ],
        "source_tiles": [
          "K-35-053-3_Elenovo_x1792_y2240.png"
        ],
        "cluster_size": 3
      }
    },
    {
      "type": "Feature",
      "geometry": {
        "type": "Point",
        "coordinates": [
          428595.204884,
          4694326.515799
        ]
      },
      "properties": {
        "subtype": "burial_mound",
        "confidence": 0.2,
        "vote_count": 1,
        "total_passes": 5,
        "contributing_passes": [
          "pass_02"
        ],
        "source_tiles": [
          "K-35-053-3_Elenovo_x1792_y2240.png"
        ],
        "cluster_size": 1
      }
    },
    {
      "type": "Feature",
      "geometry": {
        "type": "Point",
        "coordinates": [
          428756.807438,
          4693986.637411
        ]
      },
      "properties": {
        "subtype": "burial_mound",
        "confidence": 0.2,
        "vote_count": 1,
        "total_passes": 5,
        "contributing_passes": [
          "pass_02"
        ],
        "source_tiles": [
          "K-35-053-3_Elenovo_x1792_y2240.png"
        ],
        "cluster_size": 1
      }
    },
    {
      "type": "Feature",
      "geometry": {
        "type": "Point",
        "coordinates": [
          426639.300957,
          4693781.427819
        ]
      },
      "properties": {
        "subtype": "burial_mound",
        "confidence": 0.2,
        "vote_count": 1,
        "total_passes": 5,
        "contributing_passes": [
          "pass_02"
        ],
        "source_tiles": [
          "K-35-053-3_Elenovo_x1792_y2240.png"
        ],
        "cluster_size": 1
      }
    },
    {
      "type": "Feature",
      "geometry": {
        "type": "Point",
        "coordinates": [
          428882.177673,
          4687479.569492
        ]
      },
      "properties": {
        "subtype": "benchmark_mound",
        "confidence": 0.8,
        "vote_count": 4,
        "total_passes": 5,
        "contributing_passes": [
          "pass_02",
          "pass_03",
          "pass_04",
          "pass_05"
        ],
        "source_tiles": [
          "K-35-053-3_Elenovo_x2240_y3584.png"
        ],
        "cluster_size": 4
      }
    },
    {
      "type": "Feature",
      "geometry": {
        "type": "Point",
        "coordinates": [
          424473.057197,
          4697343.096807
        ]
      },
      "properties": {
        "subtype": "burial_mound",
        "confidence": 0.2,
        "vote_count": 1,
        "total_passes": 5,
        "contributing_passes": [
          "pass_02"
        ],
        "source_tiles": [
          "K-35-053-3_Elenovo_x896_y1344.png"
        ],
        "cluster_size": 1
      }
    },
    {
      "type": "Feature",
      "geometry": {
        "type": "Point",
        "coordinates": [
          422506.25151,
          4698822.529712
        ]
      },
      "properties": {
        "subtype": "burial_mound",
        "confidence": 0.4,
        "vote_count": 2,
        "total_passes": 5,
        "contributing_passes": [
          "pass_02",
          "pass_03"
        ],
        "source_tiles": [
          "K-35-053-3_Elenovo_x896_y1344.png"
        ],
        "cluster_size": 2
      }
    },
    {
      "type": "Feature",
      "geometry": {
        "type": "Point",
        "coordinates": [
          320542.024244,
          4672846.456108
        ]
      },
      "properties": {
        "subtype": "burial_mound",
        "confidence": 0.4,
        "vote_count": 2,
        "total_passes": 5,
        "contributing_passes": [
          "pass_02",
          "pass_03"
        ],
        "source_tiles": [
          "K-35-062-2_Rakovski_x896_y3136.png"
        ],
        "cluster_size": 2
      }
    },
    {
      "type": "Feature",
      "geometry": {
        "type": "Point",
        "coordinates": [
          318536.415721,
          4672676.859487
        ]
      },
      "properties": {
        "subtype": "burial_mound",
        "confidence": 0.4,
        "vote_count": 2,
        "total_passes": 5,
        "contributing_passes": [
          "pass_02",
          "pass_05"
        ],
        "source_tiles": [
          "K-35-062-2_Rakovski_x896_y3136.png"
        ],
        "cluster_size": 2
      }
    },
    {
      "type": "Feature",
      "geometry": {
        "type": "Point",
        "coordinates": [
          320201.54618,
          4672553.51649
        ]
      },
      "properties": {
        "subtype": "burial_mound",
        "confidence": 0.4,
        "vote_count": 2,
        "total_passes": 5,
        "contributing_passes": [
          "pass_02",
          "pass_03"
        ],
        "source_tiles": [
          "K-35-062-2_Rakovski_x896_y3136.png"
        ],
        "cluster_size": 2
      }
    },
    {
      "type": "Feature",
      "geometry": {
        "type": "Point",
        "coordinates": [
          320107.325835,
          4671942.369071
        ]
      },
      "properties": {
        "subtype": "burial_mound",
        "confidence": 0.6,
        "vote_count": 3,
        "total_passes": 5,
        "contributing_passes": [
          "pass_02",
          "pass_03",
          "pass_05"
        ],
        "source_tiles": [
          "K-35-062-2_Rakovski_x896_y3136.png"
        ],
        "cluster_size": 3
      }
    },
    {
      "type": "Feature",
      "geometry": {
        "type": "Point",
        "coordinates": [
          477709.504637,
          4634006.736136
        ]
      },
      "properties": {
        "subtype": "burial_mound",
        "confidence": 0.2,
        "vote_count": 1,
        "total_passes": 5,
        "contributing_passes": [
          "pass_02"
        ],
        "source_tiles": [
          "K-35-078-1_Lesovo_x3584_y3136.png"
        ],
        "cluster_size": 1
      }
    },
    {
      "type": "Feature",
      "geometry": {
        "type": "Point",
        "coordinates": [
          464369.958279,
          4633360.990289
        ]
      },
      "properties": {
        "subtype": "burial_mound",
        "confidence": 0.6,
        "vote_count": 3,
        "total_passes": 5,
        "contributing_passes": [
          "pass_02",
          "pass_04",
          "pass_05"
        ],
        "source_tiles": [
          "K-35-078-1_Lesovo_x896_y3136.png"
        ],
        "cluster_size": 3
      }
    },
    {
      "type": "Feature",
      "geometry": {
        "type": "Point",
        "coordinates": [
          404485.293679,
          4696781.569073
        ]
      },
      "properties": {
        "subtype": "burial_mound",
        "confidence": 0.4,
        "vote_count": 2,
        "total_passes": 5,
        "contributing_passes": [
          "pass_03",
          "pass_04"
        ],
        "source_tiles": [
          "K-35-052-4_32635_x1344_y1344.png"
        ],
        "cluster_size": 2
      }
    },
    {
      "type": "Feature",
      "geometry": {
        "type": "Point",
        "coordinates": [
          404858.320436,
          4693817.449291
        ]
      },
      "properties": {
        "subtype": "triangulation_mound",
        "confidence": 0.6,
        "vote_count": 3,
        "total_passes": 5,
        "contributing_passes": [
          "pass_03",
          "pass_04",
          "pass_05"
        ],
        "source_tiles": [
          "K-35-052-4_32635_x1344_y2240.png"
        ],
        "cluster_size": 3
      }
    },
    {
      "type": "Feature",
      "geometry": {
        "type": "Point",
        "coordinates": [
          427947.512108,
          4693910.966374
        ]
      },
      "properties": {
        "subtype": "burial_mound",
        "confidence": 0.2,
        "vote_count": 1,
        "total_passes": 5,
        "contributing_passes": [
          "pass_03"
        ],
        "source_tiles": [
          "K-35-053-3_Elenovo_x1792_y2240.png"
        ],
        "cluster_size": 1
      }
    },
    {
      "type": "Feature",
      "geometry": {
        "type": "Point",
        "coordinates": [
          428872.237834,
          4693851.968616
        ]
      },
      "properties": {
        "subtype": "burial_mound",
        "confidence": 0.2,
        "vote_count": 1,
        "total_passes": 5,
        "contributing_passes": [
          "pass_03"
        ],
        "source_tiles": [
          "K-35-053-3_Elenovo_x1792_y2240.png"
        ],
        "cluster_size": 1
      }
    },
    {
      "type": "Feature",
      "geometry": {
        "type": "Point",
        "coordinates": [
          427317.775171,
          4692786.161295
        ]
      },
      "properties": {
        "subtype": "burial_mound",
        "confidence": 0.2,
        "vote_count": 1,
        "total_passes": 5,
        "contributing_passes": [
          "pass_03"
        ],
        "source_tiles": [
          "K-35-053-3_Elenovo_x1792_y2240.png"
        ],
        "cluster_size": 1
      }
    },
    {
      "type": "Feature",
      "geometry": {
        "type": "Point",
        "coordinates": [
          426645.713756,
          4693762.18942
        ]
      },
      "properties": {
        "subtype": "burial_mound",
        "confidence": 0.2,
        "vote_count": 1,
        "total_passes": 5,
        "contributing_passes": [
          "pass_03"
        ],
        "source_tiles": [
          "K-35-053-3_Elenovo_x1792_y2240.png"
        ],
        "cluster_size": 1
      }
    },
    {
      "type": "Feature",
      "geometry": {
        "type": "Point",
        "coordinates": [
          428591.998485,
          4694304.71228
        ]
      },
      "properties": {
        "subtype": "burial_mound",
        "confidence": 0.4,
        "vote_count": 2,
        "total_passes": 5,
        "contributing_passes": [
          "pass_03",
          "pass_04"
        ],
        "source_tiles": [
          "K-35-053-3_Elenovo_x1792_y2240.png"
        ],
        "cluster_size": 2
      }
    },
    {
      "type": "Feature",
      "geometry": {
        "type": "Point",
        "coordinates": [
          427396.011329,
          4693967.399012
        ]
      },
      "properties": {
        "subtype": "burial_mound",
        "confidence": 0.2,
        "vote_count": 1,
        "total_passes": 5,
        "contributing_passes": [
          "pass_03"
        ],
        "source_tiles": [
          "K-35-053-3_Elenovo_x1792_y2240.png"
        ],
        "cluster_size": 1
      }
    },
    {
      "type": "Feature",
      "geometry": {
        "type": "Point",
        "coordinates": [
          427016.373582,
          4693371.008634
        ]
      },
      "properties": {
        "subtype": "burial_mound",
        "confidence": 0.4,
        "vote_count": 2,
        "total_passes": 5,
        "contributing_passes": [
          "pass_03",
          "pass_04"
        ],
        "source_tiles": [
          "K-35-053-3_Elenovo_x1792_y2240.png"
        ],
        "cluster_size": 2
      }
    },
    {
      "type": "Feature",
      "geometry": {
        "type": "Point",
        "coordinates": [
          429222.3767,
          4693931.487334
        ]
      },
      "properties": {
        "subtype": "burial_mound",
        "confidence": 0.2,
        "vote_count": 1,
        "total_passes": 5,
        "contributing_passes": [
          "pass_03"
        ],
        "source_tiles": [
          "K-35-053-3_Elenovo_x2240_y2240.png"
        ],
        "cluster_size": 1
      }
    },
    {
      "type": "Feature",
      "geometry": {
        "type": "Point",
        "coordinates": [
          423374.223958,
          4696747.988989
        ]
      },
      "properties": {
        "subtype": "burial_mound",
        "confidence": 0.4,
        "vote_count": 2,
        "total_passes": 5,
        "contributing_passes": [
          "pass_03",
          "pass_05"
        ],
        "source_tiles": [
          "K-35-053-3_Elenovo_x896_y1344.png"
        ],
        "cluster_size": 2
      }
    },
    {
      "type": "Feature",
      "geometry": {
        "type": "Point",
        "coordinates": [
          423473.942994,
          4696747.988989
        ]
      },
      "properties": {
        "subtype": "burial_mound",
        "confidence": 0.2,
        "vote_count": 1,
        "total_passes": 5,
        "contributing_passes": [
          "pass_03"
        ],
        "source_tiles": [
          "K-35-053-3_Elenovo_x896_y1344.png"
        ],
        "cluster_size": 1
      }
    },
    {
      "type": "Feature",
      "geometry": {
        "type": "Point",
        "coordinates": [
          424358.054321,
          4696542.779397
        ]
      },
      "properties": {
        "subtype": "burial_mound",
        "confidence": 0.6,
        "vote_count": 3,
        "total_passes": 5,
        "contributing_passes": [
          "pass_03",
          "pass_04",
          "pass_05"
        ],
        "source_tiles": [
          "K-35-053-3_Elenovo_x896_y1344.png"
        ],
        "cluster_size": 3
      }
    },
    {
      "type": "Feature",
      "geometry": {
        "type": "Point",
        "coordinates": [
          423272.581081,
          4697263.578089
        ]
      },
      "properties": {
        "subtype": "burial_mound",
        "confidence": 0.2,
        "vote_count": 1,
        "total_passes": 5,
        "contributing_passes": [
          "pass_03"
        ],
        "source_tiles": [
          "K-35-053-3_Elenovo_x896_y1344.png"
        ],
        "cluster_size": 1
      }
    },
    {
      "type": "Feature",
      "geometry": {
        "type": "Point",
        "coordinates": [
          423419.434196,
          4696747.347709
        ]
      },
      "properties": {
        "subtype": "burial_mound",
        "confidence": 0.4,
        "vote_count": 2,
        "total_passes": 5,
        "contributing_passes": [
          "pass_03",
          "pass_05"
        ],
        "source_tiles": [
          "K-35-053-3_Elenovo_x896_y1344.png"
        ],
        "cluster_size": 2
      }
    },
    {
      "type": "Feature",
      "geometry": {
        "type": "Point",
        "coordinates": [
          422129.820164,
          4697732.995032
        ]
      },
      "properties": {
        "subtype": "burial_mound",
        "confidence": 0.2,
        "vote_count": 1,
        "total_passes": 5,
        "contributing_passes": [
          "pass_03"
        ],
        "source_tiles": [
          "K-35-053-3_Elenovo_x896_y1344.png"
        ],
        "cluster_size": 1
      }
    },
    {
      "type": "Feature",
      "geometry": {
        "type": "Point",
        "coordinates": [
          319284.182639,
          4673064.875998
        ]
      },
      "properties": {
        "subtype": "burial_mound",
        "confidence": 0.2,
        "vote_count": 1,
        "total_passes": 5,
        "contributing_passes": [
          "pass_03"
        ],
        "source_tiles": [
          "K-35-062-2_Rakovski_x896_y3136.png"
        ],
        "cluster_size": 1
      }
    },
    {
      "type": "Feature",
      "geometry": {
        "type": "Point",
        "coordinates": [
          318860.191088,
          4671559.063577
        ]
      },
      "properties": {
        "subtype": "burial_mound",
        "confidence": 0.4,
        "vote_count": 2,
        "total_passes": 5,
        "contributing_passes": [
          "pass_03",
          "pass_04"
        ],
        "source_tiles": [
          "K-35-062-2_Rakovski_x896_y3136.png"
        ],
        "cluster_size": 2
      }
    },
    {
      "type": "Feature",
      "geometry": {
        "type": "Point",
        "coordinates": [
          475665.358375,
          4635073.247229
        ]
      },
      "properties": {
        "subtype": "burial_mound",
        "confidence": 0.2,
        "vote_count": 1,
        "total_passes": 5,
        "contributing_passes": [
          "pass_03"
        ],
        "source_tiles": [
          "K-35-078-1_Lesovo_x3136_y2688.png"
        ],
        "cluster_size": 1
      }
    },
    {
      "type": "Feature",
      "geometry": {
        "type": "Point",
        "coordinates": [
          476680.347193,
          4633057.438218
        ]
      },
      "properties": {
        "subtype": "burial_mound",
        "confidence": 0.2,
        "vote_count": 1,
        "total_passes": 5,
        "contributing_passes": [
          "pass_03"
        ],
        "source_tiles": [
          "K-35-078-1_Lesovo_x3584_y3136.png"
        ],
        "cluster_size": 1
      }
    },
    {
      "type": "Feature",
      "geometry": {
        "type": "Point",
        "coordinates": [
          477625.78094,
          4633982.263055
        ]
      },
      "properties": {
        "subtype": "burial_mound",
        "confidence": 0.2,
        "vote_count": 1,
        "total_passes": 5,
        "contributing_passes": [
          "pass_03"
        ],
        "source_tiles": [
          "K-35-078-1_Lesovo_x3584_y3136.png"
        ],
        "cluster_size": 1
      }
    },
    {
      "type": "Feature",
      "geometry": {
        "type": "Point",
        "coordinates": [
          477141.471554,
          4632633.667506
        ]
      },
      "properties": {
        "subtype": "burial_mound",
        "confidence": 0.2,
        "vote_count": 1,
        "total_passes": 5,
        "contributing_passes": [
          "pass_03"
        ],
        "source_tiles": [
          "K-35-078-1_Lesovo_x3584_y3136.png"
        ],
        "cluster_size": 1
      }
    },
    {
      "type": "Feature",
      "geometry": {
        "type": "Point",
        "coordinates": [
          464409.029337,
          4633389.756893
        ]
      },
      "properties": {
        "subtype": "burial_mound",
        "confidence": 0.2,
        "vote_count": 1,
        "total_passes": 5,
        "contributing_passes": [
          "pass_03"
        ],
        "source_tiles": [
          "K-35-078-1_Lesovo_x896_y3136.png"
        ],
        "cluster_size": 1
      }
    },
    {
      "type": "Feature",
      "geometry": {
        "type": "Point",
        "coordinates": [
          464077.354692,
          4633566.220685
        ]
      },
      "properties": {
        "subtype": "burial_mound",
        "confidence": 0.4,
        "vote_count": 2,
        "total_passes": 5,
        "contributing_passes": [
          "pass_03",
          "pass_04"
        ],
        "source_tiles": [
          "K-35-078-1_Lesovo_x896_y3136.png"
        ],
        "cluster_size": 2
      }
    },
    {
      "type": "Feature",
      "geometry": {
        "type": "Point",
        "coordinates": [
          464237.717773,
          4632484.252908
        ]
      },
      "properties": {
        "subtype": "burial_mound",
        "confidence": 0.2,
        "vote_count": 1,
        "total_passes": 5,
        "contributing_passes": [
          "pass_03"
        ],
        "source_tiles": [
          "K-35-078-1_Lesovo_x896_y3136.png"
        ],
        "cluster_size": 1
      }
    },
    {
      "type": "Feature",
      "geometry": {
        "type": "Point",
        "coordinates": [
          463190.527533,
          4631652.168167
        ]
      },
      "properties": {
        "subtype": "burial_mound",
        "confidence": 0.2,
        "vote_count": 1,
        "total_passes": 5,
        "contributing_passes": [
          "pass_03"
        ],
        "source_tiles": [
          "K-35-078-1_Lesovo_x896_y3136.png"
        ],
        "cluster_size": 1
      }
    },
    {
      "type": "Feature",
      "geometry": {
        "type": "Point",
        "coordinates": [
          463118.396348,
          4631677.929305
        ]
      },
      "properties": {
        "subtype": "burial_mound",
        "confidence": 0.2,
        "vote_count": 1,
        "total_passes": 5,
        "contributing_passes": [
          "pass_03"
        ],
        "source_tiles": [
          "K-35-078-1_Lesovo_x896_y3136.png"
        ],
        "cluster_size": 1
      }
    },
    {
      "type": "Feature",
      "geometry": {
        "type": "Point",
        "coordinates": [
          463280.691514,
          4632294.908548
        ]
      },
      "properties": {
        "subtype": "burial_mound",
        "confidence": 0.2,
        "vote_count": 1,
        "total_passes": 5,
        "contributing_passes": [
          "pass_03"
        ],
        "source_tiles": [
          "K-35-078-1_Lesovo_x896_y3136.png"
        ],
        "cluster_size": 1
      }
    },
    {
      "type": "Feature",
      "geometry": {
        "type": "Point",
        "coordinates": [
          410179.45628,
          4687819.948598
        ]
      },
      "properties": {
        "subtype": "burial_mound",
        "confidence": 0.2,
        "vote_count": 1,
        "total_passes": 5,
        "contributing_passes": [
          "pass_04"
        ],
        "source_tiles": [
          "K-35-052-4_32635_x2240_y3584.png"
        ],
        "cluster_size": 1
      }
    },
    {
      "type": "Feature",
      "geometry": {
        "type": "Point",
        "coordinates": [
          414347.950133,
          4699277.53493
        ]
      },
      "properties": {
        "subtype": "burial_mound",
        "confidence": 0.2,
        "vote_count": 1,
        "total_passes": 5,
        "contributing_passes": [
          "pass_04"
        ],
        "source_tiles": [
          "K-35-052-4_32635_x3136_y896.png"
        ],
        "cluster_size": 1
      }
    },
    {
      "type": "Feature",
      "geometry": {
        "type": "Point",
        "coordinates": [
          412858.835867,
          4699055.642796
        ]
      },
      "properties": {
        "subtype": "burial_mound",
        "confidence": 0.2,
        "vote_count": 1,
        "total_passes": 5,
        "contributing_passes": [
          "pass_04"
        ],
        "source_tiles": [
          "K-35-052-4_32635_x3136_y896.png"
        ],
        "cluster_size": 1
      }
    },
    {
      "type": "Feature",
      "geometry": {
        "type": "Point",
        "coordinates": [
          426605.313118,
          4693790.405738
        ]
      },
      "properties": {
        "subtype": "burial_mound",
        "confidence": 0.4,
        "vote_count": 2,
        "total_passes": 5,
        "contributing_passes": [
          "pass_04",
          "pass_05"
        ],
        "source_tiles": [
          "K-35-053-3_Elenovo_x1792_y2240.png"
        ],
        "cluster_size": 2
      }
    },
    {
      "type": "Feature",
      "geometry": {
        "type": "Point",
        "coordinates": [
          427275.450693,
          4692777.183376
        ]
      },
      "properties": {
        "subtype": "burial_mound",
        "confidence": 0.2,
        "vote_count": 1,
        "total_passes": 5,
        "contributing_passes": [
          "pass_04"
        ],
        "source_tiles": [
          "K-35-053-3_Elenovo_x1792_y2240.png"
        ],
        "cluster_size": 1
      }
    },
    {
      "type": "Feature",
      "geometry": {
        "type": "Point",
        "coordinates": [
          427901.33995,
          4693908.401254
        ]
      },
      "properties": {
        "subtype": "burial_mound",
        "confidence": 0.2,
        "vote_count": 1,
        "total_passes": 5,
        "contributing_passes": [
          "pass_04"
        ],
        "source_tiles": [
          "K-35-053-3_Elenovo_x1792_y2240.png"
        ],
        "cluster_size": 1
      }
    },
    {
      "type": "Feature",
      "geometry": {
        "type": "Point",
        "coordinates": [
          427416.532288,
          4693991.767651
        ]
      },
      "properties": {
        "subtype": "burial_mound",
        "confidence": 0.2,
        "vote_count": 1,
        "total_passes": 5,
        "contributing_passes": [
          "pass_04"
        ],
        "source_tiles": [
          "K-35-053-3_Elenovo_x1792_y2240.png"
        ],
        "cluster_size": 1
      }
    },
    {
      "type": "Feature",
      "geometry": {
        "type": "Point",
        "coordinates": [
          428659.332882,
          4693963.551332
        ]
      },
      "properties": {
        "subtype": "burial_mound",
        "confidence": 0.2,
        "vote_count": 1,
        "total_passes": 5,
        "contributing_passes": [
          "pass_04"
        ],
        "source_tiles": [
          "K-35-053-3_Elenovo_x1792_y2240.png"
        ],
        "cluster_size": 1
      }
    },
    {
      "type": "Feature",
      "geometry": {
        "type": "Point",
        "coordinates": [
          320193.837243,
          4673357.815616
        ]
      },
      "properties": {
        "subtype": "burial_mound",
        "confidence": 0.2,
        "vote_count": 1,
        "total_passes": 5,
        "contributing_passes": [
          "pass_04"
        ],
        "source_tiles": [
          "K-35-062-2_Rakovski_x896_y3136.png"
        ],
        "cluster_size": 1
      }
    },
    {
      "type": "Feature",
      "geometry": {
        "type": "Point",
        "coordinates": [
          467371.560152,
          4649097.610492
        ]
      },
      "properties": {
        "subtype": "burial_mound",
        "confidence": 0.2,
        "vote_count": 1,
        "total_passes": 5,
        "contributing_passes": [
          "pass_04"
        ],
        "source_tiles": [
          "K-35-078-1_Lesovo_x1344_y0.png"
        ],
        "cluster_size": 1
      }
    },
    {
      "type": "Feature",
      "geometry": {
        "type": "Point",
        "coordinates": [
          466159.498632,
          4647611.192858
        ]
      },
      "properties": {
        "subtype": "burial_mound",
        "confidence": 0.2,
        "vote_count": 1,
        "total_passes": 5,
        "contributing_passes": [
          "pass_04"
        ],
        "source_tiles": [
          "K-35-078-1_Lesovo_x1344_y0.png"
        ],
        "cluster_size": 1
      }
    },
    {
      "type": "Feature",
      "geometry": {
        "type": "Point",
        "coordinates": [
          475643.461408,
          4635069.383059
        ]
      },
      "properties": {
        "subtype": "burial_mound",
        "confidence": 0.2,
        "vote_count": 1,
        "total_passes": 5,
        "contributing_passes": [
          "pass_04"
        ],
        "source_tiles": [
          "K-35-078-1_Lesovo_x3136_y2688.png"
        ],
        "cluster_size": 1
      }
    },
    {
      "type": "Feature",
      "geometry": {
        "type": "Point",
        "coordinates": [
          477678.591271,
          4633988.70334
        ]
      },
      "properties": {
        "subtype": "burial_mound",
        "confidence": 0.2,
        "vote_count": 1,
        "total_passes": 5,
        "contributing_passes": [
          "pass_04"
        ],
        "source_tiles": [
          "K-35-078-1_Lesovo_x3584_y3136.png"
        ],
        "cluster_size": 1
      }
    },
    {
      "type": "Feature",
      "geometry": {
        "type": "Point",
        "coordinates": [
          464472.144124,
          4633406.501632
        ]
      },
      "properties": {
        "subtype": "burial_mound",
        "confidence": 0.2,
        "vote_count": 1,
        "total_passes": 5,
        "contributing_passes": [
          "pass_04"
        ],
        "source_tiles": [
          "K-35-078-1_Lesovo_x896_y3136.png"
        ],
        "cluster_size": 1
      }
    },
    {
      "type": "Feature",
      "geometry": {
        "type": "Point",
        "coordinates": [
          404615.478948,
          4696727.699306
        ]
      },
      "properties": {
        "subtype": "burial_mound",
        "confidence": 0.2,
        "vote_count": 1,
        "total_passes": 5,
        "contributing_passes": [
          "pass_05"
        ],
        "source_tiles": [
          "K-35-052-4_32635_x1344_y1344.png"
        ],
        "cluster_size": 1
      }
    },
    {
      "type": "Feature",
      "geometry": {
        "type": "Point",
        "coordinates": [
          410185.869348,
          4687799.426782
        ]
      },
      "properties": {
        "subtype": "triangulation_mound",
        "confidence": 0.2,
        "vote_count": 1,
        "total_passes": 5,
        "contributing_passes": [
          "pass_05"
        ],
        "source_tiles": [
          "K-35-052-4_32635_x2240_y3584.png"
        ],
        "cluster_size": 1
      }
    },
    {
      "type": "Feature",
      "geometry": {
        "type": "Point",
        "coordinates": [
          427367.795009,
          4693995.615331
        ]
      },
      "properties": {
        "subtype": "burial_mound",
        "confidence": 0.2,
        "vote_count": 1,
        "total_passes": 5,
        "contributing_passes": [
          "pass_05"
        ],
        "source_tiles": [
          "K-35-053-3_Elenovo_x1792_y2240.png"
        ],
        "cluster_size": 1
      }
    },
    {
      "type": "Feature",
      "geometry": {
        "type": "Point",
        "coordinates": [
          428541.337366,
          4692831.050894
        ]
      },
      "properties": {
        "subtype": "burial_mound",
        "confidence": 0.2,
        "vote_count": 1,
        "total_passes": 5,
        "contributing_passes": [
          "pass_05"
        ],
        "source_tiles": [
          "K-35-053-3_Elenovo_x1792_y2240.png"
        ],
        "cluster_size": 1
      }
    },
    {
      "type": "Feature",
      "geometry": {
        "type": "Point",
        "coordinates": [
          428584.944405,
          4694272.64828
        ]
      },
      "properties": {
        "subtype": "burial_mound",
        "confidence": 0.2,
        "vote_count": 1,
        "total_passes": 5,
        "contributing_passes": [
          "pass_05"
        ],
        "source_tiles": [
          "K-35-053-3_Elenovo_x1792_y2240.png"
        ],
        "cluster_size": 1
      }
    },
    {
      "type": "Feature",
      "geometry": {
        "type": "Point",
        "coordinates": [
          428810.674956,
          4693981.507171
        ]
      },
      "properties": {
        "subtype": "burial_mound",
        "confidence": 0.2,
        "vote_count": 1,
        "total_passes": 5,
        "contributing_passes": [
          "pass_05"
        ],
        "source_tiles": [
          "K-35-053-3_Elenovo_x1792_y2240.png"
        ],
        "cluster_size": 1
      }
    },
    {
      "type": "Feature",
      "geometry": {
        "type": "Point",
        "coordinates": [
          428243.783457,
          4694291.88668
        ]
      },
      "properties": {
        "subtype": "burial_mound",
        "confidence": 0.2,
        "vote_count": 1,
        "total_passes": 5,
        "contributing_passes": [
          "pass_05"
        ],
        "source_tiles": [
          "K-35-053-3_Elenovo_x1792_y2240.png"
        ],
        "cluster_size": 1
      }
    },
    {
      "type": "Feature",
      "geometry": {
        "type": "Point",
        "coordinates": [
          422272.184318,
          4697690.670553
        ]
      },
      "properties": {
        "subtype": "burial_mound",
        "confidence": 0.2,
        "vote_count": 1,
        "total_passes": 5,
        "contributing_passes": [
          "pass_05"
        ],
        "source_tiles": [
          "K-35-053-3_Elenovo_x896_y1344.png"
        ],
        "cluster_size": 1
      }
    },
    {
      "type": "Feature",
      "geometry": {
        "type": "Point",
        "coordinates": [
          422422.243833,
          4698775.716274
        ]
      },
      "properties": {
        "subtype": "burial_mound",
        "confidence": 0.2,
        "vote_count": 1,
        "total_passes": 5,
        "contributing_passes": [
          "pass_05"
        ],
        "source_tiles": [
          "K-35-053-3_Elenovo_x896_y1344.png"
        ],
        "cluster_size": 1
      }
    },
    {
      "type": "Feature",
      "geometry": {
        "type": "Point",
        "coordinates": [
          319221.226319,
          4673062.306352
        ]
      },
      "properties": {
        "subtype": "burial_mound",
        "confidence": 0.2,
        "vote_count": 1,
        "total_passes": 5,
        "contributing_passes": [
          "pass_05"
        ],
        "source_tiles": [
          "K-35-062-2_Rakovski_x896_y3136.png"
        ],
        "cluster_size": 1
      }
    },
    {
      "type": "Feature",
      "geometry": {
        "type": "Point",
        "coordinates": [
          320422.535716,
          4672863.158805
        ]
      },
      "properties": {
        "subtype": "burial_mound",
        "confidence": 0.2,
        "vote_count": 1,
        "total_passes": 5,
        "contributing_passes": [
          "pass_05"
        ],
        "source_tiles": [
          "K-35-062-2_Rakovski_x896_y3136.png"
        ],
        "cluster_size": 1
      }
    },
    {
      "type": "Feature",
      "geometry": {
        "type": "Point",
        "coordinates": [
          320171.995253,
          4673397.645125
        ]
      },
      "properties": {
        "subtype": "burial_mound",
        "confidence": 0.2,
        "vote_count": 1,
        "total_passes": 5,
        "contributing_passes": [
          "pass_05"
        ],
        "source_tiles": [
          "K-35-062-2_Rakovski_x896_y3136.png"
        ],
        "cluster_size": 1
      }
    },
    {
      "type": "Feature",
      "geometry": {
        "type": "Point",
        "coordinates": [
          467415.354086,
          4649092.458264
        ]
      },
      "properties": {
        "subtype": "triangulation_mound",
        "confidence": 0.2,
        "vote_count": 1,
        "total_passes": 5,
        "contributing_passes": [
          "pass_05"
        ],
        "source_tiles": [
          "K-35-078-1_Lesovo_x1344_y0.png"
        ],
        "cluster_size": 1
      }
    }
  ]
}