{"type": "FeatureCollection", "name": "text-1of5", "crs": {"type": "name", "properties": {"name": "urn:ogc:def:crs:EPSG::32635"}}, "features": [{"type": "Feature", "properties": {"source_tile": "K-35-052-4_32635_x0_y0.png", "subtype": "burial_mound", "vote_count": 5, "total_passes": 5}, "geometry": {"type": "Point", "coordinates": [397532.24593360006, 4705078.5392358]}}, {"type": "Feature", "properties": {"source_tile": "K-35-052-4_32635_x0_y1120.png", "subtype": "burial_mound", "vote_count": 5, "total_passes": 5}, "geometry": {"type": "Point", "coordinates": [397413.60418559995, 4699529.0554359]}}, {"type": "Feature", "properties": {"source_tile": "K-35-052-4_32635_x0_y1344.png", "subtype": "burial_mound", "vote_count": 5, "total_passes": 5}, "geometry": {"type": "Point", "coordinates": [397596.12008569995, 4698867.4833962]}}, {"type": "Feature", "properties": {"source_tile": "K-35-052-4_32635_x0_y1568.png", "subtype": "burial_mound", "vote_count": 5, "total_passes": 5}, "geometry": {"type": "Point", "coordinates": [397241.3491933, 4697712.2334233]}}, {"type": "Feature", "properties": {"source_tile": "K-35-052-4_32635_x0_y1792.png", "subtype": "benchmark_mound", "vote_count": 5, "total_passes": 5}, "geometry": {"type": "Point", "coordinates": [397732.20537740004, 4696127.436191499]}}, {"type": "Feature", "properties": {"source_tile": "K-35-052-4_32635_x0_y2016.png", "subtype": "burial_mound", "vote_count": 5, "total_passes": 5}, "geometry": {"type": "Point", "coordinates": [397289.96024489996, 4695074.410513301]}}, {"type": "Feature", "properties": {"source_tile": "K-35-052-4_32635_x0_y224.png", "subtype": "burial_mound", "vote_count": 5, "total_passes": 5}, "geometry": {"type": "Point", "coordinates": [397748.1097848, 4704165.446689701]}}, {"type": "Feature", "properties": {"source_tile": "K-35-052-4_32635_x0_y2240.png", "subtype": "burial_mound", "vote_count": 5, "total_passes": 5}, "geometry": {"type": "Point", "coordinates": [397418.7346394, 4694750.2940838]}}, {"type": "Feature", "properties": {"source_tile": "K-35-052-4_32635_x0_y2464.png", "subtype": "triangulation_mound", "vote_count": 5, "total_passes": 5}, "geometry": {"type": "Point", "coordinates": [397583.67873439996, 4692799.1824385]}}, {"type": "Feature", "properties": {"source_tile": "K-35-052-4_32635_x0_y2688.png", "subtype": "burial_mound", "vote_count": 5, "total_passes": 5}, "geometry": {"type": "Point", "coordinates": [397141.56186370004, 4691908.2791064]}}, {"type": "Feature", "properties": {"source_tile": "K-35-052-4_32635_x0_y2912.png", "subtype": "burial_mound", "vote_count": 5, "total_passes": 5}, "geometry": {"type": "Point", "coordinates": [397219.544764, 4691078.8129605]}}, {"type": "Feature", "properties": {"source_tile": "K-35-052-4_32635_x0_y3136.png", "subtype": "burial_mound", "vote_count": 5, "total_passes": 5}, "geometry": {"type": "Point", "coordinates": [397636.650672, 4689929.9760549]}}]}