{
"type": "FeatureCollection",
"name": "text-min-t07-5pass-n30lineage-4of5-n1-pt0.15",
"crs": { "type": "name", "properties": { "name": "urn:ogc:def:crs:OGC:1.3:CRS84" } },
"features": [
{ "type": "Feature", "properties": { "source_tile": "K-35-052-4_32635_x0_y1008.png" }, "geometry": { "type": "Point", "coordinates": [ 25.763051891877225, 42.446601863067862 ] } },
{ "type": "Feature", "properties": { "source_tile": "K-35-052-4_32635_x0_y1344.png" }, "geometry": { "type": "Point", "coordinates": [ 25.750883590453086, 42.424913230518172 ] } },
{ "type": "Feature", "properties": { "source_tile": "K-35-052-4_32635_x0_y1680.png" }, "geometry": { "type": "Point", "coordinates": [ 25.764898695403478, 42.420289940465778 ] } },
{ "type": "Feature", "properties": { "source_tile": "K-35-052-4_32635_x0_y1680.png" }, "geometry": { "type": "Point", "coordinates": [ 25.76579364327133, 42.420802048210483 ] } },
{ "type": "Feature", "properties": { "source_tile": "K-35-052-4_32635_x0_y2016.png" }, "geometry": { "type": "Point", "coordinates": [ 25.751911254186059, 42.401162891280038 ] } },
{ "type": "Feature", "properties": { "source_tile": "K-35-052-4_32635_x0_y2016.png" }, "geometry": { "type": "Point", "coordinates": [ 25.764824857815711, 42.39366696976122 ] } },
{ "type": "Feature", "properties": { "source_tile": "K-35-052-4_32635_x0_y2016.png" }, "geometry": { "type": "Point", "coordinates": [ 25.764829052231267, 42.392618758984668 ] } },
{ "type": "Feature", "properties": { "source_tile": "K-35-052-4_32635_x0_y2016.png" }, "geometry": { "type": "Point", "coordinates": [ 25.768689158011284, 42.393585525881264 ] } },
{ "type": "Feature", "properties": { "source_tile": "K-35-052-4_32635_x0_y2352.png" }, "geometry": { "type": "Point", "coordinates": [ 25.763930093300829, 42.3894729631253 ] } },
{ "type": "Feature", "properties": { "source_tile": "K-35-052-4_32635_x0_y2352.png" }, "geometry": { "type": "Point", "coordinates": [ 25.766094445242029, 42.390548003137901 ] } },
{ "type": "Feature", "properties": { "source_tile": "K-35-052-4_32635_x0_y2352.png" }, "geometry": { "type": "Point", "coordinates": [ 25.769367813418871, 42.384751936944895 ] } },
{ "type": "Feature", "properties": { "source_tile": "K-35-052-4_32635_x0_y2352.png" }, "geometry": { "type": "Point", "coordinates": [ 25.769834904452843, 42.383752009192818 ] } },
{ "type": "Feature", "properties": { "source_tile": "K-35-052-4_32635_x0_y2352.png" }, "geometry": { "type": "Point", "coordinates": [ 25.769078856269218, 42.385784963382925 ] } },
{ "type": "Feature", "properties": { "source_tile": "K-35-052-4_32635_x0_y2688.png" }, "geometry": { "type": "Point", "coordinates": [ 25.751804939704915, 42.365238564533861 ] } },
{ "type": "Feature", "properties": { "source_tile": "K-35-052-4_32635_x0_y2688.png" }, "geometry": { "type": "Point", "coordinates": [ 25.769330993751431, 42.366892150847256 ] } },
{ "type": "Feature", "properties": { "source_tile": "K-35-052-4_32635_x0_y2688.png" }, "geometry": { "type": "Point", "coordinates": [ 25.750742464908871, 42.372635848151923 ] } },
{ "type": "Feature", "properties": { "source_tile": "K-35-052-4_32635_x0_y3024.png" }, "geometry": { "type": "Point", "coordinates": [ 25.757127521188632, 42.35491773914827 ] } },
{ "type": "Feature", "properties": { "source_tile": "K-35-052-4_32635_x0_y336.png" }, "geometry": { "type": "Point", "coordinates": [ 25.767900473189698, 42.471063461190489 ] } },
{ "type": "Feature", "properties": { "source_tile": "K-35-052-4_32635_x0_y672.png" }, "geometry": { "type": "Point", "coordinates": [ 25.762301518298717, 42.466946170255689 ] } },
{ "type": "Feature", "properties": { "source_tile": "K-35-052-4_32635_x1008_y336.png" }, "geometry": { "type": "Point", "coordinates": [ 25.82702437438342, 42.479136783315639 ] } },
{ "type": "Feature", "properties": { "source_tile": "K-35-052-4_32635_x1008_y3360.png" }, "geometry": { "type": "Point", "coordinates": [ 25.824450293849431, 42.338250875597815 ] } },
{ "type": "Feature", "properties": { "source_tile": "K-35-052-4_32635_x1008_y672.png" }, "geometry": { "type": "Point", "coordinates": [ 25.825969102437401, 42.466470811651817 ] } },
{ "type": "Feature", "properties": { "source_tile": "K-35-052-4_32635_x1344_y336.png" }, "geometry": { "type": "Point", "coordinates": [ 25.835942413644858, 42.472693950516629 ] } },
{ "type": "Feature", "properties": { "source_tile": "K-35-052-4_32635_x1680_y0.png" }, "geometry": { "type": "Point", "coordinates": [ 25.863826993696364, 42.494910666360212 ] } },
{ "type": "Feature", "properties": { "source_tile": "K-35-052-4_32635_x1680_y0.png" }, "geometry": { "type": "Point", "coordinates": [ 25.864866671429326, 42.485840245516549 ] } },
{ "type": "Feature", "properties": { "source_tile": "K-35-052-4_32635_x2016_y0.png" }, "geometry": { "type": "Point", "coordinates": [ 25.870882683906011, 42.496782339312439 ] } },
{ "type": "Feature", "properties": { "source_tile": "K-35-052-4_32635_x2016_y0.png" }, "geometry": { "type": "Point", "coordinates": [ 25.871029049816404, 42.496064739701637 ] } },
{ "type": "Feature", "properties": { "source_tile": "K-35-052-4_32635_x2016_y1008.png" }, "geometry": { "type": "Point", "coordinates": [ 25.879928049097703, 42.450280479928502 ] } },
{ "type": "Feature", "properties": { "source_tile": "K-35-052-4_32635_x2016_y1008.png" }, "geometry": { "type": "Point", "coordinates": [ 25.873045385130574, 42.451429326650491 ] } },
{ "type": "Feature", "properties": { "source_tile": "K-35-052-4_32635_x2016_y3024.png" }, "geometry": { "type": "Point", "coordinates": [ 25.88387158602205, 42.36330316579209 ] } },
{ "type": "Feature", "properties": { "source_tile": "K-35-052-4_32635_x2016_y3024.png" }, "geometry": { "type": "Point", "coordinates": [ 25.890870132673612, 42.359654509054572 ] } },
{ "type": "Feature", "properties": { "source_tile": "K-35-052-4_32635_x2016_y336.png" }, "geometry": { "type": "Point", "coordinates": [ 25.885722955297954, 42.481699485530761 ] } },
{ "type": "Feature", "properties": { "source_tile": "K-35-052-4_32635_x2352_y1008.png" }, "geometry": { "type": "Point", "coordinates": [ 25.904383193463168, 42.453680674737939 ] } },
{ "type": "Feature", "properties": { "source_tile": "K-35-052-4_32635_x2352_y3024.png" }, "geometry": { "type": "Point", "coordinates": [ 25.896088339648685, 42.363312295816463 ] } },
{ "type": "Feature", "properties": { "source_tile": "K-35-052-4_32635_x2352_y3024.png" }, "geometry": { "type": "Point", "coordinates": [ 25.902523157715081, 42.351205515763716 ] } },
{ "type": "Feature", "properties": { "source_tile": "K-35-052-4_32635_x2352_y3024.png" }, "geometry": { "type": "Point", "coordinates": [ 25.906633819110077, 42.352721030811324 ] } },
{ "type": "Feature", "properties": { "source_tile": "K-35-052-4_32635_x2352_y336.png" }, "geometry": { "type": "Point", "coordinates": [ 25.903243750139854, 42.478881436237991 ] } },
{ "type": "Feature", "properties": { "source_tile": "K-35-052-4_32635_x2688_y1008.png" }, "geometry": { "type": "Point", "coordinates": [ 25.918262847302085, 42.439656785445791 ] } },
{ "type": "Feature", "properties": { "source_tile": "K-35-052-4_32635_x2688_y1344.png" }, "geometry": { "type": "Point", "coordinates": [ 25.926831426279655, 42.424917960358066 ] } },
{ "type": "Feature", "properties": { "source_tile": "K-35-052-4_32635_x2688_y1680.png" }, "geometry": { "type": "Point", "coordinates": [ 25.921072331033951, 42.41415088511679 ] } },
{ "type": "Feature", "properties": { "source_tile": "K-35-052-4_32635_x2688_y336.png" }, "geometry": { "type": "Point", "coordinates": [ 25.915890302110945, 42.468989710064989 ] } },
{ "type": "Feature", "properties": { "source_tile": "K-35-052-4_32635_x3024_y2016.png" }, "geometry": { "type": "Point", "coordinates": [ 25.94410680160761, 42.408145139065645 ] } },
{ "type": "Feature", "properties": { "source_tile": "K-35-052-4_32635_x3024_y2016.png" }, "geometry": { "type": "Point", "coordinates": [ 25.948669344130522, 42.39450250852309 ] } },
{ "type": "Feature", "properties": { "source_tile": "K-35-052-4_32635_x3024_y2352.png" }, "geometry": { "type": "Point", "coordinates": [ 25.939946307726114, 42.381962575354159 ] } },
{ "type": "Feature", "properties": { "source_tile": "K-35-052-4_32635_x3024_y3024.png" }, "geometry": { "type": "Point", "coordinates": [ 25.946290971143625, 42.351761245855194 ] } },
{ "type": "Feature", "properties": { "source_tile": "K-35-052-4_32635_x3024_y3024.png" }, "geometry": { "type": "Point", "coordinates": [ 25.946151976087968, 42.350817825211863 ] } },
{ "type": "Feature", "properties": { "source_tile": "K-35-052-4_32635_x3024_y3024.png" }, "geometry": { "type": "Point", "coordinates": [ 25.946166544014826, 42.357286039075717 ] } },
{ "type": "Feature", "properties": { "source_tile": "K-35-052-4_32635_x3024_y3024.png" }, "geometry": { "type": "Point", "coordinates": [ 25.945845450335998, 42.354273429595658 ] } },
{ "type": "Feature", "properties": { "source_tile": "K-35-052-4_32635_x3360_y2016.png" }, "geometry": { "type": "Point", "coordinates": [ 25.967624827825755, 42.399612881334726 ] } },
{ "type": "Feature", "properties": { "source_tile": "K-35-052-4_32635_x3360_y2352.png" }, "geometry": { "type": "Point", "coordinates": [ 25.970218230992081, 42.38511993159802 ] } },
{ "type": "Feature", "properties": { "source_tile": "K-35-052-4_32635_x3360_y2688.png" }, "geometry": { "type": "Point", "coordinates": [ 25.959145449393048, 42.370779116750725 ] } },
{ "type": "Feature", "properties": { "source_tile": "K-35-052-4_32635_x3360_y3360.png" }, "geometry": { "type": "Point", "coordinates": [ 25.959124341759477, 42.333766338661817 ] } },
{ "type": "Feature", "properties": { "source_tile": "K-35-052-4_32635_x336_y1008.png" }, "geometry": { "type": "Point", "coordinates": [ 25.77511280768239, 42.446701076956856 ] } },
{ "type": "Feature", "properties": { "source_tile": "K-35-052-4_32635_x336_y1344.png" }, "geometry": { "type": "Point", "coordinates": [ 25.786428533382896, 42.437413210372881 ] } },
{ "type": "Feature", "properties": { "source_tile": "K-35-052-4_32635_x336_y1680.png" }, "geometry": { "type": "Point", "coordinates": [ 25.775174282763771, 42.421476180505721 ] } },
{ "type": "Feature", "properties": { "source_tile": "K-35-052-4_32635_x336_y1680.png" }, "geometry": { "type": "Point", "coordinates": [ 25.788246444455122, 42.413775755671637 ] } },
{ "type": "Feature", "properties": { "source_tile": "K-35-052-4_32635_x336_y1680.png" }, "geometry": { "type": "Point", "coordinates": [ 25.786285611099835, 42.413665777976682 ] } },
{ "type": "Feature", "properties": { "source_tile": "K-35-052-4_32635_x336_y2016.png" }, "geometry": { "type": "Point", "coordinates": [ 25.772628523563181, 42.405243480704748 ] } },
{ "type": "Feature", "properties": { "source_tile": "K-35-052-4_32635_x336_y2016.png" }, "geometry": { "type": "Point", "coordinates": [ 25.773862276630229, 42.393152368871924 ] } },
{ "type": "Feature", "properties": { "source_tile": "K-35-052-4_32635_x336_y2016.png" }, "geometry": { "type": "Point", "coordinates": [ 25.776001010414603, 42.392734265367558 ] } },
{ "type": "Feature", "properties": { "source_tile": "K-35-052-4_32635_x336_y2352.png" }, "geometry": { "type": "Point", "coordinates": [ 25.785760463814448, 42.384884298659976 ] } },
{ "type": "Feature", "properties": { "source_tile": "K-35-052-4_32635_x336_y2352.png" }, "geometry": { "type": "Point", "coordinates": [ 25.772404804162342, 42.387578409876994 ] } },
{ "type": "Feature", "properties": { "source_tile": "K-35-052-4_32635_x336_y2352.png" }, "geometry": { "type": "Point", "coordinates": [ 25.775499727688203, 42.387077853783573 ] } },
{ "type": "Feature", "properties": { "source_tile": "K-35-052-4_32635_x336_y336.png" }, "geometry": { "type": "Point", "coordinates": [ 25.780442230156744, 42.477527350843488 ] } },
{ "type": "Feature", "properties": { "source_tile": "K-35-052-4_32635_x336_y336.png" }, "geometry": { "type": "Point", "coordinates": [ 25.779973482186268, 42.469788324991576 ] } },
{ "type": "Feature", "properties": { "source_tile": "K-35-052-4_32635_x336_y3360.png" }, "geometry": { "type": "Point", "coordinates": [ 25.789201320566924, 42.34117957428753 ] } },
{ "type": "Feature", "properties": { "source_tile": "K-35-052-4_32635_x3696_y1344.png" }, "geometry": { "type": "Point", "coordinates": [ 25.972441256965922, 42.433368505924904 ] } },
{ "type": "Feature", "properties": { "source_tile": "K-35-052-4_32635_x3696_y1344.png" }, "geometry": { "type": "Point", "coordinates": [ 25.984304993296742, 42.426969859940108 ] } },
{ "type": "Feature", "properties": { "source_tile": "K-35-052-4_32635_x3696_y2016.png" }, "geometry": { "type": "Point", "coordinates": [ 25.987001389345071, 42.39719714771028 ] } },
{ "type": "Feature", "properties": { "source_tile": "K-35-052-4_32635_x3696_y2352.png" }, "geometry": { "type": "Point", "coordinates": [ 25.989299560013404, 42.384652128744577 ] } },
{ "type": "Feature", "properties": { "source_tile": "K-35-052-4_32635_x3696_y2688.png" }, "geometry": { "type": "Point", "coordinates": [ 25.984803013174602, 42.376082460414693 ] } },
{ "type": "Feature", "properties": { "source_tile": "K-35-052-4_32635_x672_y0.png" }, "geometry": { "type": "Point", "coordinates": [ 25.78862436265506, 42.497517269588016 ] } },
{ "type": "Feature", "properties": { "source_tile": "K-35-052-4_32635_x672_y1008.png" }, "geometry": { "type": "Point", "coordinates": [ 25.803686091248412, 42.448872408997133 ] } },
{ "type": "Feature", "properties": { "source_tile": "K-35-052-4_32635_x672_y1008.png" }, "geometry": { "type": "Point", "coordinates": [ 25.805767152328777, 42.438956543120909 ] } },
{ "type": "Feature", "properties": { "source_tile": "K-35-052-4_32635_x672_y1008.png" }, "geometry": { "type": "Point", "coordinates": [ 25.80038529959112, 42.440396477059799 ] } },
{ "type": "Feature", "properties": { "source_tile": "K-35-052-4_32635_x672_y1344.png" }, "geometry": { "type": "Point", "coordinates": [ 25.795436727473152, 42.422805874211129 ] } },
{ "type": "Feature", "properties": { "source_tile": "K-35-052-4_32635_x672_y1680.png" }, "geometry": { "type": "Point", "coordinates": [ 25.793176825862041, 42.410716798149153 ] } },
{ "type": "Feature", "properties": { "source_tile": "K-35-052-4_32635_x672_y2352.png" }, "geometry": { "type": "Point", "coordinates": [ 25.802734072616701, 42.385319268442679 ] } },
{ "type": "Feature", "properties": { "source_tile": "K-35-052-4_32635_x672_y2352.png" }, "geometry": { "type": "Point", "coordinates": [ 25.794533667530803, 42.38649989990504 ] } },
{ "type": "Feature", "properties": { "source_tile": "K-35-052-4_32635_x672_y2352.png" }, "geometry": { "type": "Point", "coordinates": [ 25.800534072310249, 42.387566052347765 ] } },
{ "type": "Feature", "properties": { "source_tile": "K-35-052-4_32635_x672_y2352.png" }, "geometry": { "type": "Point", "coordinates": [ 25.798215426180278, 42.388213172300624 ] } },
{ "type": "Feature", "properties": { "source_tile": "K-35-053-3_Elenovo_x0_y1008.png" }, "geometry": { "type": "Point", "coordinates": [ 26.004085801934931, 42.452546124270995 ] } },
{ "type": "Feature", "properties": { "source_tile": "K-35-053-3_Elenovo_x0_y1344.png" }, "geometry": { "type": "Point", "coordinates": [ 26.014648584680373, 42.428919243014981 ] } },
{ "type": "Feature", "properties": { "source_tile": "K-35-053-3_Elenovo_x0_y1680.png" }, "geometry": { "type": "Point", "coordinates": [ 26.010479538851929, 42.417709876492481 ] } },
{ "type": "Feature", "properties": { "source_tile": "K-35-053-3_Elenovo_x0_y1680.png" }, "geometry": { "type": "Point", "coordinates": [ 26.007425424541779, 42.415207601847186 ] } },
{ "type": "Feature", "properties": { "source_tile": "K-35-053-3_Elenovo_x0_y1680.png" }, "geometry": { "type": "Point", "coordinates": [ 26.002945214876032, 42.41330098844405 ] } },
{ "type": "Feature", "properties": { "source_tile": "K-35-053-3_Elenovo_x0_y1680.png" }, "geometry": { "type": "Point", "coordinates": [ 26.00480540089643, 42.41314086268379 ] } },
{ "type": "Feature", "properties": { "source_tile": "K-35-053-3_Elenovo_x0_y1680.png" }, "geometry": { "type": "Point", "coordinates": [ 26.003790195609248, 42.412947956566548 ] } },
{ "type": "Feature", "properties": { "source_tile": "K-35-053-3_Elenovo_x0_y1680.png" }, "geometry": { "type": "Point", "coordinates": [ 26.005495251654992, 42.410396796673112 ] } },
{ "type": "Feature", "properties": { "source_tile": "K-35-053-3_Elenovo_x0_y2016.png" }, "geometry": { "type": "Point", "coordinates": [ 26.002072915605581, 42.405347738185064 ] } },
{ "type": "Feature", "properties": { "source_tile": "K-35-053-3_Elenovo_x0_y2016.png" }, "geometry": { "type": "Point", "coordinates": [ 26.002997775359496, 42.396400013173043 ] } },
{ "type": "Feature", "properties": { "source_tile": "K-35-053-3_Elenovo_x0_y2688.png" }, "geometry": { "type": "Point", "coordinates": [ 26.006240544077361, 42.362869454529104 ] } },
{ "type": "Feature", "properties": { "source_tile": "K-35-053-3_Elenovo_x0_y336.png" }, "geometry": { "type": "Point", "coordinates": [ 26.002726260256459, 42.479170025789138 ] } },
{ "type": "Feature", "properties": { "source_tile": "K-35-053-3_Elenovo_x0_y336.png" }, "geometry": { "type": "Point", "coordinates": [ 26.003545437475939, 42.477549401573334 ] } },
{ "type": "Feature", "properties": { "source_tile": "K-35-053-3_Elenovo_x0_y672.png" }, "geometry": { "type": "Point", "coordinates": [ 25.999811403780324, 42.460114047372507 ] } },
{ "type": "Feature", "properties": { "source_tile": "K-35-053-3_Elenovo_x0_y672.png" }, "geometry": { "type": "Point", "coordinates": [ 26.003659402210499, 42.461807370557864 ] } },
{ "type": "Feature", "properties": { "source_tile": "K-35-053-3_Elenovo_x1008_y0.png" }, "geometry": { "type": "Point", "coordinates": [ 26.058975562546728, 42.499073859884561 ] } },
{ "type": "Feature", "properties": { "source_tile": "K-35-053-3_Elenovo_x1008_y0.png" }, "geometry": { "type": "Point", "coordinates": [ 26.077376359188424, 42.497547220073884 ] } },
{ "type": "Feature", "properties": { "source_tile": "K-35-053-3_Elenovo_x1008_y0.png" }, "geometry": { "type": "Point", "coordinates": [ 26.071043965685497, 42.492591163444004 ] } },
{ "type": "Feature", "properties": { "source_tile": "K-35-053-3_Elenovo_x1008_y0.png" }, "geometry": { "type": "Point", "coordinates": [ 26.076647002155386, 42.48394327172619 ] } },
{ "type": "Feature", "properties": { "source_tile": "K-35-053-3_Elenovo_x1008_y2016.png" }, "geometry": { "type": "Point", "coordinates": [ 26.075120343825326, 42.39745853398216 ] } },
{ "type": "Feature", "properties": { "source_tile": "K-35-053-3_Elenovo_x1008_y3024.png" }, "geometry": { "type": "Point", "coordinates": [ 26.080224059435874, 42.346960376217858 ] } },
{ "type": "Feature", "properties": { "source_tile": "K-35-053-3_Elenovo_x1008_y3024.png" }, "geometry": { "type": "Point", "coordinates": [ 26.063316520250982, 42.360454799208391 ] } },
{ "type": "Feature", "properties": { "source_tile": "K-35-053-3_Elenovo_x1008_y3024.png" }, "geometry": { "type": "Point", "coordinates": [ 26.075497545728446, 42.346937738305662 ] } },
{ "type": "Feature", "properties": { "source_tile": "K-35-053-3_Elenovo_x1344_y0.png" }, "geometry": { "type": "Point", "coordinates": [ 26.090955462349996, 42.494176739724431 ] } },
{ "type": "Feature", "properties": { "source_tile": "K-35-053-3_Elenovo_x1344_y0.png" }, "geometry": { "type": "Point", "coordinates": [ 26.094350941855645, 42.492985626547821 ] } },
{ "type": "Feature", "properties": { "source_tile": "K-35-053-3_Elenovo_x1344_y0.png" }, "geometry": { "type": "Point", "coordinates": [ 26.09765669682027, 42.490372997983556 ] } },
{ "type": "Feature", "properties": { "source_tile": "K-35-053-3_Elenovo_x1344_y2016.png" }, "geometry": { "type": "Point", "coordinates": [ 26.083056485390664, 42.404513315844405 ] } },
{ "type": "Feature", "properties": { "source_tile": "K-35-053-3_Elenovo_x1344_y2016.png" }, "geometry": { "type": "Point", "coordinates": [ 26.089293924488359, 42.402241360468835 ] } },
{ "type": "Feature", "properties": { "source_tile": "K-35-053-3_Elenovo_x1344_y2016.png" }, "geometry": { "type": "Point", "coordinates": [ 26.0966588348135, 42.396057951081623 ] } },
{ "type": "Feature", "properties": { "source_tile": "K-35-053-3_Elenovo_x1344_y2352.png" }, "geometry": { "type": "Point", "coordinates": [ 26.100204415905839, 42.388151394102707 ] } },
{ "type": "Feature", "properties": { "source_tile": "K-35-053-3_Elenovo_x1344_y2352.png" }, "geometry": { "type": "Point", "coordinates": [ 26.099074130143912, 42.377680340057836 ] } },
{ "type": "Feature", "properties": { "source_tile": "K-35-053-3_Elenovo_x1344_y2688.png" }, "geometry": { "type": "Point", "coordinates": [ 26.099581854733017, 42.375455188763183 ] } },
{ "type": "Feature", "properties": { "source_tile": "K-35-053-3_Elenovo_x1344_y672.png" }, "geometry": { "type": "Point", "coordinates": [ 26.090510372036256, 42.466722314571605 ] } },
{ "type": "Feature", "properties": { "source_tile": "K-35-053-3_Elenovo_x1344_y672.png" }, "geometry": { "type": "Point", "coordinates": [ 26.091142757802327, 42.465713773152089 ] } },
{ "type": "Feature", "properties": { "source_tile": "K-35-053-3_Elenovo_x1680_y0.png" }, "geometry": { "type": "Point", "coordinates": [ 26.120870122218218, 42.496231055553494 ] } },
{ "type": "Feature", "properties": { "source_tile": "K-35-053-3_Elenovo_x1680_y0.png" }, "geometry": { "type": "Point", "coordinates": [ 26.1126773130492, 42.492314677770132 ] } },
{ "type": "Feature", "properties": { "source_tile": "K-35-053-3_Elenovo_x1680_y1680.png" }, "geometry": { "type": "Point", "coordinates": [ 26.109065515712881, 42.4137105806427 ] } },
{ "type": "Feature", "properties": { "source_tile": "K-35-053-3_Elenovo_x1680_y3024.png" }, "geometry": { "type": "Point", "coordinates": [ 26.115145320878238, 42.34893056788502 ] } },
{ "type": "Feature", "properties": { "source_tile": "K-35-053-3_Elenovo_x1680_y3024.png" }, "geometry": { "type": "Point", "coordinates": [ 26.114462783582812, 42.347385004707768 ] } },
{ "type": "Feature", "properties": { "source_tile": "K-35-053-3_Elenovo_x1680_y3360.png" }, "geometry": { "type": "Point", "coordinates": [ 26.113356470181799, 42.341925649002782 ] } },
{ "type": "Feature", "properties": { "source_tile": "K-35-053-3_Elenovo_x1680_y3360.png" }, "geometry": { "type": "Point", "coordinates": [ 26.114322801218847, 42.341966037389 ] } },
{ "type": "Feature", "properties": { "source_tile": "K-35-053-3_Elenovo_x1680_y3360.png" }, "geometry": { "type": "Point", "coordinates": [ 26.11351957728116, 42.341287575084657 ] } },
{ "type": "Feature", "properties": { "source_tile": "K-35-053-3_Elenovo_x1680_y3360.png" }, "geometry": { "type": "Point", "coordinates": [ 26.117876135394823, 42.338550722521582 ] } },
{ "type": "Feature", "properties": { "source_tile": "K-35-053-3_Elenovo_x1680_y672.png" }, "geometry": { "type": "Point", "coordinates": [ 26.107662319253496, 42.465162677611701 ] } },
{ "type": "Feature", "properties": { "source_tile": "K-35-053-3_Elenovo_x1680_y672.png" }, "geometry": { "type": "Point", "coordinates": [ 26.103276115415927, 42.458011006926888 ] } },
{ "type": "Feature", "properties": { "source_tile": "K-35-053-3_Elenovo_x2016_y0.png" }, "geometry": { "type": "Point", "coordinates": [ 26.122190673876382, 42.491537248388923 ] } },
{ "type": "Feature", "properties": { "source_tile": "K-35-053-3_Elenovo_x2016_y1008.png" }, "geometry": { "type": "Point", "coordinates": [ 26.137188323855526, 42.45058730685038 ] } },
{ "type": "Feature", "properties": { "source_tile": "K-35-053-3_Elenovo_x2016_y336.png" }, "geometry": { "type": "Point", "coordinates": [ 26.129310666168426, 42.479324942041067 ] } },
{ "type": "Feature", "properties": { "source_tile": "K-35-053-3_Elenovo_x2352_y0.png" }, "geometry": { "type": "Point", "coordinates": [ 26.14504674099598, 42.498564088451289 ] } },
{ "type": "Feature", "properties": { "source_tile": "K-35-053-3_Elenovo_x2352_y0.png" }, "geometry": { "type": "Point", "coordinates": [ 26.142519766234301, 42.490902836346237 ] } },
{ "type": "Feature", "properties": { "source_tile": "K-35-053-3_Elenovo_x2688_y1008.png" }, "geometry": { "type": "Point", "coordinates": [ 26.170184228635364, 42.453405563213835 ] } },
{ "type": "Feature", "properties": { "source_tile": "K-35-053-3_Elenovo_x2688_y1680.png" }, "geometry": { "type": "Point", "coordinates": [ 26.173356475373858, 42.418104438470252 ] } },
{ "type": "Feature", "properties": { "source_tile": "K-35-053-3_Elenovo_x2688_y336.png" }, "geometry": { "type": "Point", "coordinates": [ 26.175868712272386, 42.473719518838287 ] } },
{ "type": "Feature", "properties": { "source_tile": "K-35-053-3_Elenovo_x3024_y1680.png" }, "geometry": { "type": "Point", "coordinates": [ 26.186308631776193, 42.419359682054683 ] } },
{ "type": "Feature", "properties": { "source_tile": "K-35-053-3_Elenovo_x3024_y1680.png" }, "geometry": { "type": "Point", "coordinates": [ 26.196352351323323, 42.41145539259783 ] } },
{ "type": "Feature", "properties": { "source_tile": "K-35-053-3_Elenovo_x3024_y1680.png" }, "geometry": { "type": "Point", "coordinates": [ 26.200233748564568, 42.416410045826495 ] } },
{ "type": "Feature", "properties": { "source_tile": "K-35-053-3_Elenovo_x3024_y2016.png" }, "geometry": { "type": "Point", "coordinates": [ 26.196930664616225, 42.407360116515974 ] } },
{ "type": "Feature", "properties": { "source_tile": "K-35-053-3_Elenovo_x3024_y2016.png" }, "geometry": { "type": "Point", "coordinates": [ 26.199350886927363, 42.405117735590579 ] } },
{ "type": "Feature", "properties": { "source_tile": "K-35-053-3_Elenovo_x3024_y2016.png" }, "geometry": { "type": "Point", "coordinates": [ 26.186265808221275, 42.398434784450856 ] } },
{ "type": "Feature", "properties": { "source_tile": "K-35-053-3_Elenovo_x3024_y2352.png" }, "geometry": { "type": "Point", "coordinates": [ 26.18638790824178, 42.389706796992684 ] } },
{ "type": "Feature", "properties": { "source_tile": "K-35-053-3_Elenovo_x3024_y2352.png" }, "geometry": { "type": "Point", "coordinates": [ 26.191828827780984, 42.381163686145406 ] } },
{ "type": "Feature", "properties": { "source_tile": "K-35-053-3_Elenovo_x3024_y672.png" }, "geometry": { "type": "Point", "coordinates": [ 26.202823187048509, 42.468734952426338 ] } },
{ "type": "Feature", "properties": { "source_tile": "K-35-053-3_Elenovo_x3360_y0.png" }, "geometry": { "type": "Point", "coordinates": [ 26.20390827589716, 42.492797606556707 ] } },
{ "type": "Feature", "properties": { "source_tile": "K-35-053-3_Elenovo_x3360_y0.png" }, "geometry": { "type": "Point", "coordinates": [ 26.215480795649075, 42.493140761275598 ] } },
{ "type": "Feature", "properties": { "source_tile": "K-35-053-3_Elenovo_x3360_y0.png" }, "geometry": { "type": "Point", "coordinates": [ 26.221651293502653, 42.489516705319758 ] } },
{ "type": "Feature", "properties": { "source_tile": "K-35-053-3_Elenovo_x3360_y1008.png" }, "geometry": { "type": "Point", "coordinates": [ 26.221501528681905, 42.452972080643619 ] } },
{ "type": "Feature", "properties": { "source_tile": "K-35-053-3_Elenovo_x3360_y1680.png" }, "geometry": { "type": "Point", "coordinates": [ 26.204353393017492, 42.423098813555313 ] } },
{ "type": "Feature", "properties": { "source_tile": "K-35-053-3_Elenovo_x3360_y1680.png" }, "geometry": { "type": "Point", "coordinates": [ 26.21249928081204, 42.417239981797707 ] } },
{ "type": "Feature", "properties": { "source_tile": "K-35-053-3_Elenovo_x3360_y1680.png" }, "geometry": { "type": "Point", "coordinates": [ 26.219635364383507, 42.417273190496687 ] } },
{ "type": "Feature", "properties": { "source_tile": "K-35-053-3_Elenovo_x3360_y1680.png" }, "geometry": { "type": "Point", "coordinates": [ 26.210053890322346, 42.41086798655936 ] } },
{ "type": "Feature", "properties": { "source_tile": "K-35-053-3_Elenovo_x3360_y1680.png" }, "geometry": { "type": "Point", "coordinates": [ 26.21493985578558, 42.408759192889889 ] } },
{ "type": "Feature", "properties": { "source_tile": "K-35-053-3_Elenovo_x3360_y2016.png" }, "geometry": { "type": "Point", "coordinates": [ 26.205581256995956, 42.401782509498233 ] } },
{ "type": "Feature", "properties": { "source_tile": "K-35-053-3_Elenovo_x3360_y2016.png" }, "geometry": { "type": "Point", "coordinates": [ 26.221584840650621, 42.400876991221985 ] } },
{ "type": "Feature", "properties": { "source_tile": "K-35-053-3_Elenovo_x3360_y2352.png" }, "geometry": { "type": "Point", "coordinates": [ 26.217495912455149, 42.384155506772061 ] } },
{ "type": "Feature", "properties": { "source_tile": "K-35-053-3_Elenovo_x3360_y336.png" }, "geometry": { "type": "Point", "coordinates": [ 26.209684222369194, 42.4816070240798 ] } },
{ "type": "Feature", "properties": { "source_tile": "K-35-053-3_Elenovo_x3360_y336.png" }, "geometry": { "type": "Point", "coordinates": [ 26.216420456282243, 42.481067666355493 ] } },
{ "type": "Feature", "properties": { "source_tile": "K-35-053-3_Elenovo_x3360_y336.png" }, "geometry": { "type": "Point", "coordinates": [ 26.221898379773304, 42.480819112546612 ] } },
{ "type": "Feature", "properties": { "source_tile": "K-35-053-3_Elenovo_x336_y0.png" }, "geometry": { "type": "Point", "coordinates": [ 26.03682818351643, 42.485004194159835 ] } },
{ "type": "Feature", "properties": { "source_tile": "K-35-053-3_Elenovo_x336_y1008.png" }, "geometry": { "type": "Point", "coordinates": [ 26.025764063545875, 42.439972852679432 ] } },
{ "type": "Feature", "properties": { "source_tile": "K-35-053-3_Elenovo_x336_y1680.png" }, "geometry": { "type": "Point", "coordinates": [ 26.035317020944042, 42.415728138293922 ] } },
{ "type": "Feature", "properties": { "source_tile": "K-35-053-3_Elenovo_x336_y2016.png" }, "geometry": { "type": "Point", "coordinates": [ 26.040040530305756, 42.403751400905172 ] } },
{ "type": "Feature", "properties": { "source_tile": "K-35-053-3_Elenovo_x336_y2016.png" }, "geometry": { "type": "Point", "coordinates": [ 26.040385653777388, 42.399436665089105 ] } },
{ "type": "Feature", "properties": { "source_tile": "K-35-053-3_Elenovo_x336_y2352.png" }, "geometry": { "type": "Point", "coordinates": [ 26.034199587381469, 42.3902599956863 ] } },
{ "type": "Feature", "properties": { "source_tile": "K-35-053-3_Elenovo_x336_y2352.png" }, "geometry": { "type": "Point", "coordinates": [ 26.039632422486815, 42.38996604890751 ] } },
{ "type": "Feature", "properties": { "source_tile": "K-35-053-3_Elenovo_x336_y2352.png" }, "geometry": { "type": "Point", "coordinates": [ 26.041122915463081, 42.384329820649739 ] } },
{ "type": "Feature", "properties": { "source_tile": "K-35-053-3_Elenovo_x336_y2352.png" }, "geometry": { "type": "Point", "coordinates": [ 26.026275550682506, 42.380471351675531 ] } },
{ "type": "Feature", "properties": { "source_tile": "K-35-053-3_Elenovo_x336_y2688.png" }, "geometry": { "type": "Point", "coordinates": [ 26.040549592265148, 42.371485147344686 ] } },
{ "type": "Feature", "properties": { "source_tile": "K-35-053-3_Elenovo_x336_y2688.png" }, "geometry": { "type": "Point", "coordinates": [ 26.036564008549774, 42.36570987283941 ] } },
{ "type": "Feature", "properties": { "source_tile": "K-35-053-3_Elenovo_x336_y3024.png" }, "geometry": { "type": "Point", "coordinates": [ 26.038682054824893, 42.357043830003931 ] } },
{ "type": "Feature", "properties": { "source_tile": "K-35-053-3_Elenovo_x336_y336.png" }, "geometry": { "type": "Point", "coordinates": [ 26.025245776082603, 42.479881812977951 ] } },
{ "type": "Feature", "properties": { "source_tile": "K-35-053-3_Elenovo_x336_y336.png" }, "geometry": { "type": "Point", "coordinates": [ 26.027733013702576, 42.474493852189966 ] } },
{ "type": "Feature", "properties": { "source_tile": "K-35-053-3_Elenovo_x336_y336.png" }, "geometry": { "type": "Point", "coordinates": [ 26.03400826318768, 42.471412691553574 ] } },
{ "type": "Feature", "properties": { "source_tile": "K-35-053-3_Elenovo_x3696_y2016.png" }, "geometry": { "type": "Point", "coordinates": [ 26.230011352183723, 42.408212992483655 ] } },
{ "type": "Feature", "properties": { "source_tile": "K-35-053-3_Elenovo_x3696_y2352.png" }, "geometry": { "type": "Point", "coordinates": [ 26.227339621920347, 42.392543981705678 ] } },
{ "type": "Feature", "properties": { "source_tile": "K-35-053-3_Elenovo_x3696_y2352.png" }, "geometry": { "type": "Point", "coordinates": [ 26.231093804390088, 42.390218077353524 ] } },
{ "type": "Feature", "properties": { "source_tile": "K-35-053-3_Elenovo_x3696_y2352.png" }, "geometry": { "type": "Point", "coordinates": [ 26.241792217509481, 42.391916250731498 ] } },
{ "type": "Feature", "properties": { "source_tile": "K-35-053-3_Elenovo_x3696_y2352.png" }, "geometry": { "type": "Point", "coordinates": [ 26.245167307893343, 42.390555903585337 ] } },
{ "type": "Feature", "properties": { "source_tile": "K-35-053-3_Elenovo_x3696_y2352.png" }, "geometry": { "type": "Point", "coordinates": [ 26.236229991934238, 42.381833672175013 ] } },
{ "type": "Feature", "properties": { "source_tile": "K-35-053-3_Elenovo_x3696_y2352.png" }, "geometry": { "type": "Point", "coordinates": [ 26.231945464744449, 42.38458588388832 ] } },
{ "type": "Feature", "properties": { "source_tile": "K-35-053-3_Elenovo_x3696_y2688.png" }, "geometry": { "type": "Point", "coordinates": [ 26.237576700817048, 42.372704850987169 ] } },
{ "type": "Feature", "properties": { "source_tile": "K-35-053-3_Elenovo_x3696_y2688.png" }, "geometry": { "type": "Point", "coordinates": [ 26.22878403261932, 42.372502234029589 ] } },
{ "type": "Feature", "properties": { "source_tile": "K-35-053-3_Elenovo_x3696_y2688.png" }, "geometry": { "type": "Point", "coordinates": [ 26.232930373558975, 42.370104394810021 ] } },
{ "type": "Feature", "properties": { "source_tile": "K-35-053-3_Elenovo_x3696_y2688.png" }, "geometry": { "type": "Point", "coordinates": [ 26.227101972498502, 42.363804454672909 ] } },
{ "type": "Feature", "properties": { "source_tile": "K-35-053-3_Elenovo_x3696_y3024.png" }, "geometry": { "type": "Point", "coordinates": [ 26.24310756279133, 42.362973026657876 ] } },
{ "type": "Feature", "properties": { "source_tile": "K-35-053-3_Elenovo_x3696_y3024.png" }, "geometry": { "type": "Point", "coordinates": [ 26.239637938204343, 42.359117524295016 ] } },
{ "type": "Feature", "properties": { "source_tile": "K-35-053-3_Elenovo_x3696_y3024.png" }, "geometry": { "type": "Point", "coordinates": [ 26.242301894738837, 42.350887904444825 ] } },
{ "type": "Feature", "properties": { "source_tile": "K-35-053-3_Elenovo_x3696_y3024.png" }, "geometry": { "type": "Point", "coordinates": [ 26.242872626923049, 42.350238477678715 ] } },
{ "type": "Feature", "properties": { "source_tile": "K-35-053-3_Elenovo_x3696_y336.png" }, "geometry": { "type": "Point", "coordinates": [ 26.225659471697469, 42.481797503832261 ] } },
{ "type": "Feature", "properties": { "source_tile": "K-35-053-3_Elenovo_x3696_y3360.png" }, "geometry": { "type": "Point", "coordinates": [ 26.240459469756914, 42.347155781887224 ] } },
{ "type": "Feature", "properties": { "source_tile": "K-35-053-3_Elenovo_x4032_y1680.png" }, "geometry": { "type": "Point", "coordinates": [ 26.246795108159027, 42.411382106049992 ] } },
{ "type": "Feature", "properties": { "source_tile": "K-35-053-3_Elenovo_x4032_y2016.png" }, "geometry": { "type": "Point", "coordinates": [ 26.24814067035329, 42.405999084806055 ] } },
{ "type": "Feature", "properties": { "source_tile": "K-35-053-3_Elenovo_x4032_y2016.png" }, "geometry": { "type": "Point", "coordinates": [ 26.247388677215167, 42.402411128555734 ] } },
{ "type": "Feature", "properties": { "source_tile": "K-35-053-3_Elenovo_x4032_y3024.png" }, "geometry": { "type": "Point", "coordinates": [ 26.24553168464341, 42.358756225543317 ] } },
{ "type": "Feature", "properties": { "source_tile": "K-35-053-3_Elenovo_x4032_y3024.png" }, "geometry": { "type": "Point", "coordinates": [ 26.246503832078133, 42.351885862207169 ] } },
{ "type": "Feature", "properties": { "source_tile": "K-35-053-3_Elenovo_x672_y0.png" }, "geometry": { "type": "Point", "coordinates": [ 26.041756138922651, 42.496163395357449 ] } },
{ "type": "Feature", "properties": { "source_tile": "K-35-053-3_Elenovo_x672_y0.png" }, "geometry": { "type": "Point", "coordinates": [ 26.04954542449973, 42.486267725745847 ] } },
{ "type": "Feature", "properties": { "source_tile": "K-35-053-3_Elenovo_x672_y0.png" }, "geometry": { "type": "Point", "coordinates": [ 26.05420481403538, 42.484254043603109 ] } },
{ "type": "Feature", "properties": { "source_tile": "K-35-053-3_Elenovo_x672_y2016.png" }, "geometry": { "type": "Point", "coordinates": [ 26.043251323289649, 42.40556974594891 ] } },
{ "type": "Feature", "properties": { "source_tile": "K-35-053-3_Elenovo_x672_y2016.png" }, "geometry": { "type": "Point", "coordinates": [ 26.05072077667382, 42.40103440566542 ] } },
{ "type": "Feature", "properties": { "source_tile": "K-35-053-3_Elenovo_x672_y2016.png" }, "geometry": { "type": "Point", "coordinates": [ 26.044942783859078, 42.392659555360702 ] } },
{ "type": "Feature", "properties": { "source_tile": "K-35-053-3_Elenovo_x672_y2352.png" }, "geometry": { "type": "Point", "coordinates": [ 26.052035267751105, 42.391048200736883 ] } },
{ "type": "Feature", "properties": { "source_tile": "K-35-053-3_Elenovo_x672_y2352.png" }, "geometry": { "type": "Point", "coordinates": [ 26.050449706005267, 42.390640045879721 ] } },
{ "type": "Feature", "properties": { "source_tile": "K-35-053-3_Elenovo_x672_y2352.png" }, "geometry": { "type": "Point", "coordinates": [ 26.048237741566147, 42.38853218886355 ] } },
{ "type": "Feature", "properties": { "source_tile": "K-35-053-3_Elenovo_x672_y2352.png" }, "geometry": { "type": "Point", "coordinates": [ 26.046820759676613, 42.387028648145765 ] } },
{ "type": "Feature", "properties": { "source_tile": "K-35-053-3_Elenovo_x672_y2688.png" }, "geometry": { "type": "Point", "coordinates": [ 26.058841882376971, 42.37287558821366 ] } },
{ "type": "Feature", "properties": { "source_tile": "K-35-053-3_Elenovo_x672_y3024.png" }, "geometry": { "type": "Point", "coordinates": [ 26.042115469247616, 42.358313114545126 ] } },
{ "type": "Feature", "properties": { "source_tile": "K-35-053-3_Elenovo_x672_y336.png" }, "geometry": { "type": "Point", "coordinates": [ 26.052764683185767, 42.477385497140894 ] } },
{ "type": "Feature", "properties": { "source_tile": "K-35-053-3_Elenovo_x672_y336.png" }, "geometry": { "type": "Point", "coordinates": [ 26.048200659490973, 42.473523895359762 ] } },
{ "type": "Feature", "properties": { "source_tile": "K-35-053-3_Elenovo_x672_y672.png" }, "geometry": { "type": "Point", "coordinates": [ 26.058247340709038, 42.461075169498955 ] } },
{ "type": "Feature", "properties": { "source_tile": "K-35-053-3_Elenovo_x672_y672.png" }, "geometry": { "type": "Point", "coordinates": [ 26.043893962665084, 42.454327487016684 ] } },
{ "type": "Feature", "properties": { "source_tile": "K-35-062-2_Rakovski_x0_y0.png" }, "geometry": { "type": "Point", "coordinates": [ 24.749002203508056, 42.322652208590448 ] } },
{ "type": "Feature", "properties": { "source_tile": "K-35-062-2_Rakovski_x0_y1008.png" }, "geometry": { "type": "Point", "coordinates": [ 24.759769850744419, 42.271808102548675 ] } },
{ "type": "Feature", "properties": { "source_tile": "K-35-062-2_Rakovski_x0_y1008.png" }, "geometry": { "type": "Point", "coordinates": [ 24.762006533667812, 42.283121805747086 ] } },
{ "type": "Feature", "properties": { "source_tile": "K-35-062-2_Rakovski_x0_y1344.png" }, "geometry": { "type": "Point", "coordinates": [ 24.7658535058703, 42.270034177045993 ] } },
{ "type": "Feature", "properties": { "source_tile": "K-35-062-2_Rakovski_x0_y1344.png" }, "geometry": { "type": "Point", "coordinates": [ 24.764308865182645, 42.261887589074639 ] } },
{ "type": "Feature", "properties": { "source_tile": "K-35-062-2_Rakovski_x0_y1344.png" }, "geometry": { "type": "Point", "coordinates": [ 24.763455477223271, 42.26125914772922 ] } },
{ "type": "Feature", "properties": { "source_tile": "K-35-062-2_Rakovski_x0_y1344.png" }, "geometry": { "type": "Point", "coordinates": [ 24.751290728134965, 42.258263318163635 ] } },
{ "type": "Feature", "properties": { "source_tile": "K-35-062-2_Rakovski_x0_y2352.png" }, "geometry": { "type": "Point", "coordinates": [ 24.768502220336227, 42.220779312080083 ] } },
{ "type": "Feature", "properties": { "source_tile": "K-35-062-2_Rakovski_x0_y2352.png" }, "geometry": { "type": "Point", "coordinates": [ 24.767630934530377, 42.223770143092096 ] } },
{ "type": "Feature", "properties": { "source_tile": "K-35-062-2_Rakovski_x0_y2352.png" }, "geometry": { "type": "Point", "coordinates": [ 24.761179245366439, 42.225878052610277 ] } },
{ "type": "Feature", "properties": { "source_tile": "K-35-062-2_Rakovski_x0_y2352.png" }, "geometry": { "type": "Point", "coordinates": [ 24.750695272065975, 42.215986477151283 ] } },
{ "type": "Feature", "properties": { "source_tile": "K-35-062-2_Rakovski_x0_y2352.png" }, "geometry": { "type": "Point", "coordinates": [ 24.76488964842985, 42.22661171086169 ] } },
{ "type": "Feature", "properties": { "source_tile": "K-35-062-2_Rakovski_x0_y2352.png" }, "geometry": { "type": "Point", "coordinates": [ 24.748798574379546, 42.21324996127786 ] } },
{ "type": "Feature", "properties": { "source_tile": "K-35-062-2_Rakovski_x0_y336.png" }, "geometry": { "type": "Point", "coordinates": [ 24.760143245451417, 42.301895335755184 ] } },
{ "type": "Feature", "properties": { "source_tile": "K-35-062-2_Rakovski_x0_y672.png" }, "geometry": { "type": "Point", "coordinates": [ 24.762027041628816, 42.28988576733321 ] } },
{ "type": "Feature", "properties": { "source_tile": "K-35-062-2_Rakovski_x1008_y0.png" }, "geometry": { "type": "Point", "coordinates": [ 24.813915659086671, 42.320818957787999 ] } },
{ "type": "Feature", "properties": { "source_tile": "K-35-062-2_Rakovski_x1008_y0.png" }, "geometry": { "type": "Point", "coordinates": [ 24.80640389790884, 42.317213828250424 ] } },
{ "type": "Feature", "properties": { "source_tile": "K-35-062-2_Rakovski_x1008_y1008.png" }, "geometry": { "type": "Point", "coordinates": [ 24.823730174644204, 42.273818629631734 ] } },
{ "type": "Feature", "properties": { "source_tile": "K-35-062-2_Rakovski_x1008_y1008.png" }, "geometry": { "type": "Point", "coordinates": [ 24.824207716720483, 42.272810637700417 ] } },
{ "type": "Feature", "properties": { "source_tile": "K-35-062-2_Rakovski_x1008_y1008.png" }, "geometry": { "type": "Point", "coordinates": [ 24.825631619623476, 42.271702577602554 ] } },
{ "type": "Feature", "properties": { "source_tile": "K-35-062-2_Rakovski_x1008_y1680.png" }, "geometry": { "type": "Point", "coordinates": [ 24.8232655256014, 42.250993680390813 ] } },
{ "type": "Feature", "properties": { "source_tile": "K-35-062-2_Rakovski_x1008_y336.png" }, "geometry": { "type": "Point", "coordinates": [ 24.810796558424325, 42.316212208177141 ] } },
{ "type": "Feature", "properties": { "source_tile": "K-35-062-2_Rakovski_x1008_y336.png" }, "geometry": { "type": "Point", "coordinates": [ 24.816169544313489, 42.313400667368661 ] } },
{ "type": "Feature", "properties": { "source_tile": "K-35-062-2_Rakovski_x1008_y336.png" }, "geometry": { "type": "Point", "coordinates": [ 24.805930668618643, 42.312561228516778 ] } },
{ "type": "Feature", "properties": { "source_tile": "K-35-062-2_Rakovski_x1008_y336.png" }, "geometry": { "type": "Point", "coordinates": [ 24.810536497286744, 42.311101164578211 ] } },
{ "type": "Feature", "properties": { "source_tile": "K-35-062-2_Rakovski_x1008_y336.png" }, "geometry": { "type": "Point", "coordinates": [ 24.824740743043584, 42.3090997364136 ] } },
{ "type": "Feature", "properties": { "source_tile": "K-35-062-2_Rakovski_x1008_y336.png" }, "geometry": { "type": "Point", "coordinates": [ 24.823666105617519, 42.307918232221347 ] } },
{ "type": "Feature", "properties": { "source_tile": "K-35-062-2_Rakovski_x1008_y336.png" }, "geometry": { "type": "Point", "coordinates": [ 24.819674768725903, 42.306698629502122 ] } },
{ "type": "Feature", "properties": { "source_tile": "K-35-062-2_Rakovski_x1008_y336.png" }, "geometry": { "type": "Point", "coordinates": [ 24.811062139014261, 42.304639220875174 ] } },
{ "type": "Feature", "properties": { "source_tile": "K-35-062-2_Rakovski_x1008_y672.png" }, "geometry": { "type": "Point", "coordinates": [ 24.815579385202057, 42.289020090757376 ] } },
{ "type": "Feature", "properties": { "source_tile": "K-35-062-2_Rakovski_x1344_y0.png" }, "geometry": { "type": "Point", "coordinates": [ 24.846222120152746, 42.327514664851854 ] } },
{ "type": "Feature", "properties": { "source_tile": "K-35-062-2_Rakovski_x1344_y0.png" }, "geometry": { "type": "Point", "coordinates": [ 24.84448100992028, 42.320453698789514 ] } },
{ "type": "Feature", "properties": { "source_tile": "K-35-062-2_Rakovski_x1344_y0.png" }, "geometry": { "type": "Point", "coordinates": [ 24.8290518922697, 42.318129264420492 ] } },
{ "type": "Feature", "properties": { "source_tile": "K-35-062-2_Rakovski_x1344_y1008.png" }, "geometry": { "type": "Point", "coordinates": [ 24.84713954301068, 42.280785617081918 ] } },
{ "type": "Feature", "properties": { "source_tile": "K-35-062-2_Rakovski_x1344_y1008.png" }, "geometry": { "type": "Point", "coordinates": [ 24.848093787332267, 42.280079792217791 ] } },
{ "type": "Feature", "properties": { "source_tile": "K-35-062-2_Rakovski_x1344_y1344.png" }, "geometry": { "type": "Point", "coordinates": [ 24.842027408293397, 42.271731664195386 ] } },
{ "type": "Feature", "properties": { "source_tile": "K-35-062-2_Rakovski_x1344_y1344.png" }, "geometry": { "type": "Point", "coordinates": [ 24.834909303103188, 42.265911206325811 ] } },
{ "type": "Feature", "properties": { "source_tile": "K-35-062-2_Rakovski_x1344_y1680.png" }, "geometry": { "type": "Point", "coordinates": [ 24.831865087356753, 42.241813905909368 ] } },
{ "type": "Feature", "properties": { "source_tile": "K-35-062-2_Rakovski_x1344_y336.png" }, "geometry": { "type": "Point", "coordinates": [ 24.833546206169256, 42.315247325173416 ] } },
{ "type": "Feature", "properties": { "source_tile": "K-35-062-2_Rakovski_x1344_y336.png" }, "geometry": { "type": "Point", "coordinates": [ 24.833592018108973, 42.312072075210622 ] } },
{ "type": "Feature", "properties": { "source_tile": "K-35-062-2_Rakovski_x1344_y336.png" }, "geometry": { "type": "Point", "coordinates": [ 24.841154686129208, 42.312199145374123 ] } },
{ "type": "Feature", "properties": { "source_tile": "K-35-062-2_Rakovski_x1344_y336.png" }, "geometry": { "type": "Point", "coordinates": [ 24.841827171597966, 42.312706450808875 ] } },
{ "type": "Feature", "properties": { "source_tile": "K-35-062-2_Rakovski_x1344_y336.png" }, "geometry": { "type": "Point", "coordinates": [ 24.847806527350606, 42.30869165875523 ] } },
{ "type": "Feature", "properties": { "source_tile": "K-35-062-2_Rakovski_x1344_y336.png" }, "geometry": { "type": "Point", "coordinates": [ 24.843070942320601, 42.305936784751992 ] } },
{ "type": "Feature", "properties": { "source_tile": "K-35-062-2_Rakovski_x1680_y0.png" }, "geometry": { "type": "Point", "coordinates": [ 24.849138559384247, 42.326629614711159 ] } },
{ "type": "Feature", "properties": { "source_tile": "K-35-062-2_Rakovski_x1680_y0.png" }, "geometry": { "type": "Point", "coordinates": [ 24.852216831466535, 42.326210054930748 ] } },
{ "type": "Feature", "properties": { "source_tile": "K-35-062-2_Rakovski_x1680_y0.png" }, "geometry": { "type": "Point", "coordinates": [ 24.848496509733156, 42.321449870848838 ] } },
{ "type": "Feature", "properties": { "source_tile": "K-35-062-2_Rakovski_x1680_y1008.png" }, "geometry": { "type": "Point", "coordinates": [ 24.85965434359985, 42.280644212439448 ] } },
{ "type": "Feature", "properties": { "source_tile": "K-35-062-2_Rakovski_x1680_y1680.png" }, "geometry": { "type": "Point", "coordinates": [ 24.866010206726745, 42.246611326373227 ] } },
{ "type": "Feature", "properties": { "source_tile": "K-35-062-2_Rakovski_x1680_y2016.png" }, "geometry": { "type": "Point", "coordinates": [ 24.860006789098804, 42.237352789625433 ] } },
{ "type": "Feature", "properties": { "source_tile": "K-35-062-2_Rakovski_x1680_y336.png" }, "geometry": { "type": "Point", "coordinates": [ 24.849929749517734, 42.314835556967026 ] } },
{ "type": "Feature", "properties": { "source_tile": "K-35-062-2_Rakovski_x1680_y336.png" }, "geometry": { "type": "Point", "coordinates": [ 24.856003148956038, 42.311313271654399 ] } },
{ "type": "Feature", "properties": { "source_tile": "K-35-062-2_Rakovski_x1680_y336.png" }, "geometry": { "type": "Point", "coordinates": [ 24.854737324749181, 42.303385727050163 ] } },
{ "type": "Feature", "properties": { "source_tile": "K-35-062-2_Rakovski_x1680_y336.png" }, "geometry": { "type": "Point", "coordinates": [ 24.868809970731256, 42.304672816114305 ] } },
{ "type": "Feature", "properties": { "source_tile": "K-35-062-2_Rakovski_x1680_y336.png" }, "geometry": { "type": "Point", "coordinates": [ 24.866350799480145, 42.3027885000662 ] } },
{ "type": "Feature", "properties": { "source_tile": "K-35-062-2_Rakovski_x1680_y672.png" }, "geometry": { "type": "Point", "coordinates": [ 24.855719400081789, 42.300111692621691 ] } },
{ "type": "Feature", "properties": { "source_tile": "K-35-062-2_Rakovski_x1680_y672.png" }, "geometry": { "type": "Point", "coordinates": [ 24.865574975654106, 42.299870415552128 ] } },
{ "type": "Feature", "properties": { "source_tile": "K-35-062-2_Rakovski_x1680_y672.png" }, "geometry": { "type": "Point", "coordinates": [ 24.866914223634055, 42.298774154507988 ] } },
{ "type": "Feature", "properties": { "source_tile": "K-35-062-2_Rakovski_x2016_y0.png" }, "geometry": { "type": "Point", "coordinates": [ 24.868912345909656, 42.325679936540425 ] } },
{ "type": "Feature", "properties": { "source_tile": "K-35-062-2_Rakovski_x2016_y0.png" }, "geometry": { "type": "Point", "coordinates": [ 24.873104140569559, 42.323305418355055 ] } },
{ "type": "Feature", "properties": { "source_tile": "K-35-062-2_Rakovski_x2016_y0.png" }, "geometry": { "type": "Point", "coordinates": [ 24.87261367620215, 42.321480894826948 ] } },
{ "type": "Feature", "properties": { "source_tile": "K-35-062-2_Rakovski_x2016_y0.png" }, "geometry": { "type": "Point", "coordinates": [ 24.880927060984764, 42.318997671441103 ] } },
{ "type": "Feature", "properties": { "source_tile": "K-35-062-2_Rakovski_x2016_y1008.png" }, "geometry": { "type": "Point", "coordinates": [ 24.875065007081439, 42.278518434512961 ] } },
{ "type": "Feature", "properties": { "source_tile": "K-35-062-2_Rakovski_x2016_y2016.png" }, "geometry": { "type": "Point", "coordinates": [ 24.871148541125233, 42.239759228235172 ] } },
{ "type": "Feature", "properties": { "source_tile": "K-35-062-2_Rakovski_x2016_y2016.png" }, "geometry": { "type": "Point", "coordinates": [ 24.877585716170536, 42.230912426527652 ] } },
{ "type": "Feature", "properties": { "source_tile": "K-35-062-2_Rakovski_x2016_y2352.png" }, "geometry": { "type": "Point", "coordinates": [ 24.882941528788006, 42.22676788031869 ] } },
{ "type": "Feature", "properties": { "source_tile": "K-35-062-2_Rakovski_x2016_y336.png" }, "geometry": { "type": "Point", "coordinates": [ 24.871010596727366, 42.3064626054733 ] } },
{ "type": "Feature", "properties": { "source_tile": "K-35-062-2_Rakovski_x2352_y1344.png" }, "geometry": { "type": "Point", "coordinates": [ 24.904329197906844, 42.258045958538219 ] } },
{ "type": "Feature", "properties": { "source_tile": "K-35-062-2_Rakovski_x2352_y1680.png" }, "geometry": { "type": "Point", "coordinates": [ 24.907994161218454, 42.256870201697843 ] } },
{ "type": "Feature", "properties": { "source_tile": "K-35-062-2_Rakovski_x2352_y2016.png" }, "geometry": { "type": "Point", "coordinates": [ 24.897057163861053, 42.234600123035399 ] } },
{ "type": "Feature", "properties": { "source_tile": "K-35-062-2_Rakovski_x2352_y2016.png" }, "geometry": { "type": "Point", "coordinates": [ 24.901935461217146, 42.231587960027319 ] } },
{ "type": "Feature", "properties": { "source_tile": "K-35-062-2_Rakovski_x2352_y2016.png" }, "geometry": { "type": "Point", "coordinates": [ 24.890041852872649, 42.227415110208696 ] } },
{ "type": "Feature", "properties": { "source_tile": "K-35-062-2_Rakovski_x2352_y2352.png" }, "geometry": { "type": "Point", "coordinates": [ 24.892420700364976, 42.220999781947803 ] } },
{ "type": "Feature", "properties": { "source_tile": "K-35-062-2_Rakovski_x2352_y2688.png" }, "geometry": { "type": "Point", "coordinates": [ 24.901569338414312, 42.205842093696617 ] } },
{ "type": "Feature", "properties": { "source_tile": "K-35-062-2_Rakovski_x2352_y2688.png" }, "geometry": { "type": "Point", "coordinates": [ 24.898319959755586, 42.203231222629512 ] } },
{ "type": "Feature", "properties": { "source_tile": "K-35-062-2_Rakovski_x2352_y2688.png" }, "geometry": { "type": "Point", "coordinates": [ 24.907228515090335, 42.202859590985312 ] } },
{ "type": "Feature", "properties": { "source_tile": "K-35-062-2_Rakovski_x2352_y3024.png" }, "geometry": { "type": "Point", "coordinates": [ 24.902940138034285, 42.182821593210441 ] } },
{ "type": "Feature", "properties": { "source_tile": "K-35-062-2_Rakovski_x2688_y0.png" }, "geometry": { "type": "Point", "coordinates": [ 24.912041983305446, 42.321921282209615 ] } },
{ "type": "Feature", "properties": { "source_tile": "K-35-062-2_Rakovski_x2688_y0.png" }, "geometry": { "type": "Point", "coordinates": [ 24.926745009197976, 42.328566463212475 ] } },
{ "type": "Feature", "properties": { "source_tile": "K-35-062-2_Rakovski_x2688_y0.png" }, "geometry": { "type": "Point", "coordinates": [ 24.92807928967899, 42.331918580444686 ] } },
{ "type": "Feature", "properties": { "source_tile": "K-35-062-2_Rakovski_x2688_y0.png" }, "geometry": { "type": "Point", "coordinates": [ 24.928542176314735, 42.319704926948667 ] } },
{ "type": "Feature", "properties": { "source_tile": "K-35-062-2_Rakovski_x2688_y1344.png" }, "geometry": { "type": "Point", "coordinates": [ 24.920358415215478, 42.268446012562983 ] } },
{ "type": "Feature", "properties": { "source_tile": "K-35-062-2_Rakovski_x2688_y1344.png" }, "geometry": { "type": "Point", "coordinates": [ 24.917926866915391, 42.263729631194849 ] } },
{ "type": "Feature", "properties": { "source_tile": "K-35-062-2_Rakovski_x2688_y1344.png" }, "geometry": { "type": "Point", "coordinates": [ 24.91556014732442, 42.267621237477648 ] } },
{ "type": "Feature", "properties": { "source_tile": "K-35-062-2_Rakovski_x2688_y1344.png" }, "geometry": { "type": "Point", "coordinates": [ 24.928826077384688, 42.261639096109356 ] } },
{ "type": "Feature", "properties": { "source_tile": "K-35-062-2_Rakovski_x2688_y1680.png" }, "geometry": { "type": "Point", "coordinates": [ 24.931308256897989, 42.247877581988632 ] } },
{ "type": "Feature", "properties": { "source_tile": "K-35-062-2_Rakovski_x2688_y2688.png" }, "geometry": { "type": "Point", "coordinates": [ 24.92646747655013, 42.204668768907716 ] } },
{ "type": "Feature", "properties": { "source_tile": "K-35-062-2_Rakovski_x2688_y2688.png" }, "geometry": { "type": "Point", "coordinates": [ 24.931087359517566, 42.200876575068285 ] } },
{ "type": "Feature", "properties": { "source_tile": "K-35-062-2_Rakovski_x2688_y3024.png" }, "geometry": { "type": "Point", "coordinates": [ 24.927450081822361, 42.197320553060045 ] } },
{ "type": "Feature", "properties": { "source_tile": "K-35-062-2_Rakovski_x2688_y336.png" }, "geometry": { "type": "Point", "coordinates": [ 24.917078506362365, 42.316498949094324 ] } },
{ "type": "Feature", "properties": { "source_tile": "K-35-062-2_Rakovski_x2688_y336.png" }, "geometry": { "type": "Point", "coordinates": [ 24.921704407888306, 42.317131364180945 ] } },
{ "type": "Feature", "properties": { "source_tile": "K-35-062-2_Rakovski_x2688_y336.png" }, "geometry": { "type": "Point", "coordinates": [ 24.916538188277528, 42.312533717129419 ] } },
{ "type": "Feature", "properties": { "source_tile": "K-35-062-2_Rakovski_x2688_y336.png" }, "geometry": { "type": "Point", "coordinates": [ 24.921538503378962, 42.31137313401026 ] } },
{ "type": "Feature", "properties": { "source_tile": "K-35-062-2_Rakovski_x2688_y336.png" }, "geometry": { "type": "Point", "coordinates": [ 24.929663814412631, 42.311710227367712 ] } },
{ "type": "Feature", "properties": { "source_tile": "K-35-062-2_Rakovski_x2688_y3360.png" }, "geometry": { "type": "Point", "coordinates": [ 24.926007878432699, 42.174901430834893 ] } },
{ "type": "Feature", "properties": { "source_tile": "K-35-062-2_Rakovski_x3024_y0.png" }, "geometry": { "type": "Point", "coordinates": [ 24.936757635885076, 42.332235670259266 ] } },
{ "type": "Feature", "properties": { "source_tile": "K-35-062-2_Rakovski_x3024_y0.png" }, "geometry": { "type": "Point", "coordinates": [ 24.934367435780956, 42.330293885440433 ] } },
{ "type": "Feature", "properties": { "source_tile": "K-35-062-2_Rakovski_x3024_y0.png" }, "geometry": { "type": "Point", "coordinates": [ 24.937280064751445, 42.326486388050185 ] } },
{ "type": "Feature", "properties": { "source_tile": "K-35-062-2_Rakovski_x3024_y0.png" }, "geometry": { "type": "Point", "coordinates": [ 24.93092716921311, 42.32307252790612 ] } },
{ "type": "Feature", "properties": { "source_tile": "K-35-062-2_Rakovski_x3024_y1008.png" }, "geometry": { "type": "Point", "coordinates": [ 24.940222303692948, 42.286270008358279 ] } },
{ "type": "Feature", "properties": { "source_tile": "K-35-062-2_Rakovski_x3024_y1680.png" }, "geometry": { "type": "Point", "coordinates": [ 24.943478810922379, 42.249750575479887 ] } },
{ "type": "Feature", "properties": { "source_tile": "K-35-062-2_Rakovski_x3024_y1680.png" }, "geometry": { "type": "Point", "coordinates": [ 24.950666918196664, 42.244516699573403 ] } },
{ "type": "Feature", "properties": { "source_tile": "K-35-062-2_Rakovski_x3024_y336.png" }, "geometry": { "type": "Point", "coordinates": [ 24.943643990950033, 42.316732161318932 ] } },
{ "type": "Feature", "properties": { "source_tile": "K-35-062-2_Rakovski_x3024_y336.png" }, "geometry": { "type": "Point", "coordinates": [ 24.945578319861912, 42.316865775716188 ] } },
{ "type": "Feature", "properties": { "source_tile": "K-35-062-2_Rakovski_x3024_y336.png" }, "geometry": { "type": "Point", "coordinates": [ 24.945418799174771, 42.316090577361955 ] } },
{ "type": "Feature", "properties": { "source_tile": "K-35-062-2_Rakovski_x3024_y3360.png" }, "geometry": { "type": "Point", "coordinates": [ 24.938667099934062, 42.174586429895726 ] } },
{ "type": "Feature", "properties": { "source_tile": "K-35-062-2_Rakovski_x3024_y672.png" }, "geometry": { "type": "Point", "coordinates": [ 24.937708654499286, 42.296683536925933 ] } },
{ "type": "Feature", "properties": { "source_tile": "K-35-062-2_Rakovski_x3360_y1344.png" }, "geometry": { "type": "Point", "coordinates": [ 24.965112129884652, 42.261339956559858 ] } },
{ "type": "Feature", "properties": { "source_tile": "K-35-062-2_Rakovski_x3360_y1680.png" }, "geometry": { "type": "Point", "coordinates": [ 24.97070764946794, 42.253341640130756 ] } },
{ "type": "Feature", "properties": { "source_tile": "K-35-062-2_Rakovski_x3360_y1680.png" }, "geometry": { "type": "Point", "coordinates": [ 24.955912263305578, 42.249582414479619 ] } },
{ "type": "Feature", "properties": { "source_tile": "K-35-062-2_Rakovski_x3360_y2352.png" }, "geometry": { "type": "Point", "coordinates": [ 24.970998676397059, 42.215910380245852 ] } },
{ "type": "Feature", "properties": { "source_tile": "K-35-062-2_Rakovski_x3360_y2352.png" }, "geometry": { "type": "Point", "coordinates": [ 24.969711010624849, 42.216238183011896 ] } },
{ "type": "Feature", "properties": { "source_tile": "K-35-062-2_Rakovski_x336_y0.png" }, "geometry": { "type": "Point", "coordinates": [ 24.776809263142205, 42.329133664207966 ] } },
{ "type": "Feature", "properties": { "source_tile": "K-35-062-2_Rakovski_x336_y0.png" }, "geometry": { "type": "Point", "coordinates": [ 24.780599606656882, 42.332492563491307 ] } },
{ "type": "Feature", "properties": { "source_tile": "K-35-062-2_Rakovski_x336_y0.png" }, "geometry": { "type": "Point", "coordinates": [ 24.777427429727439, 42.332368610445066 ] } },
{ "type": "Feature", "properties": { "source_tile": "K-35-062-2_Rakovski_x336_y1008.png" }, "geometry": { "type": "Point", "coordinates": [ 24.77800063035237, 42.279732693336179 ] } },
{ "type": "Feature", "properties": { "source_tile": "K-35-062-2_Rakovski_x336_y1344.png" }, "geometry": { "type": "Point", "coordinates": [ 24.773498109434591, 42.266690911039824 ] } },
{ "type": "Feature", "properties": { "source_tile": "K-35-062-2_Rakovski_x336_y1344.png" }, "geometry": { "type": "Point", "coordinates": [ 24.77811426599456, 42.26738880017178 ] } },
{ "type": "Feature", "properties": { "source_tile": "K-35-062-2_Rakovski_x336_y1344.png" }, "geometry": { "type": "Point", "coordinates": [ 24.779826018634747, 42.268018140001523 ] } },
{ "type": "Feature", "properties": { "source_tile": "K-35-062-2_Rakovski_x336_y1344.png" }, "geometry": { "type": "Point", "coordinates": [ 24.777871522006166, 42.263257732603378 ] } },
{ "type": "Feature", "properties": { "source_tile": "K-35-062-2_Rakovski_x336_y1344.png" }, "geometry": { "type": "Point", "coordinates": [ 24.775084322056014, 42.256738598482833 ] } },
{ "type": "Feature", "properties": { "source_tile": "K-35-062-2_Rakovski_x336_y1344.png" }, "geometry": { "type": "Point", "coordinates": [ 24.771060992685193, 42.255815209456749 ] } },
{ "type": "Feature", "properties": { "source_tile": "K-35-062-2_Rakovski_x336_y336.png" }, "geometry": { "type": "Point", "coordinates": [ 24.770718410381168, 42.301916952937681 ] } },
{ "type": "Feature", "properties": { "source_tile": "K-35-062-2_Rakovski_x336_y672.png" }, "geometry": { "type": "Point", "coordinates": [ 24.770357406905074, 42.300685480406024 ] } },
{ "type": "Feature", "properties": { "source_tile": "K-35-062-2_Rakovski_x336_y672.png" }, "geometry": { "type": "Point", "coordinates": [ 24.776651026565442, 42.300440657716102 ] } },
{ "type": "Feature", "properties": { "source_tile": "K-35-062-2_Rakovski_x3696_y0.png" }, "geometry": { "type": "Point", "coordinates": [ 24.98428801607233, 42.327950988537737 ] } },
{ "type": "Feature", "properties": { "source_tile": "K-35-062-2_Rakovski_x3696_y1008.png" }, "geometry": { "type": "Point", "coordinates": [ 24.983754262421137, 42.287389311274588 ] } },
{ "type": "Feature", "properties": { "source_tile": "K-35-062-2_Rakovski_x3696_y1008.png" }, "geometry": { "type": "Point", "coordinates": [ 24.984961498250563, 42.282222811576737 ] } },
{ "type": "Feature", "properties": { "source_tile": "K-35-062-2_Rakovski_x3696_y1008.png" }, "geometry": { "type": "Point", "coordinates": [ 24.975991770564256, 42.290590954658015 ] } },
{ "type": "Feature", "properties": { "source_tile": "K-35-062-2_Rakovski_x3696_y1008.png" }, "geometry": { "type": "Point", "coordinates": [ 24.982999070480275, 42.274942139304848 ] } },
{ "type": "Feature", "properties": { "source_tile": "K-35-062-2_Rakovski_x3360_y1344.png" }, "geometry": { "type": "Point", "coordinates": [ 24.972229715914654, 42.270433963979158 ] } },
{ "type": "Feature", "properties": { "source_tile": "K-35-062-2_Rakovski_x3696_y1680.png" }, "geometry": { "type": "Point", "coordinates": [ 24.98236447711496, 42.252565884516692 ] } },
{ "type": "Feature", "properties": { "source_tile": "K-35-062-2_Rakovski_x3696_y2016.png" }, "geometry": { "type": "Point", "coordinates": [ 24.983779869846838, 42.242017412339088 ] } },
{ "type": "Feature", "properties": { "source_tile": "K-35-062-2_Rakovski_x3696_y2016.png" }, "geometry": { "type": "Point", "coordinates": [ 24.987011108116853, 42.241845087728436 ] } },
{ "type": "Feature", "properties": { "source_tile": "K-35-062-2_Rakovski_x3696_y2352.png" }, "geometry": { "type": "Point", "coordinates": [ 24.976155745210445, 42.222069257310451 ] } },
{ "type": "Feature", "properties": { "source_tile": "K-35-062-2_Rakovski_x3696_y2688.png" }, "geometry": { "type": "Point", "coordinates": [ 24.990619325603326, 42.209181485126678 ] } },
{ "type": "Feature", "properties": { "source_tile": "K-35-062-2_Rakovski_x3696_y336.png" }, "geometry": { "type": "Point", "coordinates": [ 24.978438852043936, 42.317925579320679 ] } },
{ "type": "Feature", "properties": { "source_tile": "K-35-062-2_Rakovski_x3696_y336.png" }, "geometry": { "type": "Point", "coordinates": [ 24.983995952764062, 42.316810268606076 ] } },
{ "type": "Feature", "properties": { "source_tile": "K-35-062-2_Rakovski_x3696_y3360.png" }, "geometry": { "type": "Point", "coordinates": [ 24.975711725336183, 42.17902306461621 ] } },
{ "type": "Feature", "properties": { "source_tile": "K-35-062-2_Rakovski_x3696_y3360.png" }, "geometry": { "type": "Point", "coordinates": [ 24.995026838996981, 42.169175938898675 ] } },
{ "type": "Feature", "properties": { "source_tile": "K-35-062-2_Rakovski_x4032_y3024.png" }, "geometry": { "type": "Point", "coordinates": [ 24.99730147195368, 42.187662019338312 ] } },
{ "type": "Feature", "properties": { "source_tile": "K-35-062-2_Rakovski_x4032_y3360.png" }, "geometry": { "type": "Point", "coordinates": [ 24.997781118119807, 42.170765305295348 ] } },
{ "type": "Feature", "properties": { "source_tile": "K-35-062-2_Rakovski_x4032_y672.png" }, "geometry": { "type": "Point", "coordinates": [ 24.994987321699686, 42.303036678281948 ] } },
{ "type": "Feature", "properties": { "source_tile": "K-35-062-2_Rakovski_x672_y1008.png" }, "geometry": { "type": "Point", "coordinates": [ 24.788559611038618, 42.285355382403907 ] } },
{ "type": "Feature", "properties": { "source_tile": "K-35-062-2_Rakovski_x672_y1008.png" }, "geometry": { "type": "Point", "coordinates": [ 24.798701933117204, 42.284337428233933 ] } },
{ "type": "Feature", "properties": { "source_tile": "K-35-062-2_Rakovski_x672_y1008.png" }, "geometry": { "type": "Point", "coordinates": [ 24.795448963096163, 42.272557962426156 ] } },
{ "type": "Feature", "properties": { "source_tile": "K-35-062-2_Rakovski_x672_y1680.png" }, "geometry": { "type": "Point", "coordinates": [ 24.791225457978484, 42.250129186515615 ] } },
{ "type": "Feature", "properties": { "source_tile": "K-35-062-2_Rakovski_x672_y672.png" }, "geometry": { "type": "Point", "coordinates": [ 24.790766450586329, 42.291363139492887 ] } },
{ "type": "Feature", "properties": { "source_tile": "K-35-078-1_Lesovo_x0_y3024.png" }, "geometry": { "type": "Point", "coordinates": [ 26.520610750757264, 41.853021899111113 ] } },
{ "type": "Feature", "properties": { "source_tile": "K-35-078-1_Lesovo_x0_y3360.png" }, "geometry": { "type": "Point", "coordinates": [ 26.506871375877619, 41.842218839878484 ] } },
{ "type": "Feature", "properties": { "source_tile": "K-35-078-1_Lesovo_x0_y3360.png" }, "geometry": { "type": "Point", "coordinates": [ 26.509532136617992, 41.83815466900375 ] } },
{ "type": "Feature", "properties": { "source_tile": "K-35-078-1_Lesovo_x2352_y0.png" }, "geometry": { "type": "Point", "coordinates": [ 26.650132230950735, 41.985763618571539 ] } },
{ "type": "Feature", "properties": { "source_tile": "K-35-078-1_Lesovo_x2352_y336.png" }, "geometry": { "type": "Point", "coordinates": [ 26.659491191486023, 41.984204728062039 ] } },
{ "type": "Feature", "properties": { "source_tile": "K-35-078-1_Lesovo_x336_y3360.png" }, "geometry": { "type": "Point", "coordinates": [ 26.539016332566241, 41.841644086899038 ] } },
{ "type": "Feature", "properties": { "source_tile": "K-35-078-1_Lesovo_x3696_y0.png" }, "geometry": { "type": "Point", "coordinates": [ 26.727819085893504, 41.99591739994613 ] } },
{ "type": "Feature", "properties": { "source_tile": "K-35-078-1_Lesovo_x4032_y336.png" }, "geometry": { "type": "Point", "coordinates": [ 26.744214472199406, 41.977716410050739 ] } },
{ "type": "Feature", "properties": { "source_tile": "K-35-078-1_Lesovo_x672_y2688.png" }, "geometry": { "type": "Point", "coordinates": [ 26.541726781908533, 41.86562753940747 ] } },
{ "type": "Feature", "properties": { "source_tile": "K-35-062-2_Rakovski_x2352_y1344.png" }, "geometry": { "type": "Point", "coordinates": [ 24.902596453770869, 42.259852275956789 ] } },
{ "type": "Feature", "properties": { "source_tile": "K-35-053-3_Elenovo_x0_y1680.png" }, "geometry": { "type": "Point", "coordinates": [ 26.00448172388942, 42.413833253513879 ] } },
{ "type": "Feature", "properties": { "source_tile": "K-35-053-3_Elenovo_x3696_y672.png" }, "geometry": { "type": "Point", "coordinates": [ 26.233858470528364, 42.465000654872284 ] } },
{ "type": "Feature", "properties": { "source_tile": "K-35-053-3_Elenovo_x4032_y3024.png" }, "geometry": { "type": "Point", "coordinates": [ 26.247991670880705, 42.354246792602652 ] } },
{ "type": "Feature", "properties": { "source_tile": "K-35-062-2_Rakovski_x3024_y3360.png" }, "geometry": { "type": "Point", "coordinates": [ 24.942318515324175, 42.171625499702756 ] } },
{ "type": "Feature", "properties": { "source_tile": "K-35-062-2_Rakovski_x336_y1008.png" }, "geometry": { "type": "Point", "coordinates": [ 24.771395844574293, 42.278255491032617 ] } },
{ "type": "Feature", "properties": { "source_tile": "K-35-062-2_Rakovski_x336_y1008.png" }, "geometry": { "type": "Point", "coordinates": [ 24.769083425803011, 42.274906390328908 ] } },
{ "type": "Feature", "properties": { "source_tile": "K-35-062-2_Rakovski_x3696_y1008.png" }, "geometry": { "type": "Point", "coordinates": [ 24.989947340435016, 42.278627381343384 ] } },
{ "type": "Feature", "properties": { "source_tile": "K-35-062-2_Rakovski_x4032_y1008.png" }, "geometry": { "type": "Point", "coordinates": [ 24.994612878701908, 42.287285160495543 ] } },
{ "type": "Feature", "properties": { "source_tile": "K-35-052-4_32635_x336_y1008.png" }, "geometry": { "type": "Point", "coordinates": [ 25.772199783353351, 42.447170206782786 ] } }
]
}
