{
"type": "FeatureCollection",
"name": "calibration_tile_bounds",
"crs": { "type": "name", "properties": { "name": "urn:ogc:def:crs:EPSG::32635" } },
"features": [
{ "type": "Feature", "properties": { "tile_name": "K-35-052-4_32635_x1344_y1344.png", "map_name": "K-35-052-4_32635" }, "geometry": { "type": "Polygon", "coordinates": [ [ [ 406187.963090478617232, 4696707.17749013658613 ], [ 406187.963090478617232, 4699272.404475942254066 ], [ 403622.736104672716465, 4699272.404475942254066 ], [ 403622.736104672716465, 4696707.17749013658613 ], [ 406187.963090478617232, 4696707.17749013658613 ] ] ] } },
{ "type": "Feature", "properties": { "tile_name": "K-35-052-4_32635_x1344_y2240.png", "map_name": "K-35-052-4_32635" }, "geometry": { "type": "Polygon", "coordinates": [ [ [ 406187.963090478617232, 4692218.030264975503087 ], [ 406187.963090478617232, 4694783.257250781171024 ], [ 403622.736104672716465, 4694783.257250781171024 ], [ 403622.736104672716465, 4692218.030264975503087 ], [ 406187.963090478617232, 4692218.030264975503087 ] ] ] } },
{ "type": "Feature", "properties": { "tile_name": "K-35-052-4_32635_x2240_y2240.png", "map_name": "K-35-052-4_32635" }, "geometry": { "type": "Polygon", "coordinates": [ [ [ 410677.110315639001783, 4692218.030264975503087 ], [ 410677.110315639001783, 4694783.257250781171024 ], [ 408111.883329833101016, 4694783.257250781171024 ], [ 408111.883329833101016, 4692218.030264975503087 ], [ 410677.110315639001783, 4692218.030264975503087 ] ] ] } },
{ "type": "Feature", "properties": { "tile_name": "K-35-052-4_32635_x2240_y3584.png", "map_name": "K-35-052-4_32635" }, "geometry": { "type": "Polygon", "coordinates": [ [ [ 410677.110315639001783, 4685484.309427235275507 ], [ 410677.110315639001783, 4688049.536413040943444 ], [ 408111.883329833101016, 4688049.536413040943444 ], [ 408111.883329833101016, 4685484.309427235275507 ], [ 410677.110315639001783, 4685484.309427235275507 ] ] ] } },
{ "type": "Feature", "properties": { "tile_name": "K-35-052-4_32635_x3136_y896.png", "map_name": "K-35-052-4_32635" }, "geometry": { "type": "Polygon", "coordinates": [ [ [ 415166.257540799386334, 4698951.75110271666199 ], [ 415166.257540799386334, 4701516.978088522329926 ], [ 412601.030554993485566, 4701516.978088522329926 ], [ 412601.030554993485566, 4698951.75110271666199 ], [ 415166.257540799386334, 4698951.75110271666199 ] ] ] } },
{ "type": "Feature", "properties": { "tile_name": "K-35-053-3_Elenovo_x1792_y2240.png", "map_name": "K-35-053-3_Elenovo" }, "geometry": { "type": "Polygon", "coordinates": [ [ [ 429028.71014809148619, 4691946.084526663646102 ], [ 429028.71014809148619, 4694511.20443163625896 ], [ 426463.590243118582293, 4694511.20443163625896 ], [ 426463.590243118582293, 4691946.084526663646102 ], [ 429028.71014809148619, 4691946.084526663646102 ] ] ] } },
{ "type": "Feature", "properties": { "tile_name": "K-35-053-3_Elenovo_x2240_y2240.png", "map_name": "K-35-053-3_Elenovo" }, "geometry": { "type": "Polygon", "coordinates": [ [ [ 431273.190064942755271, 4691946.084526663646102 ], [ 431273.190064942755271, 4694511.20443163625896 ], [ 428708.070159969851375, 4694511.20443163625896 ], [ 428708.070159969851375, 4691946.084526663646102 ], [ 431273.190064942755271, 4691946.084526663646102 ] ] ] } },
{ "type": "Feature", "properties": { "tile_name": "K-35-053-3_Elenovo_x2240_y3584.png", "map_name": "K-35-053-3_Elenovo" }, "geometry": { "type": "Polygon", "coordinates": [ [ [ 431273.190064942755271, 4685212.644776109606028 ], [ 431273.190064942755271, 4687777.764681082218885 ], [ 428708.070159969851375, 4687777.764681082218885 ], [ 428708.070159969851375, 4685212.644776109606028 ], [ 431273.190064942755271, 4685212.644776109606028 ] ] ] } },
{ "type": "Feature", "properties": { "tile_name": "K-35-053-3_Elenovo_x3136_y3136.png", "map_name": "K-35-053-3_Elenovo" }, "geometry": { "type": "Polygon", "coordinates": [ [ [ 435762.149898645293433, 4687457.124692960642278 ], [ 435762.149898645293433, 4690022.244597933255136 ], [ 433197.029993672389537, 4690022.244597933255136 ], [ 433197.029993672389537, 4687457.124692960642278 ], [ 435762.149898645293433, 4687457.124692960642278 ] ] ] } },
{ "type": "Feature", "properties": { "tile_name": "K-35-053-3_Elenovo_x896_y1344.png", "map_name": "K-35-053-3_Elenovo" }, "geometry": { "type": "Polygon", "coordinates": [ [ [ 424539.750314388948027, 4696435.044360365718603 ], [ 424539.750314388948027, 4699000.164265338331461 ], [ 421974.630409416044131, 4699000.164265338331461 ], [ 421974.630409416044131, 4696435.044360365718603 ], [ 424539.750314388948027, 4696435.044360365718603 ] ] ] } },
{ "type": "Feature", "properties": { "tile_name": "K-35-062-2_Rakovski_x0_y1792.png", "map_name": "K-35-062-2_Rakovski" }, "geometry": { "type": "Polygon", "coordinates": [ [ [ 316580.915289415337611, 4677631.136532193981111 ], [ 316580.915289415337611, 4680200.782302460633218 ], [ 314011.269519148918334, 4680200.782302460633218 ], [ 314011.269519148918334, 4677631.136532193981111 ], [ 316580.915289415337611, 4677631.136532193981111 ] ] ] } },
{ "type": "Feature", "properties": { "tile_name": "K-35-062-2_Rakovski_x0_y3136.png", "map_name": "K-35-062-2_Rakovski" }, "geometry": { "type": "Polygon", "coordinates": [ [ [ 316580.915289415337611, 4670885.81638524401933 ], [ 316580.915289415337611, 4673455.462155510671437 ], [ 314011.269519148918334, 4673455.462155510671437 ], [ 314011.269519148918334, 4670885.81638524401933 ], [ 316580.915289415337611, 4670885.81638524401933 ] ] ] } },
{ "type": "Feature", "properties": { "tile_name": "K-35-062-2_Rakovski_x448_y2688.png", "map_name": "K-35-062-2_Rakovski" }, "geometry": { "type": "Polygon", "coordinates": [ [ [ 318829.355338398483582, 4673134.256434227339923 ], [ 318829.355338398483582, 4675703.902204493992031 ], [ 316259.709568132064305, 4675703.902204493992031 ], [ 316259.709568132064305, 4673134.256434227339923 ], [ 318829.355338398483582, 4673134.256434227339923 ] ] ] } },
{ "type": "Feature", "properties": { "tile_name": "K-35-062-2_Rakovski_x896_y2688.png", "map_name": "K-35-062-2_Rakovski" }, "geometry": { "type": "Polygon", "coordinates": [ [ [ 321077.795387381629553, 4673134.256434227339923 ], [ 321077.795387381629553, 4675703.902204493992031 ], [ 318508.149617115210276, 4675703.902204493992031 ], [ 318508.149617115210276, 4673134.256434227339923 ], [ 321077.795387381629553, 4673134.256434227339923 ] ] ] } },
{ "type": "Feature", "properties": { "tile_name": "K-35-062-2_Rakovski_x896_y3136.png", "map_name": "K-35-062-2_Rakovski" }, "geometry": { "type": "Polygon", "coordinates": [ [ [ 321077.795387381629553, 4670885.81638524401933 ], [ 321077.795387381629553, 4673455.462155510671437 ], [ 318508.149617115210276, 4673455.462155510671437 ], [ 318508.149617115210276, 4670885.81638524401933 ], [ 321077.795387381629553, 4670885.81638524401933 ] ] ] } },
{ "type": "Feature", "properties": { "tile_name": "K-35-078-1_Lesovo_x1344_y0.png", "map_name": "K-35-078-1_Lesovo" }, "geometry": { "type": "Polygon", "coordinates": [ [ [ 467692.286313839198556, 4647276.298069880343974 ], [ 467692.286313839198556, 4649852.411821395158768 ], [ 465116.172562324150931, 4649852.411821395158768 ], [ 465116.172562324150931, 4647276.298069880343974 ], [ 467692.286313839198556, 4647276.298069880343974 ] ] ] } },
{ "type": "Feature", "properties": { "tile_name": "K-35-078-1_Lesovo_x1344_y896.png", "map_name": "K-35-078-1_Lesovo" }, "geometry": { "type": "Polygon", "coordinates": [ [ [ 467692.286313839198556, 4642768.099004728719592 ], [ 467692.286313839198556, 4645344.212756243534386 ], [ 465116.172562324150931, 4645344.212756243534386 ], [ 465116.172562324150931, 4642768.099004728719592 ], [ 467692.286313839198556, 4642768.099004728719592 ] ] ] } },
{ "type": "Feature", "properties": { "tile_name": "K-35-078-1_Lesovo_x3136_y2688.png", "map_name": "K-35-078-1_Lesovo" }, "geometry": { "type": "Polygon", "coordinates": [ [ [ 476708.684444141865242, 4633751.700874426402152 ], [ 476708.684444141865242, 4636327.814625941216946 ], [ 474132.570692626817618, 4636327.814625941216946 ], [ 474132.570692626817618, 4633751.700874426402152 ], [ 476708.684444141865242, 4633751.700874426402152 ] ] ] } },
{ "type": "Feature", "properties": { "tile_name": "K-35-078-1_Lesovo_x3584_y3136.png", "map_name": "K-35-078-1_Lesovo" }, "geometry": { "type": "Polygon", "coordinates": [ [ [ 478962.78397671750281, 4631497.601341851055622 ], [ 478962.78397671750281, 4634073.715093365870416 ], [ 476386.670225202455185, 4634073.715093365870416 ], [ 476386.670225202455185, 4631497.601341851055622 ], [ 478962.78397671750281, 4631497.601341851055622 ] ] ] } },
{ "type": "Feature", "properties": { "tile_name": "K-35-078-1_Lesovo_x896_y3136.png", "map_name": "K-35-078-1_Lesovo" }, "geometry": { "type": "Polygon", "coordinates": [ [ [ 465438.18678126350278, 4631497.601341851055622 ], [ 465438.18678126350278, 4634073.715093365870416 ], [ 462862.073029748455156, 4634073.715093365870416 ], [ 462862.073029748455156, 4631497.601341851055622 ], [ 465438.18678126350278, 4631497.601341851055622 ] ] ] } }
]
}
